address,categories/0,cid,city,locatedIn,latitude,longitude,neighborhood,phone,postalCode,rank,searchPageUrl,state,street,store_name,totalScore,url,website
"Lot No. 16, Level 5 Nu Sentral, Jalan Tun Sambanthan, 50470 Kuala Lumpur, Malaysia",Restaurant,8.82E+18,Kuala Lumpur,Floor 5 · NU Sentral,3.1331966,101.6867943,"Lot No. 16, Level 5 Nu Sentral, Jalan Tun Sambanthan",+60 3-2276 1439,50470,1,"https://www.google.com/maps/search/kfc+in+kl/@3.1399254,101.6235511,12z?hl=en",Federal Territory of Kuala Lumpur,"Lot No. 16, Level 5 Nu Sentral, Jalan Tun Sambanthan",KFC NU Sentral KL,1,"https://www.google.com/maps/place/KFC+NU+Sentral+KL/@3.1331966,101.6846056,17z/data=!3m1!4b1!4m5!3m4!1s0x31cc49fec865562d:0x7a6c7346114d8a7b!8m2!3d3.1331966!4d101.6867943?hl=en",https://kfc.com.my/
"Berjaya Times Square, Lot 34A, Lower Ground, 1, Jalan Imbi, 55100 Kuala Lumpur, Malaysia",Fast food restaurant,4.75E+18,Kuala Lumpur,Berjaya Times Square KL Shopping Mall,3.1416344,101.7104189,"Berjaya Times Square, Lot 34A, Lower Ground, 1, Jalan Imbi",+60 3-2110 0562,55100,2,"https://www.google.com/maps/search/kfc+in+kl/@3.1399254,101.6235511,12z?hl=en",Federal Territory of Kuala Lumpur,"Berjaya Times Square, Lot 34A, Lower Ground, 1, Jalan Imbi",KFC Berjaya Times Square,3.7,"https://www.google.com/maps/place/KFC+Berjaya+Times+Square/@3.1416344,101.7082302,17z/data=!3m1!4b1!4m5!3m4!1s0x31cc36288d196e6f:0x41f6e32f95671672!8m2!3d3.1416344!4d101.7104189?hl=en",https://kfc.com.my/
"Lot No. LG3 & LG4, Lower Ground Floor, Jalan Putra, 50350 Kuala Lumpur, Malaysia",Restaurant,1.61E+19,Kuala Lumpur,Sunway Putra Mall,3.1662468,101.6923876,"Lot No. LG3 & LG4, Lower Ground Floor, Jalan Putra",+60 3-4051 3244,50350,20,"https://www.google.com/maps/search/kfc+in+kl/@3.1399254,101.6235511,12z?hl=en",Federal Territory of Kuala Lumpur,"Lot No. LG3 & LG4, Lower Ground Floor, Jalan Putra",KFC Sunway Putra,2.3,"https://www.google.com/maps/place/KFC+Sunway+Putra/@3.1662468,101.6901989,17z/data=!3m1!4b1!4m5!3m4!1s0x31cc483c7fa9d8e1:0xdf053b756d5e02ac!8m2!3d3.1662468!4d101.6923876?hl=en",https://kfc.com.my/
"2, Jln 21/19, Sea Park, 46300 Petaling Jaya, Selangor, Malaysia",Restaurant,3.58E+18,Petaling Jaya,,3.1089858,101.6228057,"2, Jln 21/19",+60 3-7865 3701,46300,80,"https://www.google.com/maps/search/kfc+in+kl/@3.1399207,101.623551,12z?hl=en",Selangor,"2, Jln 21/19",KFC Sea Park,3.7,"https://www.google.com/maps/place/KFC+Sea+Park/@3.1089858,101.620617,17z/data=!3m1!4b1!4m5!3m4!1s0x31cc4bfc14fe864d:0x31b653d5cca155b3!8m2!3d3.1089858!4d101.6228057?hl=en",https://kfc.com.my/
"Giant Hypermarket Kota Damansara, No. F-15, 16, Jalan PJU 5/1, 47810 Petaling Jaya, Selangor, Malaysia",Restaurant,3.51E+18,Petaling Jaya,Giant Hypermarket Kota Damansara,3.1561992,101.596532,"Giant Hypermarket Kota Damansara, No. F-15, 16, Jalan PJU 5/1",+60 19-336 3056,47810,93,"https://www.google.com/maps/search/kfc+in+kl/@3.1399207,101.623551,12z?hl=en",Selangor,"Giant Hypermarket Kota Damansara, No. F-15, 16, Jalan PJU 5/1",KFC Giant Kota Damansara,3.7,"https://www.google.com/maps/place/KFC+Giant+Kota+Damansara/@3.1561992,101.5943433,17z/data=!3m1!4b1!4m5!3m4!1s0x31cc4f210c1625cb:0x30b0e49a53bb490f!8m2!3d3.1561992!4d101.596532?hl=en",https://kfc.com.my/
"and Bukit Lanjan Interchange, No. R1, Sungai Buloh Overhead Bridge, KM 458.40 of North South Express Between, 47000 Sungai Buloh, Selangor, Malaysia",Restaurant,1.95E+18,Sungai Buloh,R&R Sungai Buloh Overhead Bridge Restaurant,3.1885361,101.5863314,"and Bukit Lanjan Interchange, No. R1, Sungai Buloh Overhead Bridge, KM 458.40 of North South Express Between",+60 11-5912 2882,47000,107,"https://www.google.com/maps/search/kfc+in+kl/@3.1399207,101.623551,12z?hl=en",Selangor,"and Bukit Lanjan Interchange, No. R1, Sungai Buloh Overhead Bridge, KM 458.40 of North South Express Between",KFC OHB Sungai Buloh,4.1,"https://www.google.com/maps/place/KFC+OHB+Sungai+Buloh/@3.1885361,101.5841427,17z/data=!3m1!4b1!4m5!3m4!1s0x31cc4f63eef1224d:0x1b04e4b27fb92ded!8m2!3d3.1885361!4d101.5863314?hl=en",https://kfc.com.my/
"No. 60 & 62, Sunway Metro, Jalan PJS 11/28, Bandar Sunway, 46150 Petaling Jaya, Selangor, Malaysia",Restaurant,6.10E+18,Petaling Jaya,,3.0727714,101.6092374,"No. 60 & 62, Sunway Metro, Jalan PJS 11/28",+60 3-5611 6472,46150,92,"https://www.google.com/maps/search/kfc+in+kl/@3.1399207,101.623551,12z?hl=en",Selangor,"No. 60 & 62, Sunway Metro, Jalan PJS 11/28",KFC,2.9,"https://www.google.com/maps/place/KFC/@3.0727714,101.6070487,17z/data=!3m1!4b1!4m5!3m4!1s0x31cc4c80b65e9bdf:0x54afb620240a7886!8m2!3d3.0727465!4d101.6092371?hl=en",https://kfc.com.my/
"Lot No. F2.02, F2.09 & F2.10, LG Floor, AEON BiG Subang, 3, Jalan SS 16/1, 47500 Subang Jaya, Selangor, Malaysia",Restaurant,1.83E+18,Subang Jaya,AEON BiG Subang Jaya,3.0832394,101.5877013,"Lot No. F2.02, F2.09 & F2.10, LG Floor, AEON BiG Subang, 3, Jalan SS 16/1",+60 19-337 5092,47500,106,"https://www.google.com/maps/search/kfc+in+kl/@3.1399207,101.623551,12z?hl=en",Selangor,"Lot No. F2.02, F2.09 & F2.10, LG Floor, AEON BiG Subang, 3, Jalan SS 16/1",KFC AEON BiG Subang Jaya,3.5,"https://www.google.com/maps/place/KFC+AEON+BiG+Subang+Jaya/@3.0832394,101.5855126,17z/data=!3m1!4b1!4m5!3m4!1s0x31cc4c5ca8b14d15:0x1968b9dc186594c4!8m2!3d3.0832394!4d101.5877013?hl=en",https://kfc.com.my/
"Lot No. G16, G17, G26 & G27 Giant Hypermarket Bandar Kinrara Puchong, 47100 Selangor, Malaysia",Fast food restaurant,3.56E+18,Selangor,Giant Hypermarket Bandar Kinrara,3.0503449,101.6468442,"Lot No. G16, G17, G26 & G27 Giant Hypermarket Bandar Kinrara Puchong",+60 3-8071 0570,47100,91,"https://www.google.com/maps/search/kfc+in+kl/@3.1399207,101.623551,12z?hl=en",Selangor,"Lot No. G16, G17, G26 & G27 Giant Hypermarket Bandar Kinrara Puchong",KFC @ Giant Bandar Kinrara,3.4,"https://www.google.com/maps/place/KFC+@+Giant+Bandar+Kinrara/@3.0503449,101.6446555,17z/data=!3m1!4b1!4m5!3m4!1s0x31cc4b3c42d7c93d:0x3164494507548a03!8m2!3d3.0503449!4d101.6468442?hl=en",http://kfc.com.my/
"16, 17 & 18 First Floor Giant Hyper Kelana Jaya, 47301 Selangor, Malaysia",Restaurant,8.10E+17,Selangor,Floor 1 · Giant Mall Kelana Jaya,3.102932,101.597838,"16, 17 & 18 First Floor Giant Hyper Kelana Jaya",+60 19-337 7914,47301,105,"https://www.google.com/maps/search/kfc+in+kl/@3.1399207,101.623551,12z?hl=en",Selangor,"16, 17 & 18 First Floor Giant Hyper Kelana Jaya",KFC,3.6,"https://www.google.com/maps/place/KFC/@3.102932,101.5956493,17z/data=!3m1!4b1!4m5!3m4!1s0x31cc4c175a538725:0xb3ca418e5ebf6b2!8m2!3d3.102932!4d101.597838?hl=en",http://kfc.com.my/
"1st Floor, Lot A010, A011, GF &, Jalan PJU 10/1, Damansara Damai, 47800 Petaling Jaya, Selangor, Malaysia",Restaurant,7.35E+18,Petaling Jaya,,3.1990122,101.594342,"1st Floor, Lot A010, A011, GF &, Jalan PJU 10/1",+60 3-6145 0978,47800,90,"https://www.google.com/maps/search/kfc+in+kl/@3.1399207,101.623551,12z?hl=en",Selangor,"1st Floor, Lot A010, A011, GF &, Jalan PJU 10/1",KFC Damansara Damai,3.7,"https://www.google.com/maps/place/KFC+Damansara+Damai/@3.1990122,101.5921533,17z/data=!3m1!4b1!4m5!3m4!1s0x31cc45f322580ac3:0x660dca60e20aed73!8m2!3d3.1990122!4d101.594342?hl=en",https://kfc.com.my/
"Ioi Mall, FS01-FS03, First Floor, Bandar Puchong Jaya, 47100 Puchong, Selangor, Malaysia",Restaurant,1.18E+19,Puchong,IOI Mall Puchong,3.0448508,101.618082,"Ioi Mall, FS01-FS03, First Floor",+60 3-8071 7367,47100,104,"https://www.google.com/maps/search/kfc+in+kl/@3.1399207,101.623551,12z?hl=en",Selangor,"Ioi Mall, FS01-FS03, First Floor","KFC IOI Mall, Puchong",3.1,"https://www.google.com/maps/place/KFC+IOI+Mall,+Puchong/@3.0448508,101.6158933,17z/data=!3m1!4b1!4m5!3m4!1s0x31cc4b59ad4dccef:0xa3acf6a88475a178!8m2!3d3.0448508!4d101.618082?hl=en",https://kfc.com.my/
"Lot G3 & G4, Lotus's, Ara Damansara, 47301 Petaling Jaya, Selangor, Malaysia",Restaurant,8.31E+18,Petaling Jaya,Lotus's Ara Damansara,3.118492,101.576252,"Lot G3 & G4, Lotus's",+60 11-6562 2881,47301,103,"https://www.google.com/maps/search/kfc+in+kl/@3.1399207,101.623551,12z?hl=en",Selangor,"Lot G3 & G4, Lotus's",KFC Lotus's Ara Damansara,3.5,"https://www.google.com/maps/place/KFC+Lotus's+Ara+Damansara/@3.118492,101.5740633,17z/data=!3m1!4b1!4m5!3m4!1s0x31cc4e83ffc8c6d1:0x735d8e620eb81869!8m2!3d3.118492!4d101.576252?hl=en",https://kfc.com.my/
"G115, Ground Floor Centre Point, Bandar Utama Petaling Jaya, 46000 Selangor, Malaysia",Fast food restaurant,1.73E+19,Selangor,Floor G · Centrepoint Bandar Utama,3.1380487,101.6099459,"G115, Ground Floor Centre Point, Bandar Utama Petaling Jaya",+60 3-7732 1590,46000,89,"https://www.google.com/maps/search/kfc+in+kl/@3.1399207,101.623551,12z?hl=en",Selangor,"G115, Ground Floor Centre Point, Bandar Utama Petaling Jaya",Kentucky Fried Chicken,3.9,"https://www.google.com/maps/place/Kentucky+Fried+Chicken/@3.1380487,101.6077572,17z/data=!3m1!4b1!4m5!3m4!1s0x31cc4ecc02ba4c09:0xefe9b9fce8644da2!8m2!3d3.1380487!4d101.6099459?hl=en",http://kfc.com.my/
"G09 - G12, G-34, G-35 Grd Floor, Pasaraya Hiong Kong, No 2, Bandar Baru Sg Buloh, 47000 Selangor, Malaysia",Restaurant,1.30E+19,Selangor,Kompleks Sungai Buloh,3.209539,101.563828,"G09 - G12, G-34, G-35 Grd Floor, Pasaraya Hiong Kong, No 2, Bandar Baru Sg Buloh",+60 3-6143 4816,47000,102,"https://www.google.com/maps/search/kfc+in+kl/@3.1399207,101.623551,12z?hl=en",Selangor,"G09 - G12, G-34, G-35 Grd Floor, Pasaraya Hiong Kong, No 2, Bandar Baru Sg Buloh",KFC,3.1,"https://www.google.com/maps/place/KFC/@3.209539,101.5616393,17z/data=!3m1!4b1!4m5!3m4!1s0x31cc45739b6aaba5:0xb49837e123c144b0!8m2!3d3.209539!4d101.563828?hl=en",http://kfc.com.my/
"Jla SS 15/4G, Ss 15, 47500 Subang Jaya, Selangor, Malaysia",Fast food restaurant,4.28E+18,Subang Jaya,,3.0782164,101.5882718,Jla SS 15/4G,+60 3-5612 1526,47500,101,"https://www.google.com/maps/search/kfc+in+kl/@3.1399207,101.623551,12z?hl=en",Selangor,Jla SS 15/4G,KFC,3.7,"https://www.google.com/maps/place/KFC/@3.0782164,101.5860831,17z/data=!3m1!4b1!4m5!3m4!1s0x31cc4c5f9deabe9f:0x3b68873613492de5!8m2!3d3.0782164!4d101.5882718?hl=en",http://kfc.com.my/
"No. 7, Ground Floor, Jalan SG 1/6, Taman Industri Bolton, 68100 Batu Caves, Selangor, Malaysia",Restaurant,6.48E+18,Batu Caves,,3.2376861,101.6975369,"No. 7, Ground Floor, Jalan SG 1/6",+60 3-6179 0578,68100,88,"https://www.google.com/maps/search/kfc+in+kl/@3.1399207,101.623551,12z?hl=en",Selangor,"No. 7, Ground Floor, Jalan SG 1/6",KFC Sri Gombak,3.7,"https://www.google.com/maps/place/KFC+Sri+Gombak/@3.2376861,101.6953482,17z/data=!3m1!4b1!4m5!3m4!1s0x31cc477af7ee8fff:0x59f76fa2317f384b!8m2!3d3.2376861!4d101.6975369?hl=en",https://kfc.com.my/
"No 14433, 7-1, 2 Miles, Jalan Puchong, 47100 Puchong, Selangor, Malaysia",Restaurant,1.01E+19,Puchong,,3.0617156,101.6459356,"No 14433, 7-1, 2 Miles, Jalan Puchong",+60 19-338 1378,47100,87,"https://www.google.com/maps/search/kfc+in+kl/@3.1399207,101.623551,12z?hl=en",Selangor,"No 14433, 7-1, 2 Miles, Jalan Puchong",KFC Puchong,3.5,"https://www.google.com/maps/place/KFC+Puchong/@3.0617156,101.6437469,17z/data=!3m1!4b1!4m5!3m4!1s0x31cc4b11bcafa7fd:0x8b8821c2150fea88!8m2!3d3.0617156!4d101.6459356?hl=en",https://kfc.com.my/
"33, Jalan Bunga Tanjung 9c, Taman Putra, 68000 Ampang, Selangor, Malaysia",Restaurant,1.72E+19,Ampang Jaya,,3.1203763,101.7628559,"33, Jalan Bunga Tanjung 9c",+60 3-4288 5585,68000,86,"https://www.google.com/maps/search/kfc+in+kl/@3.1399207,101.623551,12z?hl=en",Selangor,"33, Jalan Bunga Tanjung 9c",KFC Taman Putra,3.9,"https://www.google.com/maps/place/KFC+Taman+Putra/@3.1203763,101.7606672,17z/data=!3m1!4b1!4m5!3m4!1s0x31cc368546c553cb:0xee94d153cc8889d4!8m2!3d3.1203774!4d101.7628667?hl=en",https://kfc.com.my/
"Lot No. G-12 & GAF 13A, First Floor, Axis Atrium, Jalan Cempaka, 68000 Ampang Jaya, Selangor, Malaysia",Restaurant,1.44E+19,Ampang Jaya,Floor 1 · TWENTY ONE SALES & SERVICES,3.1365046,101.7468996,"Lot No. G-12 & GAF 13A, First Floor, Axis Atrium, Jalan Cempaka",+60 3-9201 2405,68000,85,"https://www.google.com/maps/search/kfc+in+kl/@3.1399207,101.623551,12z?hl=en",Selangor,"Lot No. G-12 & GAF 13A, First Floor, Axis Atrium, Jalan Cempaka",KFC Taman Cempaka (Axis Atrium),3.8,"https://www.google.com/maps/place/KFC+Taman+Cempaka+(Axis+Atrium)/@3.1365046,101.7447109,17z/data=!3m1!4b1!4m5!3m4!1s0x31cc36590f552b35:0xc784751ade70dc99!8m2!3d3.1365046!4d101.7468996?hl=en",https://kfc.com.my/
"Wisma Kfc, 17, Jln Sultan Ismail, Kuala Lumpur, 50450 Kuala Lumpur, Malaysia",Corporate office,7.87E+18,Kuala Lumpur,,3.1516603,101.7090651,"Wisma Kfc, 17, Jln Sultan Ismail",,50450,84,"https://www.google.com/maps/search/kfc+in+kl/@3.1399207,101.623551,12z?hl=en",Federal Territory of Kuala Lumpur,"Wisma Kfc, 17, Jln Sultan Ismail",Wisma KFC,1.8,"https://www.google.com/maps/place/Wisma+KFC/@3.1516603,101.7068764,17z/data=!3m1!4b1!4m5!3m4!1s0x31cc37d52e7262d3:0x6d3064976bb06eef!8m2!3d3.1516603!4d101.7090651?hl=en",
"No. G39, Ground Floor, Lot, 6, Jalan PJU 7/3, Mutiara Damansara, 47810 Petaling Jaya, Selangor, Malaysia",Restaurant,8.99E+18,Petaling Jaya,Floor G · The Curve,3.1566983,101.6105316,"No. G39, Ground Floor, Lot, 6, Jalan PJU 7/3",+60 3-7731 1124,47810,83,"https://www.google.com/maps/search/kfc+in+kl/@3.1399207,101.623551,12z?hl=en",Selangor,"No. G39, Ground Floor, Lot, 6, Jalan PJU 7/3",KFC The Curve Damansara,3.7,"https://www.google.com/maps/place/KFC+The+Curve+Damansara/@3.1566983,101.6083429,17z/data=!3m1!4b1!4m5!3m4!1s0x31cc4f2be351bb63:0x7cd32ff5112534c3!8m2!3d3.1566983!4d101.6105316?hl=en",https://kfc.com.my/
"Lot LG43, Lower Ground Floor, Selayang Mall Complex, Lot PT 1299, Jalan Ipoh, 68100, Selayang, Selangor, Malaysia",Restaurant,1.63E+19,Selayang,Selayang Mall,3.2368903,101.6435799,"Lot LG43, Lower Ground Floor, Selayang Mall Complex, Lot PT 1299, Jalan Ipoh, 68100",+60 3-6127 1073,,82,"https://www.google.com/maps/search/kfc+in+kl/@3.1399207,101.623551,12z?hl=en",Selangor,"Lot LG43, Lower Ground Floor, Selayang Mall Complex, Lot PT 1299, Jalan Ipoh, 68100",KFC Selayang Mall,3.3,"https://www.google.com/maps/place/KFC+Selayang+Mall/@3.2368903,101.6413912,17z/data=!3m1!4b1!4m5!3m4!1s0x31cc46f161cc7b7d:0xe257770e1e1da559!8m2!3d3.2368857!4d101.6435754?hl=en",https://kfc.com.my/
"52G, 54G, Jalan Wawasan 2/3, Bandar Baru Ampang, 68000 Kuala Lumpur, Selangor, Malaysia",Restaurant,1.50E+19,Kuala Lumpur,,3.1460128,101.7669416,"52G, 54G, Jalan Wawasan 2/3",+60 3-4287 4082,68000,81,"https://www.google.com/maps/search/kfc+in+kl/@3.1399207,101.623551,12z?hl=en",Selangor,"52G, 54G, Jalan Wawasan 2/3",KFC Ampang 2,3.8,"https://www.google.com/maps/place/KFC+Ampang+2/@3.1460128,101.7647529,17z/data=!3m1!4b1!4m5!3m4!1s0x31cc36e38401442f:0xd002679cae644a03!8m2!3d3.1459773!4d101.7669251?hl=en",https://kfc.com.my/
"1 Utama Shopping Centre, Central Park Avenue, Bandar Utama, 47800 Petaling Jaya, Selangor, Malaysia",Restaurant,3.30E+18,Petaling Jaya,1 Utama Shopping Centre,3.1495199,101.6162579,"1 Utama Shopping Centre, Central Park Avenue",+60 3-7731 5826,47800,79,"https://www.google.com/maps/search/kfc+in+kl/@3.1399207,101.623551,12z?hl=en",Selangor,"1 Utama Shopping Centre, Central Park Avenue",KFC Bandar Utama,3.7,"https://www.google.com/maps/place/KFC+Bandar+Utama/@3.1495199,101.6140692,17z/data=!3m1!4b1!4m5!3m4!1s0x31cc4ed5375bf94f:0x2dbe3b962b75d035!8m2!3d3.1495199!4d101.6162579?hl=en",https://kfc.com.my/
"No 2-1 Ground & 1st Floor, Sri Manja Square 2, Jalan PJS3/61, Taman Sri Manja, 46000 Selangor, Malaysia",Fast food restaurant,1.65E+19,Selangor,,3.0741246,101.6500709,"No 2-1 Ground & 1st Floor, Sri Manja Square 2, Jalan PJS3/61, Taman Sri Manja",+60 3-7770 9574,46000,78,"https://www.google.com/maps/search/kfc+in+kl/@3.1399207,101.623551,12z?hl=en",Selangor,"No 2-1 Ground & 1st Floor, Sri Manja Square 2, Jalan PJS3/61, Taman Sri Manja",KFC,3.6,"https://www.google.com/maps/place/KFC/@3.0741246,101.6478822,17z/data=!3m1!4b1!4m5!3m4!1s0x31cc4ba72929f651:0xe57e4520f206c11b!8m2!3d3.0741246!4d101.6500709?hl=en",http://kfc.com.my/
"Lot C-09, Lower Ground Floor, Atria Shopping Gallery, Jalan SS2/21, 47400 Selangor, Malaysia",Fast food restaurant,1.31E+19,Selangor,Floor G · Atria Shopping Gallery,3.1270656,101.6162937,"Lot C-09, Lower Ground Floor, Atria Shopping Gallery, Jalan SS2/21",+60 3-7732 0734,47400,77,"https://www.google.com/maps/search/kfc+in+kl/@3.1399207,101.623551,12z?hl=en",Selangor,"Lot C-09, Lower Ground Floor, Atria Shopping Gallery, Jalan SS2/21",KFC Atria Damansara,3.2,"https://www.google.com/maps/place/KFC+Atria+Damansara/@3.1270656,101.614105,17z/data=!3m1!4b1!4m5!3m4!1s0x31cc494ca32476f1:0xb599a182c47cf38e!8m2!3d3.1270656!4d101.6162937?hl=en",http://kfc.com.my/
"12 (Portion, Lotus's, Lease 8, 10 &, 8, Jalan PJU 7/4, Mutiara Damansara, 47800 Petaling Jaya, Selangor, Malaysia",Restaurant,9.93E+18,Petaling Jaya,Lotus's Mutiara Damansara,3.1591691,101.6130841,"12 (Portion, Lotus's, Lease 8, 10 &, 8, Jalan PJU 7/4",+60 3-7731 3879,47800,76,"https://www.google.com/maps/search/kfc+in+kl/@3.1399207,101.623551,12z?hl=en",Selangor,"12 (Portion, Lotus's, Lease 8, 10 &, 8, Jalan PJU 7/4",KFC Lotus's Damansara,3.8,"https://www.google.com/maps/place/KFC+Lotus's+Damansara/@3.1591691,101.6108954,17z/data=!3m1!4b1!4m5!3m4!1s0x31cc4f2cfe3999c5:0x89c6b246bd84332f!8m2!3d3.1591691!4d101.6130841?hl=en",https://kfc.com.my/
"Level Ground Floor, Tower 1, V Square @ PJ City Centre, Jln Utara, Section 52, 46100 Petaling Jaya, Malaysia",Restaurant,1.64E+19,Petaling Jaya,,3.1071968,101.6399449,"Level Ground Floor, Tower 1, V Square @ PJ City Centre, Jln Utara",+60 3-7931 0185,46100,75,"https://www.google.com/maps/search/kfc+in+kl/@3.1399207,101.623551,12z?hl=en",Selangor,"Level Ground Floor, Tower 1, V Square @ PJ City Centre, Jln Utara",KFC VSQ,4,"https://www.google.com/maps/place/KFC+VSQ/@3.1071968,101.6377562,17z/data=!3m1!4b1!4m5!3m4!1s0x31cc4bdde7c167df:0xe302c63f1e3f47c8!8m2!3d3.1071968!4d101.6399449?hl=en",https://kfc.com.my/
"G3-A & G5, Bangunan Menara Amanah Ikhtiar, Bandar Sri Damansara, 52200 Kuala Lumpur, Malaysia",Restaurant,1.38E+19,Kuala Lumpur,,3.1955503,101.6083688,"G3-A & G5, Bangunan Menara Amanah Ikhtiar",+60 3-6262 4135,52200,74,"https://www.google.com/maps/search/kfc+in+kl/@3.1399207,101.623551,12z?hl=en",Selangor,"G3-A & G5, Bangunan Menara Amanah Ikhtiar",KFC Sri Damansara,3.5,"https://www.google.com/maps/place/KFC+Sri+Damansara/@3.1955503,101.6061801,17z/data=!3m1!4b1!4m5!3m4!1s0x31cc45f914e6f0a5:0xbf4d46dfd5dda2db!8m2!3d3.1955251!4d101.6083935?hl=en",https://kfc.com.my/
"5, Jalan Barat, Pjs 8, 46200 Petaling Jaya, Selangor, Malaysia",Fast food restaurant,7.27E+18,Petaling Jaya,,3.1008109,101.6413114,"5, Jalan Barat",+60 3-7931 2836,46200,73,"https://www.google.com/maps/search/kfc+in+kl/@3.1399207,101.623551,12z?hl=en",Selangor,"5, Jalan Barat",KFC 5 Barat,4,"https://www.google.com/maps/place/KFC+5+Barat/@3.1008109,101.6391227,17z/data=!3m1!4b1!4m5!3m4!1s0x31cc4bc2fd94df65:0x64e2e59157fa8639!8m2!3d3.1008109!4d101.6413114?hl=en",https://kfc.com.my/
"No. 17, Jln Sultan Ismail, Wilayah Persekutuan, 50250 Kuala Lumpur, Wilayah Persekutuan Kuala Lumpur, Malaysia",Eatery,1.15E+19,Kuala Lumpur,,3.1531152,101.7081311,"No. 17, Jln Sultan Ismail",+60 3-2026 3388,50250,72,"https://www.google.com/maps/search/kfc+in+kl/@3.1399207,101.623551,12z?hl=en",Federal Territory of Kuala Lumpur,"No. 17, Jln Sultan Ismail",KFC,,"https://www.google.com/maps/place/KFC/@3.1531152,101.7059424,17z/data=!3m1!4b1!4m5!3m4!1s0x31cc482a3d0ec0c1:0x9ff5032366b399d3!8m2!3d3.1531152!4d101.7081311?hl=en",
"21a, Jln Bandar, Taman Melawati, 53100 Kuala Lumpur, Wilayah Persekutuan Kuala Lumpur, Malaysia",Restaurant,1.63E+19,Kuala Lumpur,,3.210112,101.7510556,"21a, Jln Bandar",,53100,71,"https://www.google.com/maps/search/kfc+in+kl/@3.1399207,101.623551,12z?hl=en",Federal Territory of Kuala Lumpur,"21a, Jln Bandar",KFC Melawati,1,"https://www.google.com/maps/place/KFC+Melawati/@3.210112,101.7488669,17z/data=!3m1!4b1!4m5!3m4!1s0x31cc396311094dc3:0xe1b7129ea7cc6dd6!8m2!3d3.2101129!4d101.7510512?hl=en",
"Taman Petaling Utama, 46000 Petaling Jaya, Selangor, Malaysia",Restaurant,2.00E+18,Petaling Jaya,PETRONAS Petaling Utama,3.0789632,101.6467971,,+60 3-7772 6753,46000,70,"https://www.google.com/maps/search/kfc+in+kl/@3.1399207,101.623551,12z?hl=en",Selangor,,KFC Petronas Petaling Utama Drive Thru,3.5,"https://www.google.com/maps/place/KFC+Petronas+Petaling+Utama+Drive+Thru/@3.0789632,101.6446084,17z/data=!3m1!4b1!4m5!3m4!1s0x31cc4ba43291792f:0x1bcc171e95a7e40d!8m2!3d3.0789634!4d101.6467595?hl=en",https://kfc.com.my/
"No. 49 & 51, Ground Floor, Jalan 52/12, Pj New Town, 46200 Petaling Jaya, Selangor, Malaysia",Fast food restaurant,4.17E+18,Petaling Jaya,,3.0989035,101.6461508,"No. 49 & 51, Ground Floor, Jalan 52/12",+60 3-7954 0475,46200,69,"https://www.google.com/maps/search/kfc+in+kl/@3.1399207,101.623551,12z?hl=en",Selangor,"No. 49 & 51, Ground Floor, Jalan 52/12",KFC,4,"https://www.google.com/maps/place/KFC/@3.0989035,101.6439621,17z/data=!3m1!4b1!4m5!3m4!1s0x31cc4bc43928b851:0x39e45f0504d6f86d!8m2!3d3.0989035!4d101.6461508?hl=en",https://kfc.com.my/
"Lot No. 10, Ground Floor, Lotus's Hypermarket, 68000 Ampang Jaya, Selangor, Malaysia",Restaurant,5.28E+18,Ampang Jaya,Floor G · Lotus's Ampang,3.1438906,101.7423578,"Lot No. 10, Ground Floor, Lotus's Hypermarket",+60 3-9202 6971,68000,68,"https://www.google.com/maps/search/kfc+in+kl/@3.1399207,101.623551,12z?hl=en",Selangor,"Lot No. 10, Ground Floor, Lotus's Hypermarket",KFC Lotus's Ampang,2.5,"https://www.google.com/maps/place/KFC+Lotus's+Ampang/@3.1438906,101.7401691,17z/data=!3m1!4b1!4m5!3m4!1s0x31cc36503339d3d1:0x493896f2a43b811c!8m2!3d3.1438906!4d101.7423578?hl=en",https://kfc.com.my/
"Shop 3 & 4, Pasaraya & Pusat Membeli Belah Giant, Lot 13796, Jalan, Cangkat Permata, Taman Permata, 53300 Kuala Lumpur, Malaysia",Restaurant,7.99E+18,Kuala Lumpur,Giant Superstore Ulu Kelang,3.2073442,101.7516361,"Shop 3 & 4, Pasaraya & Pusat Membeli Belah Giant, Lot 13796, Jalan, Cangkat Permata",+60 3-4161 8256,53300,67,"https://www.google.com/maps/search/kfc+in+kl/@3.1399207,101.623551,12z?hl=en",Selangor,"Shop 3 & 4, Pasaraya & Pusat Membeli Belah Giant, Lot 13796, Jalan, Cangkat Permata",KFC Plaza Giant Melawati,4,"https://www.google.com/maps/place/KFC+Plaza+Giant+Melawati/@3.2073442,101.7494474,17z/data=!3m1!4b1!4m5!3m4!1s0x31cc3834d7c3e8f1:0x6ed99efaf5228c29!8m2!3d3.2073442!4d101.7516361?hl=en",https://kfc.com.my/
"Lot G03A, GF, Ampang Point Shopping Complex, Jalan Mamanda 3, 68000 Ampang Jaya, Selangor, Malaysia",Restaurant,9.20E+17,Ampang Jaya,Ampang Point Mall,3.157318,101.7511154,"Lot G03A, GF, Ampang Point Shopping Complex, Jalan Mamanda 3",+60 3-4265 5327,68000,66,"https://www.google.com/maps/search/kfc+in+kl/@3.1399207,101.623551,12z?hl=en",Selangor,"Lot G03A, GF, Ampang Point Shopping Complex, Jalan Mamanda 3",KFC Ampang Point,3.9,"https://www.google.com/maps/place/KFC+Ampang+Point/@3.157318,101.7489267,17z/data=!3m1!4b1!4m5!3m4!1s0x31cc37a9ca8903a7:0xcc2d09ff12242bd!8m2!3d3.157318!4d101.7511154?hl=en",https://kfc.com.my/
"Lot No. F2.48 & F2.49, Ground Floor, AEON BiG Shopping Centre, 6, Jalan 8/27a, Wangsa Maju, 53300 Kuala Lumpur, Malaysia",Restaurant,1.89E+18,Kuala Lumpur,AEON BIG Wangsa Maju,3.196212,101.7428646,"Lot No. F2.48 & F2.49, Ground Floor, AEON BiG Shopping Centre, 6, Jalan 8/27a",+60 3-4131 8841,53300,65,"https://www.google.com/maps/search/kfc+in+kl/@3.1399207,101.623551,12z?hl=en",Federal Territory of Kuala Lumpur,"Lot No. F2.48 & F2.49, Ground Floor, AEON BiG Shopping Centre, 6, Jalan 8/27a",KFC AEON BiG Wangsa Maju,3.3,"https://www.google.com/maps/place/KFC+AEON+BiG+Wangsa+Maju/@3.196212,101.7406759,17z/data=!3m1!4b1!4m5!3m4!1s0x31cc382e7b2bc4e1:0x1a40d8892545e6fa!8m2!3d3.196212!4d101.7428646?hl=en",https://kfc.com.my/
"L1-028, AEON BiG, Jalan Metro Perdana Batu 7, off, Jln Kepong, Kepong Entrepeneur Park, 52100 Kuala Lumpur, Malaysia",Restaurant,3.52E+17,Kuala Lumpur,AEON BiG Kepong,3.2140905,101.6442579,"L1-028, AEON BiG, Jalan Metro Perdana Batu 7, off, Jln Kepong",+60 3-6241 2419,52100,64,"https://www.google.com/maps/search/kfc+in+kl/@3.1399207,101.623551,12z?hl=en",Federal Territory of Kuala Lumpur,"L1-028, AEON BiG, Jalan Metro Perdana Batu 7, off, Jln Kepong",KFC AEON BiG Kepong,3.8,"https://www.google.com/maps/place/KFC+AEON+BiG+Kepong/@3.2140905,101.6420692,17z/data=!3m1!4b1!4m5!3m4!1s0x31cc464136802bdb:0x4e3580738672db0!8m2!3d3.2140905!4d101.6442579?hl=en",https://kfc.com.my/
"Lot PT 43, KM 47, Kuala Lumpur-Seremban Expy, 43300 Seri Kembangan, Selangor, Malaysia",Restaurant,1.41E+19,Seri Kembangan,,3.0365015,101.7063936,"Lot PT 43, KM 47, Kuala Lumpur-Seremban Expy",+60 3-8938 1224,43300,63,"https://www.google.com/maps/search/kfc+in+kl/@3.1399207,101.623551,12z?hl=en",Selangor,"Lot PT 43, KM 47, Kuala Lumpur-Seremban Expy",KFC Sungai Besi Toll Drive Thru,3.9,"https://www.google.com/maps/place/KFC+Sungai+Besi+Toll+Drive+Thru/@3.0365015,101.7042049,17z/data=!3m1!4b1!4m5!3m4!1s0x31cc4aa9be584049:0xc3ac348aff2e258a!8m2!3d3.0365015!4d101.7063936?hl=en",https://kfc.com.my/
"PT 8721, Wangsa Melawati, Mukim, 53300 Kuala Lumpur, Malaysia",Restaurant,9.02E+18,Kuala Lumpur,Petronas Wangsa Melawati,3.2108608,101.7436864,"PT 8721, Wangsa Melawati, Mukim",+60 3-4141 8067,53300,62,"https://www.google.com/maps/search/kfc+in+kl/@3.1399207,101.623551,12z?hl=en",Federal Territory of Kuala Lumpur,"PT 8721, Wangsa Melawati, Mukim",KFC DT Petronas Wangsa Melawati,3.3,"https://www.google.com/maps/place/KFC+DT+Petronas+Wangsa+Melawati/@3.2108608,101.7414977,17z/data=!3m1!4b1!4m5!3m4!1s0x31cc39abf4743f4f:0x7d3cfc5a796c0998!8m2!3d3.2109788!4d101.7436004?hl=en",https://kfc.com.my/
"No. 2, Kepong25, Jalan Desa 1/1, Desa Aman Puri, 52100 Kuala Lumpur, Federal Territory of Kuala Lumpur, Malaysia",Restaurant,1.37E+19,Kuala Lumpur,,3.2109787,101.6164229,"No. 2, Kepong25, Jalan Desa 1/1",+60 3-6261 0134,52100,61,"https://www.google.com/maps/search/kfc+in+kl/@3.1399207,101.623551,12z?hl=en",Federal Territory of Kuala Lumpur,"No. 2, Kepong25, Jalan Desa 1/1",KFC Desa Aman Puri,3.7,"https://www.google.com/maps/place/KFC+Desa+Aman+Puri/@3.2109787,101.6142342,17z/data=!3m1!4b1!4m5!3m4!1s0x31cc45e004c03aeb:0xbdc255550cabe0a8!8m2!3d3.2109493!4d101.6164222?hl=en",https://kfc.com.my/
"Lot SB22, Mezzanie Floor, Lotus's Kepong Stores, No. 3, Jalan 7A/62A, Bandar Menjalara, 52200 Kuala Lumpur, Malaysia",Restaurant,1.28E+19,Kuala Lumpur,Lotus's Kepong,3.1928398,101.6334304,"Lot SB22, Mezzanie Floor, Lotus's Kepong Stores, No. 3, Jalan 7A/62A",+60 3-6261 4932,52200,60,"https://www.google.com/maps/search/kfc+in+kl/@3.1399207,101.623551,12z?hl=en",Federal Territory of Kuala Lumpur,"Lot SB22, Mezzanie Floor, Lotus's Kepong Stores, No. 3, Jalan 7A/62A",KFC Lotus's Kepong,3.7,"https://www.google.com/maps/place/KFC+Lotus's+Kepong/@3.1928398,101.6312417,17z/data=!3m1!4b1!4m5!3m4!1s0x31cc461e74f74957:0xb1b5cb74422a37f5!8m2!3d3.1928398!4d101.6334304?hl=en",https://kfc.com.my/
"Petronas Bukit Jalil, Lot 762 & Lot PT 7004, HSD 95960, Mukim Petaling, 57100, 217, Selangor, Malaysia",Restaurant,3.41E+18,Kuala Lumpur,Petronas Bukit Jalil,3.0487826,101.6795479,"Petronas Bukit Jalil, Lot 762 & Lot PT 7004, HSD 95960, Mukim Petaling, 57100, 217",+60 19-338 2726,,59,"https://www.google.com/maps/search/kfc+in+kl/@3.1399207,101.623551,12z?hl=en",Selangor,"Petronas Bukit Jalil, Lot 762 & Lot PT 7004, HSD 95960, Mukim Petaling, 57100, 217",KFC Petronas TPM Drive Thru,3.4,"https://www.google.com/maps/place/KFC+Petronas+TPM+Drive+Thru/@3.0487826,101.6773592,17z/data=!3m1!4b1!4m5!3m4!1s0x31cc4ac14bfbce3b:0x2f5ca5aafe789558!8m2!3d3.0487826!4d101.6795479?hl=en",https://kfc.com.my/
"No. 45 (Ground Floor), Jalan 3/23A, off, Jalan Genting Kelang, Danau Kota, 53300, Malaysia",Restaurant,1.34E+19,Kuala Lumpur,,3.2017786,101.7211378,"No. 45 (Ground Floor), Jalan 3/23A, off, Jalan Genting Kelang",+60 3-4131 9517,53300,58,"https://www.google.com/maps/search/kfc+in+kl/@3.1399207,101.623551,12z?hl=en",Federal Territory of Kuala Lumpur,"No. 45 (Ground Floor), Jalan 3/23A, off, Jalan Genting Kelang",KFC Genting Klang Delco,3.6,"https://www.google.com/maps/place/KFC+Genting+Klang+Delco/@3.2017786,101.7189491,17z/data=!3m1!4b1!4m5!3m4!1s0x31cc3810f5052ab9:0xba1f08732c2ee72f!8m2!3d3.2017786!4d101.7211378?hl=en",https://kfc.com.my/
"Ground Floor, AEON Taman Maluri Shopping Complex, Jalan Jejaka, Cheras, 55100 Kuala Lumpur, Malaysia",Restaurant,1.57E+19,Kuala Lumpur,Floor G · AEON Taman Maluri Shopping Centre,3.1252579,101.7281716,"Ground Floor, AEON Taman Maluri Shopping Complex, Jalan Jejaka",+60 3-9201 4274,55100,40,"https://www.google.com/maps/search/kfc+in+kl/@3.1399207,101.623551,12z?hl=en",Federal Territory of Kuala Lumpur,"Ground Floor, AEON Taman Maluri Shopping Complex, Jalan Jejaka",KFC Taman Maluri,3.7,"https://www.google.com/maps/place/KFC+Taman+Maluri/@3.1252579,101.7259829,17z/data=!3m1!4b1!4m5!3m4!1s0x31cc366b75b297db:0xda5f9cb4c4e03c32!8m2!3d3.1252579!4d101.7281716?hl=en",https://kfc.com.my/
"Terminal Bersepadu Selatan, Lot 4-31 & L4-32, 4th Floor, Bandar Tasik Selatan, 57000 Kuala Lumpur, Malaysia",Restaurant,3.70E+18,Kuala Lumpur,Floor 4 · Terminal Bersepadu Selatan,3.0779901,101.7112454,"Terminal Bersepadu Selatan, Lot 4-31 & L4-32, 4th Floor",+60 3-9056 1095,57000,57,"https://www.google.com/maps/search/kfc+in+kl/@3.1399207,101.623551,12z?hl=en",Federal Territory of Kuala Lumpur,"Terminal Bersepadu Selatan, Lot 4-31 & L4-32, 4th Floor",KFC Bandar Tasik Selatan (TBS),3.3,"https://www.google.com/maps/place/KFC+Bandar+Tasik+Selatan+(TBS)/@3.0779901,101.7090567,17z/data=!3m1!4b1!4m5!3m4!1s0x31cc3586c7a49869:0x33595b2feaef7f9e!8m2!3d3.0779901!4d101.7112454?hl=en",https://kfc.com.my/
"Jalan, Persiaran Alam Damai, Bandar Alam Damai, 56000 Kuala Lumpur, Wilayah Persekutuan Kuala Lumpur, Malaysia",Restaurant,1.44E+19,Kuala Lumpur,PETRONAS Bandar Alam Damai (ZMN Alam Damai),3.0735875,101.7382987,"Jalan, Persiaran Alam Damai",+60 19-337 1709,56000,56,"https://www.google.com/maps/search/kfc+in+kl/@3.1399207,101.623551,12z?hl=en",Federal Territory of Kuala Lumpur,"Jalan, Persiaran Alam Damai",KFC Petronas Alam Damai Drive Thru,3.5,"https://www.google.com/maps/place/KFC+Petronas+Alam+Damai+Drive+Thru/@3.0735875,101.73611,17z/data=!3m1!4b1!4m5!3m4!1s0x31cc35a7a0cd3831:0xc7f15f16a6167b75!8m2!3d3.0736303!4d101.7383146?hl=en",https://kfc.com.my/
"22A, Jalan Dwitasek 1, Dataran Dwitasek, Bandar Sri Permaisuri, 56000 Kuala Lumpur, Malaysia",Fast food restaurant,5.27E+18,Kuala Lumpur,PPC Glomac Sales & Marketing,3.102251,101.7131032,"22A, Jalan Dwitasek 1, Dataran Dwitasek",+60 3-9174 2843,56000,39,"https://www.google.com/maps/search/kfc+in+kl/@3.1399207,101.623551,12z?hl=en",Federal Territory of Kuala Lumpur,"22A, Jalan Dwitasek 1, Dataran Dwitasek","KFC Bandar Sri Permaisuri, Cheras",3.8,"https://www.google.com/maps/place/KFC+Bandar+Sri+Permaisuri,+Cheras/@3.102251,101.7109145,17z/data=!3m1!4b1!4m5!3m4!1s0x31cc35fa07715b4f:0x491d2f8a41a18046!8m2!3d3.102251!4d101.7131032?hl=en",https://kfc.com.my/
"Lot 2-21 & 2-22, 2nd Floor, Quill City Mall, Jln Sultan Ismail, Kuala Lumpur, Federal Territory of Kuala Lumpur, Malaysia",Fast food restaurant,5.71E+18,Kuala Lumpur,Quill City Mall Kuala Lumpur,3.1597205,101.7004395,"Lot 2-21 & 2-22, 2nd Floor, Quill City Mall, Jln Sultan Ismail",,,55,"https://www.google.com/maps/search/kfc+in+kl/@3.1399207,101.623551,12z?hl=en",Federal Territory of Kuala Lumpur,"Lot 2-21 & 2-22, 2nd Floor, Quill City Mall, Jln Sultan Ismail",KFC - Quill City Mall,2.3,"https://www.google.com/maps/place/KFC+-+Quill+City+Mall/@3.1597205,101.6982508,17z/data=!3m1!4b1!4m5!3m4!1s0x31cc495af3ac1e4b:0x4f48762adaf033c0!8m2!3d3.1597205!4d101.7004395?hl=en",
"2, Jalan 2/50 C, off, Jalan Genting Kelang, Taman Setapak Indah Jaya, 53300 Kuala Lumpur, Malaysia",Restaurant,7.23E+17,Kuala Lumpur,,3.1951735,101.7117773,"2, Jalan 2/50 C, off, Jalan Genting Kelang",+60 3-4031 5706,53300,38,"https://www.google.com/maps/search/kfc+in+kl/@3.1399207,101.623551,12z?hl=en",Federal Territory of Kuala Lumpur,"2, Jalan 2/50 C, off, Jalan Genting Kelang",KFC Genting Klang,3.5,"https://www.google.com/maps/place/KFC+Genting+Klang/@3.1951735,101.7095886,17z/data=!3m1!4b1!4m5!3m4!1s0x31cc3816cfce186d:0xa091a8edca13cfe!8m2!3d3.1951735!4d101.7117773?hl=en",https://kfc.com.my/
"Lot No. F1, 1st Floor, Lotus's Selayang, No. 1801, Jalan Ipoh, Mukim Batu, 50200, Federal Territory of Kuala Lumpur, Malaysia",Restaurant,1.05E+19,Kuala Lumpur,Floor 1 · Lotus's Selayang,3.221001,101.671,"Lot No. F1, 1st Floor, Lotus's Selayang, No. 1801, Jalan Ipoh, Mukim Batu, 50200",+60 3-6241 6785,,37,"https://www.google.com/maps/search/kfc+in+kl/@3.1399207,101.623551,12z?hl=en",Federal Territory of Kuala Lumpur,"Lot No. F1, 1st Floor, Lotus's Selayang, No. 1801, Jalan Ipoh, Mukim Batu, 50200",KFC Lotus's Selayang,2.5,"https://www.google.com/maps/place/KFC+Lotus's+Selayang/@3.221001,101.6688113,17z/data=!3m1!4b1!4m5!3m4!1s0x31cc47af2fc93f17:0x9182ef3233a683b8!8m2!3d3.221001!4d101.671?hl=en",https://kfc.com.my/
"B1-05, B1-06, B1-E-05 & B1-E-06, MyTOWN Cheras, Federal Territory of Kuala Lumpur, Malaysia",Restaurant,2.74E+18,Kuala Lumpur,MyTOWN Shopping Centre,3.1343991,101.7230272,"B1-05, B1-06, B1-E-05 & B1-E-06, MyTOWN Cheras",+60 3-9201 6081,,54,"https://www.google.com/maps/search/kfc+in+kl/@3.1399207,101.623551,12z?hl=en",Federal Territory of Kuala Lumpur,"B1-05, B1-06, B1-E-05 & B1-E-06, MyTOWN Cheras",KFC MyTOWN,3.7,"https://www.google.com/maps/place/KFC+MyTOWN/@3.1343991,101.7208385,17z/data=!3m1!4b1!4m5!3m4!1s0x31cc363c336479a5:0x260dd5a6a3dc455c!8m2!3d3.1343991!4d101.7230272?hl=en",https://kfc.com.my/
"9, Jalan 2/90, Taman Pertama, Cheras, 56000 Kuala Lumpur, Malaysia",Fast food restaurant,8.39E+18,Kuala Lumpur,,3.1113318,101.7299805,"9, Jalan 2/90, Taman Pertama, Cheras",+60 3-9201 3046,56000,36,"https://www.google.com/maps/search/kfc+in+kl/@3.1399207,101.623551,12z?hl=en",Federal Territory of Kuala Lumpur,"9, Jalan 2/90, Taman Pertama, Cheras",KFC Cheras Taman Pertama,3.9,"https://www.google.com/maps/place/KFC+Cheras+Taman+Pertama/@3.1113318,101.7277918,17z/data=!3m1!4b1!4m5!3m4!1s0x31cc35dffb9a40a9:0x748057463355b6e5!8m2!3d3.1113231!4d101.7299526?hl=en",https://kfc.com.my/
"Lot 56441, HS (D) 11375, PT7424, Jln Cheras, 56100 Kuala Lumpur, Malaysia",Restaurant,1.51E+19,Kuala Lumpur,Petronas Station @ KM 5.5 Jalan Cheras,3.1054168,101.7324154,"Lot 56441, HS (D) 11375, PT7424, Jln Cheras",+60 3-9133 7853,56100,53,"https://www.google.com/maps/search/kfc+in+kl/@3.1399207,101.623551,12z?hl=en",Federal Territory of Kuala Lumpur,"Lot 56441, HS (D) 11375, PT7424, Jln Cheras",KFC Petronas Metramac Cheras,3.6,"https://www.google.com/maps/place/KFC+Petronas+Metramac+Cheras/@3.1054168,101.7302267,17z/data=!3m1!4b1!4m5!3m4!1s0x31cc3612af5a2861:0xd233ffbda7f807c9!8m2!3d3.1054073!4d101.7324205?hl=en",https://kfc.com.my/
"Lot B23 & B24, Basement, Sunway Velocity Mall, Jln Cheras, 56000 Kuala Lumpur, Malaysia",Restaurant,1.06E+18,Kuala Lumpur,Sunway Velocity Mall,3.1277927,101.7245824,"Lot B23 & B24, Basement, Sunway Velocity Mall, Jln Cheras",+60 3-9201 5326,56000,35,"https://www.google.com/maps/search/kfc+in+kl/@3.1399207,101.623551,12z?hl=en",Federal Territory of Kuala Lumpur,"Lot B23 & B24, Basement, Sunway Velocity Mall, Jln Cheras",KFC Sunway Velocity Mall,3.1,"https://www.google.com/maps/place/KFC+Sunway+Velocity+Mall/@3.1277927,101.7223937,17z/data=!3m1!4b1!4m5!3m4!1s0x31cc3614044905f3:0xea799fdd2445d3e!8m2!3d3.1277927!4d101.7245824?hl=en",https://kfc.com.my/
"F2, Aeon Big Wangsa Maju, F2.48 &, 49, 6, Jalan 8/27a, 53300 Kuala Lumpur, Federal Territory of Kuala Lumpur, Malaysia",Fast food restaurant,8.55E+18,Kuala Lumpur,AEON BIG Wangsa Maju,3.1962666,101.7433437,"F2, Aeon Big Wangsa Maju, F2.48 &, 49, 6, Jalan 8/27a",+60 3-4131 8841,53300,52,"https://www.google.com/maps/search/kfc+in+kl/@3.1399207,101.623551,12z?hl=en",Federal Territory of Kuala Lumpur,"F2, Aeon Big Wangsa Maju, F2.48 &, 49, 6, Jalan 8/27a",KFC AEON BIG WANGSA MAJU,4,"https://www.google.com/maps/place/KFC+AEON+BIG+WANGSA+MAJU/@3.1962666,101.741155,17z/data=!3m1!4b1!4m5!3m4!1s0x31cc382f2527f521:0x76ae93a0ae0ccce4!8m2!3d3.1962666!4d101.7433437?hl=en",http://kfc.com.my/
"Ground 7 Mezzanine Floor, 24, Jalan Pandan Indah 1/23c, Pandan Indah, 55100 Kuala Lumpur, Malaysia",Restaurant,1.51E+19,Kuala Lumpur,,3.1317237,101.7517639,"Ground 7 Mezzanine Floor, 24, Jalan Pandan Indah 1/23c",+60 3-9201 2863,55100,34,"https://www.google.com/maps/search/kfc+in+kl/@3.1399207,101.623551,12z?hl=en",Selangor,"Ground 7 Mezzanine Floor, 24, Jalan Pandan Indah 1/23c",KFC Pandan Indah,3.5,"https://www.google.com/maps/place/KFC+Pandan+Indah/@3.1317237,101.7495752,17z/data=!3m1!4b1!4m5!3m4!1s0x31cc3668080ac00f:0xd1ff748a9b29b1e0!8m2!3d3.1317237!4d101.7517639?hl=en",https://kfc.com.my/
"No. 44, Ground & Mezzanine Floor, Jalan Cerdas, Taman Connaught, 56000 Cheras, Federal Territory of Kuala Lumpur, Malaysia",Restaurant,9.66E+18,Cheras,,3.0814422,101.7380521,"No. 44, Ground & Mezzanine Floor, Jalan Cerdas",+60 3-9107 0942,56000,33,"https://www.google.com/maps/search/kfc+in+kl/@3.1399207,101.623551,12z?hl=en",Federal Territory of Kuala Lumpur,"No. 44, Ground & Mezzanine Floor, Jalan Cerdas",KFC Taman Connaught,3.8,"https://www.google.com/maps/place/KFC+Taman+Connaught/@3.0814422,101.7358634,17z/data=!3m1!4b1!4m5!3m4!1s0x31cc35a4d911bad9:0x860a0dea60e871a3!8m2!3d3.0814422!4d101.7380521?hl=en",https://kfc.com.my/
"Lot G-21, G-21A & G-21B, Ground Floor, The Intermark Mall, Jln Tun Razak, 55100 Kuala Lumpur, Malaysia",Restaurant,1.67E+19,Kuala Lumpur,Intermark Mall,3.1614125,101.7199981,"Lot G-21, G-21A & G-21B, Ground Floor, The Intermark Mall, Jln Tun Razak",+60 3-2181 8508,55100,51,"https://www.google.com/maps/search/kfc+in+kl/@3.1399207,101.623551,12z?hl=en",Federal Territory of Kuala Lumpur,"Lot G-21, G-21A & G-21B, Ground Floor, The Intermark Mall, Jln Tun Razak",KFC Intermark Mall,2.8,"https://www.google.com/maps/place/KFC+Intermark+Mall/@3.1614125,101.7178094,17z/data=!3m1!4b1!4m5!3m4!1s0x31cc3749f6fc3229:0xe77362a615c2f3b1!8m2!3d3.1614125!4d101.7199981?hl=en",https://kfc.com.my/
"346, Jalan Setiawangsa 10, Ground & 1st Floor, Setiawangsa, 54200 Kuala Lumpur, Malaysia",Fast food restaurant,1.57E+19,Kuala Lumpur,,3.1778191,101.7427715,"346, Jalan Setiawangsa 10, Ground & 1st Floor",+60 3-4265 5734,54200,32,"https://www.google.com/maps/search/kfc+in+kl/@3.1399207,101.623551,12z?hl=en",Federal Territory of Kuala Lumpur,"346, Jalan Setiawangsa 10, Ground & 1st Floor",KFC Setiawangsa,4,"https://www.google.com/maps/place/KFC+Setiawangsa/@3.1778191,101.7405828,17z/data=!3m1!4b1!4m5!3m4!1s0x31cc3788cb1dc0eb:0xda0840be2fa1ef1d!8m2!3d3.1778215!4d101.7427323?hl=en",https://kfc.com.my/
"Metro Prima Shopping Centre, Lot No. F22, 1st Floor, AEON, Kepong, 52100 Kuala Lumpur, Malaysia",Restaurant,7.88E+18,Kuala Lumpur,Floor 1 · AEON MALL Metro Prima,3.2130827,101.6389626,"Metro Prima Shopping Centre, Lot No. F22, 1st Floor, AEON",+60 19-337 7904,52100,50,"https://www.google.com/maps/search/kfc+in+kl/@3.1399207,101.623551,12z?hl=en",Federal Territory of Kuala Lumpur,"Metro Prima Shopping Centre, Lot No. F22, 1st Floor, AEON",KFC AEON Prima Kepong,2.7,"https://www.google.com/maps/place/KFC+AEON+Prima+Kepong/@3.2130827,101.6367739,17z/data=!3m1!4b1!4m5!3m4!1s0x31cc46402bb7fcad:0x6d578e945afe6a7d!8m2!3d3.2130827!4d101.6389626?hl=en",https://kfc.com.my/
"No. 13 (Ground & 1st Floor), SkyAwani Commercial, Jalan Sentul Pasar, Setapak, 51100 Kuala Lumpur, Malaysia",Restaurant,1.46E+19,Kuala Lumpur,SkyAwani Residence,3.2087548,101.6899879,"No. 13 (Ground & 1st Floor), SkyAwani Commercial, Jalan Sentul Pasar",+60 1-300-22-2888,51100,49,"https://www.google.com/maps/search/kfc+in+kl/@3.1399207,101.623551,12z?hl=en",Federal Territory of Kuala Lumpur,"No. 13 (Ground & 1st Floor), SkyAwani Commercial, Jalan Sentul Pasar",KFC Sentul Perdana,3.7,"https://www.google.com/maps/place/KFC+Sentul+Perdana/@3.2087548,101.6877992,17z/data=!3m1!4b1!4m5!3m4!1s0x31cc4721ddf1d185:0xcb002ce63fa5da87!8m2!3d3.2087548!4d101.6899879?hl=en",http://kfc.com.my/
"Lot 47, PT 28, Lorong Universiti A, Section 16, 59200 Petaling Jaya, Federal Territory of Kuala Lumpur, Malaysia",Restaurant,1.61E+19,Petaling Jaya,,3.118423,101.6480817,"Lot 47, PT 28, Lorong Universiti A",+60 3-7931 6905,59200,31,"https://www.google.com/maps/search/kfc+in+kl/@3.1399207,101.623551,12z?hl=en",Federal Territory of Kuala Lumpur,"Lot 47, PT 28, Lorong Universiti A",KFC Jalan Universiti Drive Thru,4,"https://www.google.com/maps/place/KFC+Jalan+Universiti+Drive+Thru/@3.118423,101.645893,17z/data=!3m1!4b1!4m5!3m4!1s0x31cc4c0c0f5e6db3:0xdf2f7cb523130b7b!8m2!3d3.118423!4d101.6480817?hl=en",https://kfc.com.my/
"Ground & 1st Floor, 241, Jalan Bandar 13, Taman Melawati, 53100 Kuala Lumpur, Selangor, Malaysia",Restaurant,1.66E+19,Kuala Lumpur,,3.2095121,101.749146,"Ground & 1st Floor, 241, Jalan Bandar 13",+60 3-4162 0241,53100,48,"https://www.google.com/maps/search/kfc+in+kl/@3.1399207,101.623551,12z?hl=en",Selangor,"Ground & 1st Floor, 241, Jalan Bandar 13",KFC Taman Melawati,3.8,"https://www.google.com/maps/place/KFC+Taman+Melawati/@3.2095121,101.7469573,17z/data=!3m1!4b1!4m5!3m4!1s0x31cc383584e726d3:0xe60d2656ccdabaa6!8m2!3d3.2095121!4d101.749146?hl=en",https://kfc.com.my/
"G-005 & G-006, Endah Parade Shopping Mall, Bandar Baru Sri Petaling, 57000 Kuala Lumpur, Malaysia",Restaurant,4.07E+18,Kuala Lumpur,Endah Parade,3.063303,101.6951981,"G-005 & G-006, Endah Parade Shopping Mall",+60 3-9054 3160,57000,47,"https://www.google.com/maps/search/kfc+in+kl/@3.1399207,101.623551,12z?hl=en",Federal Territory of Kuala Lumpur,"G-005 & G-006, Endah Parade Shopping Mall",KFC Endah Parade,2.8,"https://www.google.com/maps/place/KFC+Endah+Parade/@3.063303,101.6930094,17z/data=!3m1!4b1!4m5!3m4!1s0x31cc4a8ffaaa7eed:0x3879e8755661e4d9!8m2!3d3.063303!4d101.6951981?hl=en",https://kfc.com.my/
"23 & 24, Jalan 54, Desa Jaya Kepong, 52100 Kuala Lumpur, Wilayah Persekutuan Kuala Lumpur, Malaysia",Restaurant,1.00E+19,Kuala Lumpur,,3.2130556,101.6319444,"23 & 24, Jalan 54",+60 3-6275 8300,52100,30,"https://www.google.com/maps/search/kfc+in+kl/@3.1399207,101.623551,12z?hl=en",Federal Territory of Kuala Lumpur,"23 & 24, Jalan 54",KFC - Pekan Kepong | Desa Jaya,3.7,"https://www.google.com/maps/place/KFC+-+Pekan+Kepong+%7C+Desa+Jaya/@3.2130556,101.6297557,17z/data=!3m1!4b1!4m5!3m4!1s0x31cc46051d3ddb7f:0x8b55e91a6a69979c!8m2!3d3.2130556!4d101.6319444?hl=en",https://kfc.com.my/
"Batu 6 1/2, 15144, Jln Kepong, 52100 Kuala Lumpur, Federal Territory of Kuala Lumpur, Malaysia",Fast food restaurant,8.72E+18,Kuala Lumpur,,3.2129979,101.6437003,"Batu 6 1/2, 15144, Jln Kepong",+60 3-6262 8726,52100,46,"https://www.google.com/maps/search/kfc+in+kl/@3.1399207,101.623551,12z?hl=en",Federal Territory of Kuala Lumpur,"Batu 6 1/2, 15144, Jln Kepong",KFC Kepong,3.8,"https://www.google.com/maps/place/KFC+Kepong/@3.2129979,101.6415116,17z/data=!3m1!4b1!4m5!3m4!1s0x31cc46402f1f8df3:0x7914f73750fe5355!8m2!3d3.2129051!4d101.6436645?hl=en",http://kfc.com.my/
"6, Jalan Taman Setiawangsa, Bandar Baru Ampang, Mukim, Ulu Kelang, 54200 Kuala Lumpur, Malaysia",Restaurant,6.19E+17,Kuala Lumpur,AEON AU2 Setiawangsa,3.1771063,101.750949,"6, Jalan Taman Setiawangsa, Bandar Baru Ampang, Mukim",+60 3-4265 5729,54200,45,"https://www.google.com/maps/search/kfc+in+kl/@3.1399207,101.623551,12z?hl=en",Selangor,"6, Jalan Taman Setiawangsa, Bandar Baru Ampang, Mukim","KFC AEON AU2, Setiawangsa",4,"https://www.google.com/maps/place/KFC+AEON+AU2,+Setiawangsa/@3.1771063,101.7487603,17z/data=!3m1!4b1!4m5!3m4!1s0x31cc379dbd9b77d1:0x8961e3c55b48381!8m2!3d3.1771063!4d101.750949?hl=en",https://kfc.com.my/
"1st Floor, Petronas Station, Pinggiran, Persiaran Zaaba, Taman Tun Dr Ismail, 60000 Kuala Lumpur, Malaysia",Restaurant,1.66E+19,Kuala Lumpur,Floor 1 · Petronas TTDI,3.1421303,101.625187,"1st Floor, Petronas Station, Pinggiran, Persiaran Zaaba",+60 3-7710 0159,60000,29,"https://www.google.com/maps/search/kfc+in+kl/@3.1399207,101.623551,12z?hl=en",Federal Territory of Kuala Lumpur,"1st Floor, Petronas Station, Pinggiran, Persiaran Zaaba",KFC Petronas Taman Tun Drive Thru (TTDI),4,"https://www.google.com/maps/place/KFC+Petronas+Taman+Tun+Drive+Thru+(TTDI)/@3.1421303,101.6229983,17z/data=!3m1!4b1!4m5!3m4!1s0x31cc4930265d00d1:0xe5ffaf185a159953!8m2!3d3.1421303!4d101.625187?hl=en",https://kfc.com.my/
"No. T2-23, Jalan Tasek Utama, Medan Niaga Tasik Damai, Sungai Besi, 57100 Kuala Lumpur, Malaysia",Restaurant,2.14E+17,Kuala Lumpur,,3.0621852,101.7093416,"No. T2-23, Jalan Tasek Utama, Medan Niaga Tasik Damai",+60 3-9054 0254,57100,44,"https://www.google.com/maps/search/kfc+in+kl/@3.1399207,101.623551,12z?hl=en",Federal Territory of Kuala Lumpur,"No. T2-23, Jalan Tasek Utama, Medan Niaga Tasik Damai",KFC Medan Niaga Sungai Besi,3.8,"https://www.google.com/maps/place/KFC+Medan+Niaga+Sungai+Besi/@3.0621852,101.7071529,17z/data=!3m1!4b1!4m5!3m4!1s0x31cc3565ef33204b:0x2f9087e0c89ca7b!8m2!3d3.0621907!4d101.7093586?hl=en",https://kfc.com.my/
"90, Jalan Peel, Maluri, 55100 Kuala Lumpur, Wilayah Persekutuan Kuala Lumpur, Malaysia",Fast food restaurant,7.14E+18,Kuala Lumpur,Sunway Velocity Mall,3.1272125,101.724746,"90, Jalan Peel",+60 19-546 3690,55100,28,"https://www.google.com/maps/search/kfc+in+kl/@3.1399207,101.623551,12z?hl=en",Federal Territory of Kuala Lumpur,"90, Jalan Peel",KFC,4.4,"https://www.google.com/maps/place/KFC/@3.1272125,101.7225573,17z/data=!3m1!4b1!4m5!3m4!1s0x31cc3614103a2c23:0x6309e3986ecaea5e!8m2!3d3.1272125!4d101.724746?hl=en",
"Lot PT 6878, Jalan 8/72A, Wangsa Maju, 53300 Kuala Lumpur, Malaysia",Restaurant,1.84E+19,Kuala Lumpur,,3.1973728,101.7437787,"Lot PT 6878, Jalan 8/72A",+60 3-4131 6694,53300,43,"https://www.google.com/maps/search/kfc+in+kl/@3.1399207,101.623551,12z?hl=en",Federal Territory of Kuala Lumpur,"Lot PT 6878, Jalan 8/72A",KFC Wangsa Maju Drive Thru,3.8,"https://www.google.com/maps/place/KFC+Wangsa+Maju+Drive+Thru/@3.1973728,101.74159,17z/data=!3m1!4b1!4m5!3m4!1s0x31cc382f24d83d1d:0xfec11f1ac5312c67!8m2!3d3.1973971!4d101.7437575?hl=en",https://kfc.com.my/
"Lot G09 & G010, Jalan R1, Section, 1, Wangsa Maju, 53300 Kuala Lumpur, Malaysia",Restaurant,1.27E+19,Kuala Lumpur,AEON Mall Alpha Angle,3.2017579,101.7342021,"Lot G09 & G010, Jalan R1, Section, 1",+60 3-4131 2717,53300,42,"https://www.google.com/maps/search/kfc+in+kl/@3.1399207,101.623551,12z?hl=en",Federal Territory of Kuala Lumpur,"Lot G09 & G010, Jalan R1, Section, 1",KFC Wangsa Maju,3.6,"https://www.google.com/maps/place/KFC+Wangsa+Maju/@3.2017579,101.7320134,17z/data=!3m1!4b1!4m5!3m4!1s0x31cc383cf2c5058b:0xb03c203d67523ac4!8m2!3d3.2017579!4d101.7342021?hl=en",https://kfc.com.my/
"No. 38, Jalan 2/21-D, Batu 5, Jalan Gombak, Medan Idaman, 53000 Kuala Lumpur, Malaysia",Restaurant,1.12E+19,Kuala Lumpur,,3.2127881,101.7116702,"No. 38, Jalan 2/21-D, Batu 5, Jalan Gombak",+60 3-4031 0068,53000,41,"https://www.google.com/maps/search/kfc+in+kl/@3.1399207,101.623551,12z?hl=en",Federal Territory of Kuala Lumpur,"No. 38, Jalan 2/21-D, Batu 5, Jalan Gombak",KFC Medan Idaman,3.6,"https://www.google.com/maps/place/KFC+Medan+Idaman/@3.2127881,101.7094815,17z/data=!3m1!4b1!4m5!3m4!1s0x31cc380bde88dedb:0x9b40048244754169!8m2!3d3.2127538!4d101.7116365?hl=en",https://kfc.com.my/
"21, off, Jalan Suppiah Pillay, Jalan Ipoh, 51200 Kuala Lumpur, Federal Territory of Kuala Lumpur, Malaysia",Restaurant,8.93E+18,Kuala Lumpur,,3.1778976,101.684704,"21, off, Jalan Suppiah Pillay",+60 3-4050 0152,51200,27,"https://www.google.com/maps/search/kfc+in+kl/@3.1399207,101.623551,12z?hl=en",Federal Territory of Kuala Lumpur,"21, off, Jalan Suppiah Pillay",KFC Viva Jalan Ipoh,4.1,"https://www.google.com/maps/place/KFC+Viva+Jalan+Ipoh/@3.1778976,101.6825153,17z/data=!3m1!4b1!4m5!3m4!1s0x31cc48133d9fba1f:0x7bee68891bf69a74!8m2!3d3.1779078!4d101.6847079?hl=en",https://kfc.com.my/
"44, Jalan 7/108C, off, SBE, Taman Sungai Besi, 57100 Kuala Lumpur, Malaysia",Restaurant,9.94E+18,Kuala Lumpur,,3.0940032,101.7013773,"44, Jalan 7/108C, off, SBE",+60 3-7971 5846,57100,26,"https://www.google.com/maps/search/kfc+in+kl/@3.1399207,101.623551,12z?hl=en",Federal Territory of Kuala Lumpur,"44, Jalan 7/108C, off, SBE",KFC Sungai Besi,3.7,"https://www.google.com/maps/place/KFC+Sungai+Besi/@3.0940032,101.6991886,17z/data=!3m1!4b1!4m5!3m4!1s0x31cc4a0b6238b067:0x89f2673d528b1147!8m2!3d3.0940032!4d101.7013773?hl=en",https://kfc.com.my/
"Indah, 32 & 34, Jalan 8/38A, Taman Sri Sinar, Segambut, 51200 Kuala Lumpur, Malaysia",Fast food restaurant,1.84E+19,Kuala Lumpur,,3.186662,101.6509024,"Indah, 32 & 34, Jalan 8/38A, Taman Sri Sinar",+60 11-6272 2881,51200,25,"https://www.google.com/maps/search/kfc+in+kl/@3.1399207,101.623551,12z?hl=en",Federal Territory of Kuala Lumpur,"Indah, 32 & 34, Jalan 8/38A, Taman Sri Sinar",KFC Sri Sinar Segambut,3.8,"https://www.google.com/maps/place/KFC+Sri+Sinar+Segambut/@3.186662,101.6487137,17z/data=!3m1!4b1!4m5!3m4!1s0x31cc463444a316a9:0xff7ee8d91b93510e!8m2!3d3.1866913!4d101.6509226?hl=en",https://kfc.com.my/
"Jalan Sri Jati 1, Jalan Puchong, off, Jln Klang Lama, 52000 Kuala Lumpur, Malaysia",Fast food restaurant,8.75E+18,Kuala Lumpur,,3.0773296,101.6637599,"Jalan Sri Jati 1, Jalan Puchong, off, Jln Klang Lama",+60 19-338 1386,52000,24,"https://www.google.com/maps/search/kfc+in+kl/@3.1399207,101.623551,12z?hl=en",Federal Territory of Kuala Lumpur,"Jalan Sri Jati 1, Jalan Puchong, off, Jln Klang Lama",KFC Sri Jati Puchong Drive Thru,3.5,"https://www.google.com/maps/place/KFC+Sri+Jati+Puchong+Drive+Thru/@3.0773296,101.6615712,17z/data=!3m1!4b1!4m5!3m4!1s0x31cc4a548f222b83:0x7976673e77a4926f!8m2!3d3.0773296!4d101.6637599?hl=en",https://kfc.com.my/
"No. 25, Ground & 1st Floor, Block C, Jalan 2/109f, Taman Danau Desa, 58100 Kuala Lumpur, Malaysia",Restaurant,1.01E+19,Kuala Lumpur,,3.0996285,101.6865399,"No. 25, Ground & 1st Floor, Block C, Jalan 2/109f",+60 3-7971 4758,58100,23,"https://www.google.com/maps/search/kfc+in+kl/@3.1399207,101.623551,12z?hl=en",Federal Territory of Kuala Lumpur,"No. 25, Ground & 1st Floor, Block C, Jalan 2/109f",KFC Taman Danau Desa,3.8,"https://www.google.com/maps/place/KFC+Taman+Danau+Desa/@3.0996285,101.6843512,17z/data=!3m1!4b1!4m5!3m4!1s0x31cc4a16ffbd8a7d:0x8c5877e897c8ab3a!8m2!3d3.0996376!4d101.686514?hl=en",https://kfc.com.my/
"32, Jalan Batu Ambar, Taman Kok Lian, 51200 Kuala Lumpur, Wilayah Persekutuan Kuala Lumpur, Malaysia",Restaurant,5.86E+18,Kuala Lumpur,,3.2025259,101.6723718,"32, Jalan Batu Ambar",+60 3-6179 5439,51200,22,"https://www.google.com/maps/search/kfc+in+kl/@3.1399207,101.623551,12z?hl=en",Federal Territory of Kuala Lumpur,"32, Jalan Batu Ambar",KFC Kok Lian,3.8,"https://www.google.com/maps/place/KFC+Kok+Lian/@3.2025259,101.6701831,17z/data=!3m1!4b1!4m5!3m4!1s0x31cc47cf8bdecc6d:0x51477b6cb0b81ca3!8m2!3d3.2025259!4d101.6723718?hl=en",https://kfc.com.my/
"Ground Floor, 437, Wisma Hualang, Jalan Ipoh, 51200 Kuala Lumpur, Malaysia",Restaurant,3.53E+18,Kuala Lumpur,,3.1801466,101.6835503,"Ground Floor, 437, Wisma Hualang",+60 3-4050 5141,51200,21,"https://www.google.com/maps/search/kfc+in+kl/@3.1399207,101.623551,12z?hl=en",Federal Territory of Kuala Lumpur,"Ground Floor, 437, Wisma Hualang",KFC Wisma Hualang,3.9,"https://www.google.com/maps/place/KFC+Wisma+Hualang/@3.1801466,101.6813616,17z/data=!3m1!4b1!4m5!3m4!1s0x31cc486d4eb16587:0x30fe07c4b91f966f!8m2!3d3.1801173!4d101.6835988?hl=en",https://kfc.com.my/
"Lot 14083, Jalan Kuchai Lama, 58200 Kuala Lumpur, Wilayah Persekutuan Kuala Lumpur, Malaysia",Fast food restaurant,1.37E+19,Kuala Lumpur,,3.0923436,101.6861122,"Lot 14083, Jalan Kuchai Lama",+60 3-7972 3670,58200,19,"https://www.google.com/maps/search/kfc+in+kl/@3.1399254,101.6235511,12z?hl=en",Federal Territory of Kuala Lumpur,"Lot 14083, Jalan Kuchai Lama",KFC Kuchai Lama Drive Thru,4,"https://www.google.com/maps/place/KFC+Kuchai+Lama+Drive+Thru/@3.0923436,101.6839235,17z/data=!3m1!4b1!4m5!3m4!1s0x31cc4a6acdd8a135:0xbea38796fc6fa45a!8m2!3d3.0923428!4d101.6859485?hl=en",https://kfc.com.my/
"No. 12 & 14, Ground Floor, Jalan 1/76d, Desa Pandan, 55100 Kuala Lumpur, Malaysia",Fast food restaurant,1.53E+19,Kuala Lumpur,,3.1469546,101.7372167,"No. 12 & 14, Ground Floor, Jalan 1/76d",+60 3-9201 3975,55100,18,"https://www.google.com/maps/search/kfc+in+kl/@3.1399254,101.6235511,12z?hl=en",Federal Territory of Kuala Lumpur,"No. 12 & 14, Ground Floor, Jalan 1/76d",KFC Desa Pandan,4.1,"https://www.google.com/maps/place/KFC+Desa+Pandan/@3.1469546,101.735028,17z/data=!3m1!4b1!4m5!3m4!1s0x31cc364c0dd22405:0xd48da5b2c41207b2!8m2!3d3.1469546!4d101.7372167?hl=en",https://kfc.com.my/
"The Boulevard Shop Office, 8, Jalan 14/48A, off, Jalan Sentul, 51000 Kuala Lumpur, Malaysia",Restaurant,7.36E+18,Kuala Lumpur,,3.1853331,101.6920467,"The Boulevard Shop Office, 8, Jalan 14/48A, off, Jalan Sentul",+60 3-4050 1843,51000,17,"https://www.google.com/maps/search/kfc+in+kl/@3.1399254,101.6235511,12z?hl=en",Federal Territory of Kuala Lumpur,"The Boulevard Shop Office, 8, Jalan 14/48A, off, Jalan Sentul",KFC Sentul Raya,4.2,"https://www.google.com/maps/place/KFC+Sentul+Raya/@3.1853331,101.689858,17z/data=!3m1!4b1!4m5!3m4!1s0x31cc480eda5d2615:0x66177f883fa710f5!8m2!3d3.1853331!4d101.6920467?hl=en",https://kfc.com.my/
"No. 1, Ground & 1st Floor, Jalan 26a/70a, Desa Sri Hartamas, 50480 Kuala Lumpur, Malaysia",Fast food restaurant,9.52E+18,Kuala Lumpur,,3.1613512,101.6499668,"No. 1, Ground & 1st Floor, Jalan 26a/70a",+60 3-6206 1503,50480,16,"https://www.google.com/maps/search/kfc+in+kl/@3.1399254,101.6235511,12z?hl=en",Federal Territory of Kuala Lumpur,"No. 1, Ground & 1st Floor, Jalan 26a/70a",KFC Desa Sri Hartamas,3.9,"https://www.google.com/maps/place/KFC+Desa+Sri+Hartamas/@3.1613512,101.6477781,17z/data=!3m1!4b1!4m5!3m4!1s0x31cc48faad2c48a7:0x842e051a1ce600bf!8m2!3d3.1613512!4d101.6499668?hl=en",https://kfc.com.my/
"Gurney Mall, 8, Jalan Maktab, Kampung Datuk Keramat, 54000 Kuala Lumpur, Federal Territory of Kuala Lumpur, Malaysia",Fast food restaurant,1.55E+19,Kuala Lumpur,Floor G · Gurney Mall,3.17213,101.7222814,"Gurney Mall, 8, Jalan Maktab",+60 19-338 1390,54000,15,"https://www.google.com/maps/search/kfc+in+kl/@3.1399254,101.6235511,12z?hl=en",Federal Territory of Kuala Lumpur,"Gurney Mall, 8, Jalan Maktab",KFC Gurney Mall UTM,3.9,"https://www.google.com/maps/place/KFC+Gurney+Mall+UTM/@3.17213,101.7200927,17z/data=!3m1!4b1!4m5!3m4!1s0x31cc376f6af06fff:0xd68f5fcabfc16f94!8m2!3d3.17213!4d101.7222814?hl=en",https://kfc.com.my/
"Wisma Time, Lot G-1, Level G, 249, Jln Tun Razak, 50400 Kuala Lumpur, Malaysia",Restaurant,1.63E+19,Kuala Lumpur,Menara Jcorp,3.1435019,101.7210174,"Wisma Time, Lot G-1, Level G, 249, Jln Tun Razak",+60 3-2110 0452,50400,14,"https://www.google.com/maps/search/kfc+in+kl/@3.1399254,101.6235511,12z?hl=en",Federal Territory of Kuala Lumpur,"Wisma Time, Lot G-1, Level G, 249, Jln Tun Razak",KFC Menara Jcorp,3.8,"https://www.google.com/maps/place/KFC+Menara+Jcorp/@3.1435019,101.7188287,17z/data=!3m1!4b1!4m5!3m4!1s0x31cc3630f7bcc583:0xe19988ba99ea9c8a!8m2!3d3.1435019!4d101.7210174?hl=en",https://kfc.com.my/
"Lot No. UC-2, Avenue K Shopping Complex, 156, Jln Ampang, 50450 Kuala Lumpur, Malaysia",Restaurant,1.48E+19,Kuala Lumpur,Avenue K Shopping Mall,3.1594766,101.7135149,"Lot No. UC-2, Avenue K Shopping Complex, 156, Jln Ampang",+60 3-2181 3834,50450,13,"https://www.google.com/maps/search/kfc+in+kl/@3.1399254,101.6235511,12z?hl=en",Federal Territory of Kuala Lumpur,"Lot No. UC-2, Avenue K Shopping Complex, 156, Jln Ampang",KFC Avenue K,4.2,"https://www.google.com/maps/place/KFC+Avenue+K/@3.1594766,101.7113262,17z/data=!3m1!4b1!4m5!3m4!1s0x31cc37d0c34d51bf:0xcd8fa489eaee2456!8m2!3d3.1594766!4d101.7135149?hl=en",https://kfc.com.my/
"Ground Floor, No. 12-14,Jalan Pudu, 55100 Kuala Lumpur, Federal Territory of Kuala Lumpur, Malaysia",Fast food restaurant,7.54E+18,Kuala Lumpur,Floor G · Quill City Mall Kuala Lumpur,3.160074,101.700448,"Ground Floor, No. 12-14,Jalan Pudu",+60 3-2602 0463,55100,12,"https://www.google.com/maps/search/kfc+in+kl/@3.1399254,101.6235511,12z?hl=en",Federal Territory of Kuala Lumpur,"Ground Floor, No. 12-14,Jalan Pudu",KFC Puduraya,3.4,"https://www.google.com/maps/place/KFC+Puduraya/@3.160074,101.6982593,17z/data=!3m1!4b1!4m5!3m4!1s0x31cc482f480f2c13:0x68929e2b5f2f1be5!8m2!3d3.160074!4d101.700448?hl=en",http://kfc.com.my/
"Ground Floor, Lot No. G-025, Plaza Low Yat, Jalan Bintang, Bukit Bintang, 55100 Kuala Lumpur, Malaysia",Restaurant,7.03E+17,Kuala Lumpur,Floor Ground Floor · Plaza Low Yat,3.1444785,101.7101202,"Ground Floor, Lot No. G-025, Plaza Low Yat, Jalan Bintang",+60 3-2110 3467,55100,11,"https://www.google.com/maps/search/kfc+in+kl/@3.1399254,101.6235511,12z?hl=en",Federal Territory of Kuala Lumpur,"Ground Floor, Lot No. G-025, Plaza Low Yat, Jalan Bintang",KFC Low Yat Plaza,3.9,"https://www.google.com/maps/place/KFC+Low+Yat+Plaza/@3.1444785,101.7079315,17z/data=!3m1!4b1!4m5!3m4!1s0x31cc362901bfa0ad:0x9bff3a75d23dce0!8m2!3d3.1444785!4d101.7101202?hl=en",https://kfc.com.my/
"Lot 1.106.00 & S1.106.00, Level 1, Pavilion Kuala Lumpur, 168, Bukit Bintang St, 55100 Kuala Lumpur, Malaysia",Fast food restaurant,9.53E+18,Kuala Lumpur,Floor 1 · Pavilion Kuala Lumpur,3.1483601,101.7127438,"Lot 1.106.00 & S1.106.00, Level 1, Pavilion Kuala Lumpur, 168, Bukit Bintang St",+60 19-337 0806,55100,10,"https://www.google.com/maps/search/kfc+in+kl/@3.1399254,101.6235511,12z?hl=en",Federal Territory of Kuala Lumpur,"Lot 1.106.00 & S1.106.00, Level 1, Pavilion Kuala Lumpur, 168, Bukit Bintang St",KFC Pavilion,3.9,"https://www.google.com/maps/place/KFC+Pavilion/@3.1483601,101.7105551,17z/data=!3m1!4b1!4m5!3m4!1s0x31cc362c7ae799a3:0x8449d9593e6ade52!8m2!3d3.1483601!4d101.7127438?hl=en",https://kfc.com.my/
"Mid Valley Megamall, Lot LG038, Lower Ground Floor, Mid Valley City, 58000 Kuala Lumpur, Malaysia",Restaurant,8.29E+18,Kuala Lumpur,Floor G · Mid Valley Megamall,3.1178057,101.6775701,"Mid Valley Megamall, Lot LG038, Lower Ground Floor",+60 3-2201 3706,58000,9,"https://www.google.com/maps/search/kfc+in+kl/@3.1399254,101.6235511,12z?hl=en",Federal Territory of Kuala Lumpur,"Mid Valley Megamall, Lot LG038, Lower Ground Floor",KFC Mid Valley,3.8,"https://www.google.com/maps/place/KFC+Mid+Valley/@3.1178057,101.6753814,17z/data=!3m1!4b1!4m5!3m4!1s0x31cc498eb3feafa7:0x730cc92f7afd6020!8m2!3d3.1178057!4d101.6775701?hl=en",https://kfc.com.my/
"No. 19 & 21, Ground & Mezzazine Floor, Jalan Tun Perak, 50050 Kuala Lumpur, Malaysia",Restaurant,6.17E+18,Kuala Lumpur,,3.1488086,101.6968167,"No. 19 & 21, Ground & Mezzazine Floor, Jalan Tun Perak",+60 19-336 1254,50050,8,"https://www.google.com/maps/search/kfc+in+kl/@3.1399254,101.6235511,12z?hl=en",Federal Territory of Kuala Lumpur,"No. 19 & 21, Ground & Mezzazine Floor, Jalan Tun Perak",KFC Jalan Tun Perak,3.8,"https://www.google.com/maps/place/KFC+Jalan+Tun+Perak/@3.1488086,101.694628,17z/data=!3m1!4b1!4m5!3m4!1s0x31cc49d25e19d055:0x55aa32593ba2f53b!8m2!3d3.1488196!4d101.6968291?hl=en",https://kfc.com.my/
"Pusat Makanan Sebelah Pertama Kompleks, Lot No. 1222, Jalan Dang Wangi, 50100 Kuala Lumpur, Malaysia",Restaurant,6.18E+18,Kuala Lumpur,Floor G · Pertama Complex,3.156975,101.6955869,"Pusat Makanan Sebelah Pertama Kompleks, Lot No. 1222, Jalan Dang Wangi",+60 3-2602 1452,50100,7,"https://www.google.com/maps/search/kfc+in+kl/@3.1399254,101.6235511,12z?hl=en",Federal Territory of Kuala Lumpur,"Pusat Makanan Sebelah Pertama Kompleks, Lot No. 1222, Jalan Dang Wangi",KFC Pertama Complex,4,"https://www.google.com/maps/place/KFC+Pertama+Complex/@3.156975,101.6933982,17z/data=!3m1!4b1!4m5!3m4!1s0x31cc482e033e0447:0x55d2aa55ebc7aca4!8m2!3d3.156975!4d101.6955869?hl=en",https://kfc.com.my/
"No. 138 & 140, Jln Raja Laut, Chow Kit, 50350 Kuala Lumpur, Federal Territory of Kuala Lumpur, Malaysia",Fast food restaurant,4.66E+18,Kuala Lumpur,,3.1667756,101.6962408,"No. 138 & 140, Jln Raja Laut",+60 19-336 2191,50350,6,"https://www.google.com/maps/search/kfc+in+kl/@3.1399254,101.6235511,12z?hl=en",Federal Territory of Kuala Lumpur,"No. 138 & 140, Jln Raja Laut",KFC Raja Laut,3.9,"https://www.google.com/maps/place/KFC+Raja+Laut/@3.1667756,101.6940521,17z/data=!3m1!4b1!4m5!3m4!1s0x31cc48235abdf263:0x40a86ca08a4d4001!8m2!3d3.1667756!4d101.6962408?hl=en",https://kfc.com.my/
"117, Jalan Sultan, City Centre, 50000 Kuala Lumpur, Wilayah Persekutuan Kuala Lumpur, Malaysia",Restaurant,1.22E+19,Kuala Lumpur,,3.1450697,101.6986352,"117, Jalan Sultan",+60 3-2022 0630,50000,5,"https://www.google.com/maps/search/kfc+in+kl/@3.1399254,101.6235511,12z?hl=en",Federal Territory of Kuala Lumpur,"117, Jalan Sultan",KFC Jalan Sultan,3.8,"https://www.google.com/maps/place/KFC+Jalan+Sultan/@3.1450697,101.6964465,17z/data=!3m1!4b1!4m5!3m4!1s0x31cc49d10c7b7ec3:0xa963a938ce536a1b!8m2!3d3.1450697!4d101.6986352?hl=en",https://kfc.com.my/
"4, Ground Floor, Jalan Telawi, Bangsar, 59100 Kuala Lumpur, Wilayah Persekutuan Kuala Lumpur, Malaysia",Fast food restaurant,8.41E+18,Kuala Lumpur,,3.1326643,101.6706003,"4, Ground Floor, Jalan Telawi",+60 3-2201 1283,59100,4,"https://www.google.com/maps/search/kfc+in+kl/@3.1399254,101.6235511,12z?hl=en",Federal Territory of Kuala Lumpur,"4, Ground Floor, Jalan Telawi",KFC Bangsar,4,"https://www.google.com/maps/place/KFC+Bangsar/@3.1326643,101.6684116,17z/data=!3m1!4b1!4m5!3m4!1s0x31cc49a691a35359:0x74a75db06652784b!8m2!3d3.1326643!4d101.6706003?hl=en",https://kfc.com.my/
"Lot No. G-17 & G-18, KL Gateway Mall, 59200, Bangsar South, Kuala Lumpur, Malaysia",Fast food restaurant,8.46E+18,Kuala Lumpur,KL Gateway Mall,3.1129241,101.6628818,"Lot No. G-17 & G-18, KL Gateway Mall, 59200",+60 3-7931 2748,,3,"https://www.google.com/maps/search/kfc+in+kl/@3.1399254,101.6235511,12z?hl=en",Federal Territory of Kuala Lumpur,"Lot No. G-17 & G-18, KL Gateway Mall, 59200",KFC KL Gateway Mall,3.3,"https://www.google.com/maps/place/KFC+KL+Gateway+Mall/@3.1129241,101.6606931,17z/data=!3m1!4b1!4m5!3m4!1s0x31cc498041ca40d1:0x75673d2f62dd923e!8m2!3d3.1129241!4d101.6628818?hl=en",https://kfc.com.my/
