address,categories/0,cid,city,locatedIn,latitude,longitude,neighborhood,phone,postalCode,rank,searchPageUrl,state,street,store_name,totalScore,url,website
"48, Jalan Telawi 5, Malaysia, 59100 Kuala Lumpur, Wilayah Persekutuan Kuala Lumpur, Malaysia",Fast food restaurant,8.19E+18,Kuala Lumpur,,3.1329823,101.6723034,"48, Jalan Telawi 5",+60 3-2284 3790,59100,7,"https://www.google.com/maps/search/McDonald's+in+kl/@3.1409398,101.6235506,12z?hl=en",Federal Territory of Kuala Lumpur,"48, Jalan Telawi 5",McDonald's Bangsar,4.1,"https://www.google.com/maps/place/McDonald's+Bangsar/@3.1329823,101.6701147,17z/data=!3m1!4b1!4m5!3m4!1s0x31cc49a2b6a6aff5:0x71a83a28f1dcf5a8!8m2!3d3.1329133!4d101.6722948?hl=en",http://www.mcdonalds.com.my/
"Wisma Teck Lee, 38, Jalan Tun Perak, Ground & Mezzanine Floor, 50050 Kuala Lumpur, Malaysia",Fast food restaurant,1.04E+19,Kuala Lumpur,,3.1490492,101.6969146,"Wisma Teck Lee, 38, Jalan Tun Perak, Ground & Mezzanine Floor",+60 3-2026 6899,50050,6,"https://www.google.com/maps/search/McDonald's+in+kl/@3.1409398,101.6235506,12z?hl=en",Federal Territory of Kuala Lumpur,"Wisma Teck Lee, 38, Jalan Tun Perak, Ground & Mezzanine Floor",McDonald's Jalan Tun Perak,4.1,"https://www.google.com/maps/place/McDonald's+Jalan+Tun+Perak/@3.1490492,101.6947259,17z/data=!3m1!4b1!4m5!3m4!1s0x31cc49d28b292355:0x9006add2567b4e07!8m2!3d3.1490492!4d101.6969146?hl=en",https://www.mcdonalds.com.my/
"Petronas Petrol Station, Kuala Lumpur-Seremban Expy, Technology Park Malaysia, 50700 Kuala Lumpur, Federal Territory of Kuala Lumpur, Malaysia",Restaurant,1.58E+19,Kuala Lumpur,[NGV] Petronas - Technology Park Malaysia 1,3.0565947,101.7041153,"Petronas Petrol Station, Kuala Lumpur-Seremban Expy",+60 3-9054 1502,50700,20,"https://www.google.com/maps/search/McDonald's+in+kl/@3.1409398,101.6235506,12z?hl=en",Federal Territory of Kuala Lumpur,"Petronas Petrol Station, Kuala Lumpur-Seremban Expy",McDonald's Petronas TPM DT,3.9,"https://www.google.com/maps/place/McDonald's+Petronas+TPM+DT/@3.0565947,101.7019266,17z/data=!3m1!4b1!4m5!3m4!1s0x31cc4a9e5e7b1b7d:0xdb179bdfc2e66961!8m2!3d3.0565988!4d101.7041304?hl=en",https://www.mcdonalds.com.my/
"Leisure Mall, LG-16, Lower Ground Floor, 6, Jln Cheras, Taman Bukit Segar, 56100 Cheras, Federal Territory of Kuala Lumpur, Malaysia",Restaurant,5.48E+18,Cheras,Cheras LeisureMall,3.0901159,101.7415653,"Leisure Mall, LG-16, Lower Ground Floor, 6, Jln Cheras",+60 3-9132 7577,56100,40,"https://www.google.com/maps/search/McDonald's+in+kl/@3.1409351,101.6235505,12z?hl=en",Federal Territory of Kuala Lumpur,"Leisure Mall, LG-16, Lower Ground Floor, 6, Jln Cheras",McDonald's Leisure Mall Cheras,3.9,"https://www.google.com/maps/place/McDonald's+Leisure+Mall+Cheras/@3.0901159,101.7393766,17z/data=!3m1!4b1!4m5!3m4!1s0x31cc35b7ea3fa593:0x4c0c33b130c8f2c7!8m2!3d3.0901159!4d101.7415653?hl=en",https://www.mcdonalds.com.my/
"Lots F2.43, F2.44, F2.45, Level F2, AEON Wangsa Maju, 6, Jalan 8/27a, Section 5, 53300 Kuala Lumpur, Malaysia",Restaurant,1.63E+19,Kuala Lumpur,AEON BIG Wangsa Maju,3.1959149,101.7431869,"Lots F2.43, F2.44, F2.45, Level F2, AEON Wangsa Maju, 6, Jalan 8/27a",+60 3-4149 5655,53300,39,"https://www.google.com/maps/search/McDonald's+in+kl/@3.1409351,101.6235505,12z?hl=en",Federal Territory of Kuala Lumpur,"Lots F2.43, F2.44, F2.45, Level F2, AEON Wangsa Maju, 6, Jalan 8/27a",McDonald's AEON Wangsa Maju,3.9,"https://www.google.com/maps/place/McDonald's+AEON+Wangsa+Maju/@3.1959149,101.7409982,17z/data=!3m1!4b1!4m5!3m4!1s0x31cc382f3ce6d5f3:0xe288cda79c874ffd!8m2!3d3.1959149!4d101.7431869?hl=en",https://www.mcdonalds.com.my/
"Melati Utama, 53100 Kuala Lumpur, Federal Territory of Kuala Lumpur, Malaysia             Melati Utama, 53100 Kuala Lumpur, Wilayah Persekutuan Kuala Lumpur",Fast food restaurant,4.17E+18,Kuala Lumpur,PETRONAS Taman Melati,3.2249971,101.7286707,,+60 3-4147 3107,,38,"https://www.google.com/maps/search/McDonald's+in+kl/@3.1409351,101.6235505,12z?hl=en",Federal Territory of Kuala Lumpur,,McDonald's Petronas Taman Melati DT,4.1,"https://www.google.com/maps/place/McDonald's+Petronas+Taman+Melati+DT/@3.2249971,101.726482,17z/data=!3m1!4b1!4m5!3m4!1s0x31cc38674cd02c69:0x39e3760adde85ce5!8m2!3d3.2249971!4d101.7286707?hl=en",http://www.mcdonalds.com.my/
"Lot PT 8669, Jln Lingkaran Tengah 2, 53100 Cheras, Federal Territory of Kuala Lumpur, Malaysia",Restaurant,6.98E+18,Cheras,BHPetrol Taman Desa Melawati,3.2201601,101.7358626,"Lot PT 8669, Jln Lingkaran Tengah 2",+60 3-4162 2318,53100,37,"https://www.google.com/maps/search/McDonald's+in+kl/@3.1409351,101.6235505,12z?hl=en",Federal Territory of Kuala Lumpur,"Lot PT 8669, Jln Lingkaran Tengah 2",McDonald's BHP Taman Melawati DT,4.1,"https://www.google.com/maps/place/McDonald's+BHP+Taman+Melawati+DT/@3.2201601,101.7336739,17z/data=!3m1!4b1!4m5!3m4!1s0x31cc39143844624f:0x60e8ece2eb8f61d7!8m2!3d3.2201444!4d101.7358509?hl=en",https://www.mcdonalds.com.my/
"Lot 25747, Lebuh Raya Selayang, Kepong Lebuh Raya, Lingkaran Tengah 2 (MRR 2), 52100 Kepong, Federal Territory of Kuala Lumpur, Malaysia",Restaurant,3.29E+18,Kuala Lumpur,Petronas MRR2,3.2292482,101.6550821,"Lot 25747, Lebuh Raya Selayang, Kepong Lebuh Raya, Lingkaran Tengah 2 (MRR 2), 52100 Kepong",+60 3-6259 6498,,36,"https://www.google.com/maps/search/McDonald's+in+kl/@3.1409351,101.6235505,12z?hl=en",Federal Territory of Kuala Lumpur,"Lot 25747, Lebuh Raya Selayang, Kepong Lebuh Raya, Lingkaran Tengah 2 (MRR 2), 52100 Kepong",McDonald's Petronas MRR2 Kepong DT,3.9,"https://www.google.com/maps/place/McDonald's+Petronas+MRR2+Kepong+DT/@3.2292482,101.6528934,17z/data=!3m1!4b1!4m5!3m4!1s0x31cc47bb8e0aa1a5:0x2db9288a5001d538!8m2!3d3.2293061!4d101.6550622?hl=en",https://www.mcdonalds.com.my/
"McDonald's, Bangunan Restoran, Jalan Mewah Utara, 68000 Ampang Jaya, Kuala Lumpur, Malaysia",Restaurant,1.67E+19,Ampang Jaya,,3.1281168,101.762852,"McDonald's, Bangunan Restoran, Jalan Mewah Utara",+60 3-4295 5046,68000,52,"https://www.google.com/maps/search/McDonald's+in+kl/@3.1409351,101.6235505,12z/data=!3m1!4b1?hl=en",Kuala Lumpur,"McDonald's, Bangunan Restoran, Jalan Mewah Utara",McDonald's Pandan Mewah DT,4,"https://www.google.com/maps/place/McDonald's+Pandan+Mewah+DT/@3.1281168,101.7606633,17z/data=!3m1!4b1!4m5!3m4!1s0x31cc368d9bce731d:0xe8160c4ff15b6d70!8m2!3d3.1281168!4d101.762852?hl=en",https://www.mcdonalds.com.my/
"No. 66, Block Crystal, Jalan 1/19, 46200 Petaling Jaya, Selangor, Malaysia",Restaurant,1.27E+19,Petaling Jaya,,3.0866362,101.6468715,"No. 66, Block Crystal, Jalan 1/19",+60 3-7783 6755,46200,51,"https://www.google.com/maps/search/McDonald's+in+kl/@3.1409351,101.6235505,12z/data=!3m1!4b1?hl=en",Selangor,"No. 66, Block Crystal, Jalan 1/19",McDonald's PJ Old Town,3.8,"https://www.google.com/maps/place/McDonald's+PJ+Old+Town/@3.0866362,101.6446828,17z/data=!3m1!4b1!4m5!3m4!1s0x31cc4bbbb4521921:0xb07a90b8559813af!8m2!3d3.0866367!4d101.6468658?hl=en",https://www.mcdonalds.com.my/
"Part of Lot 4054, Phase 5A, Jalan Kinrara 6, Bandar Kinrara, 47180 Puchong, Selangor, Malaysia",Restaurant,1.71E+19,Puchong,Petronas Bandar Kinrara 2 (Masnadi),3.0366149,101.6548005,"Part of Lot 4054, Phase 5A, Jalan Kinrara 6",+60 3-8074 0617,47180,50,"https://www.google.com/maps/search/McDonald's+in+kl/@3.1409351,101.6235505,12z/data=!3m1!4b1?hl=en",Selangor,"Part of Lot 4054, Phase 5A, Jalan Kinrara 6",McDonald’s Petronas Bandar Kinrara DT,3.8,"https://www.google.com/maps/place/McDonald%E2%80%99s+Petronas+Bandar+Kinrara+DT/@3.0366149,101.6526118,17z/data=!3m1!4b1!4m5!3m4!1s0x31cc4bba9b9087bd:0xedede555beb14d5f!8m2!3d3.0366149!4d101.655082?hl=en",https://www.mcdonalds.com.my/
"Lot PT21552 & PT21553, Mukim, Persiaran Perdana, Bandar Sri Damansara, 52200 Kuala Lumpur, Malaysia",Restaurant,1.39E+19,Kuala Lumpur,,3.1950487,101.6077681,"Lot PT21552 & PT21553, Mukim, Persiaran Perdana",+60 3-6274 1559,52200,35,"https://www.google.com/maps/search/McDonald's+in+kl/@3.1409351,101.6235505,12z?hl=en",Selangor,"Lot PT21552 & PT21553, Mukim, Persiaran Perdana",McDonald's Bandar Sri Damansara DT,4.1,"https://www.google.com/maps/place/McDonald's+Bandar+Sri+Damansara+DT/@3.1950487,101.6055794,17z/data=!3m1!4b1!4m5!3m4!1s0x31cc45f911dd003d:0xc1231cc3d5fa56bd!8m2!3d3.1950357!4d101.6077824?hl=en",https://www.mcdonalds.com.my/
"Lot GF32 & FF31, Waterfront ParkCity, Persiaran Residen, Desa Parkcity, 52200 Kuala Lumpur, Malaysia",Restaurant,1.64E+18,Kuala Lumpur,The Waterfront @ ParkCity,3.1875517,101.6272556,"Lot GF32 & FF31, Waterfront ParkCity, Persiaran Residen",+60 3-6261 0971,52200,34,"https://www.google.com/maps/search/McDonald's+in+kl/@3.1409351,101.6235505,12z?hl=en",Federal Territory of Kuala Lumpur,"Lot GF32 & FF31, Waterfront ParkCity, Persiaran Residen",McDonald's Desa ParkCity DT,3.7,"https://www.google.com/maps/place/McDonald's+Desa+ParkCity+DT/@3.1875517,101.6250669,17z/data=!3m1!4b1!4m5!3m4!1s0x31cc49d1c0157b87:0x16cecbf67712d946!8m2!3d3.1875517!4d101.6272556?hl=en",https://www.mcdonalds.com.my/
"5 Lebuh Bandar Utama, Jalan PJU 6/2, Bandar Utama, 47800 Petaling Jaya, Selangor, Malaysia",Fast food restaurant,1.44E+19,Petaling Jaya,,3.137376,101.609523,"5 Lebuh Bandar Utama, Jalan PJU 6/2",+60 3-7726 5099,47800,49,"https://www.google.com/maps/search/McDonald's+in+kl/@3.1409351,101.6235505,12z/data=!3m1!4b1?hl=en",Selangor,"5 Lebuh Bandar Utama, Jalan PJU 6/2",McDonald's Bandar Utama DT,4.1,"https://www.google.com/maps/place/McDonald's+Bandar+Utama+DT/@3.137376,101.6073343,17z/data=!3m1!4b1!4m5!3m4!1s0x31cc4ecc03aaaaab:0xc7a6ca215714eaeb!8m2!3d3.1374342!4d101.6095689?hl=en",https://www.mcdonalds.com.my/
"D/A Petronas Servis Stesen, Jalan Kolam Ayer Lama, Lot 36904 (PT 27423, Taman Dato Ahmad Razali, 68000 Ampang Jaya, Selangor, Malaysia",Restaurant,1.58E+19,Ampang Jaya,PETRONAS - Ampang Jaya,3.1600137,101.7541539,"D/A Petronas Servis Stesen, Jalan Kolam Ayer Lama, Lot 36904 (PT 27423",+60 3-4265 1703,68000,48,"https://www.google.com/maps/search/McDonald's+in+kl/@3.1409351,101.6235505,12z/data=!3m1!4b1?hl=en",Selangor,"D/A Petronas Servis Stesen, Jalan Kolam Ayer Lama, Lot 36904 (PT 27423",McDonald's Petronas Ampang DT,4.1,"https://www.google.com/maps/place/McDonald's+Petronas+Ampang+DT/@3.1600137,101.7519652,17z/data=!3m1!4b1!4m5!3m4!1s0x31cc3707db0b81bd:0xdb581cadfc1676d4!8m2!3d3.1600079!4d101.7541867?hl=en",https://www.mcdonalds.com.my/
"1, Jalan SG 1/6, Taman Sri Gombak, 68100 Batu Caves, Selangor, Malaysia",Restaurant,1.47E+19,Batu Caves,,3.2376612,101.6991922,"1, Jalan SG 1/6",+60 3-6188 9587,68100,47,"https://www.google.com/maps/search/McDonald's+in+kl/@3.1409351,101.6235505,12z/data=!3m1!4b1?hl=en",Selangor,"1, Jalan SG 1/6",McDonald's Sri Gombak,3.8,"https://www.google.com/maps/place/McDonald's+Sri+Gombak/@3.2376612,101.6970035,17z/data=!3m1!4b1!4m5!3m4!1s0x31cc4781b32b0e4f:0xcc2d2b7313fa3b64!8m2!3d3.2376612!4d101.6991922?hl=en",https://www.mcdonalds.com.my/
"Lot 517, 276 & 277, Batu 7 Lebuhraya Lingkaran Tengah 2, MRR2, Mukim, 53300, Selangor, Malaysia",Restaurant,1.81E+19,Ampang Jaya,Shell,3.2023798,101.7603998,"Lot 517, 276 & 277, Batu 7 Lebuhraya Lingkaran Tengah 2, MRR2, Mukim",+60 3-4161 7604,53300,46,"https://www.google.com/maps/search/McDonald's+in+kl/@3.1409351,101.6235505,12z/data=!3m1!4b1?hl=en",Selangor,"Lot 517, 276 & 277, Batu 7 Lebuhraya Lingkaran Tengah 2, MRR2, Mukim",McDonald's Ulu Kelang,4,"https://www.google.com/maps/place/McDonald's+Ulu+Kelang/@3.2023798,101.7582111,17z/data=!3m1!4b1!4m5!3m4!1s0x31cc39ce511f3b2d:0xfb3e354315464d8d!8m2!3d3.2023919!4d101.76039?hl=en",https://www.mcdonalds.com.my/
"No. 1 & 2, Jalan 54, Desa Jaya, Kepong, 52100, Selangor, Malaysia",Restaurant,1.49E+18,Sungai Buloh,,3.2135131,101.6327842,"No. 1 & 2, Jalan 54, Desa Jaya",+60 3-6261 4381,52100,45,"https://www.google.com/maps/search/McDonald's+in+kl/@3.1409351,101.6235505,12z/data=!3m1!4b1?hl=en",Selangor,"No. 1 & 2, Jalan 54, Desa Jaya",McDonald's Kepong,3.6,"https://www.google.com/maps/place/McDonald's+Kepong/@3.2135131,101.6305955,17z/data=!3m1!4b1!4m5!3m4!1s0x31cc466c81ee88f5:0x14bb1b50ae1e730f!8m2!3d3.2135131!4d101.6327842?hl=en",https://www.mcdonalds.com.my/
"Lot PT, 2536, Jln Lingkaran Tengah 2, Ampang Hilir, 55000 Kuala Lumpur, Federal Territory of Kuala Lumpur, Malaysia",Fast food restaurant,6.53E+18,Kuala Lumpur,,3.1520012,101.7452457,"Lot PT, 2536, Jln Lingkaran Tengah 2",,55000,33,"https://www.google.com/maps/search/McDonald's+in+kl/@3.1409351,101.6235505,12z?hl=en",Federal Territory of Kuala Lumpur,"Lot PT, 2536, Jln Lingkaran Tengah 2",McDonald’s Shell Tasik Ampang DT,3,"https://www.google.com/maps/place/McDonald%E2%80%99s+Shell+Tasik+Ampang+DT/@3.1520012,101.743057,17z/data=!3m1!4b1!4m5!3m4!1s0x31cc3740d20f7691:0x5a94c4babd44e595!8m2!3d3.1520012!4d101.7452457?hl=en",http://www.mcdonalds.com.my/
"Lot PT 1, Batu 6 1/2, Jln Kepong, Kawasan Perusahaan Kepong, 52000 Kuala Lumpur, Federal Territory of Kuala Lumpur, Malaysia",Fast food restaurant,1.25E+19,Kuala Lumpur,BHPetrol Jalan Kepong,3.2080987,101.6535065,"Lot PT 1, Batu 6 1/2, Jln Kepong",+60 3-6250 0090,52000,32,"https://www.google.com/maps/search/McDonald's+in+kl/@3.1409351,101.6235505,12z?hl=en",Federal Territory of Kuala Lumpur,"Lot PT 1, Batu 6 1/2, Jln Kepong",McDonald's BHP Jalan Kepong,3.8,"https://www.google.com/maps/place/McDonald's+BHP+Jalan+Kepong/@3.2080987,101.6513178,17z/data=!3m1!4b1!4m5!3m4!1s0x31cc4747b868c03d:0xae06e44e4696fbc3!8m2!3d3.2081821!4d101.6534908?hl=en",https://www.mcdonalds.com.my/
"5 1/4, M01 & M02, Kompleks Idaman, No. 40-50, Jalan 2/21D, Medan Idaman, Batu, Jalan Gombak, 53000 Kuala Lumpur, Malaysia",Restaurant,4.44E+18,Kuala Lumpur,Kompleks Idaman,3.2127273,101.7115652,"5 1/4, M01 & M02, Kompleks Idaman, No. 40-50, Jalan 2/21D, Medan Idaman, Batu, Jalan Gombak",+60 3-4031 6251,53000,44,"https://www.google.com/maps/search/McDonald's+in+kl/@3.1409351,101.6235505,12z/data=!3m1!4b1?hl=en",Federal Territory of Kuala Lumpur,"5 1/4, M01 & M02, Kompleks Idaman, No. 40-50, Jalan 2/21D, Medan Idaman, Batu, Jalan Gombak",McDonald's Gombak,3.7,"https://www.google.com/maps/place/McDonald's+Gombak/@3.2127273,101.7093765,17z/data=!3m1!4b1!4m5!3m4!1s0x31cc387489d1a515:0x3da2cbb4824ecb01!8m2!3d3.2127377!4d101.7115454?hl=en",https://www.mcdonalds.com.my/
"Lot No. B1-03 & B1-E-03, MyTOWN Shopping Centre, 6, Jalan Cochrane, Section 90, 55100 Kuala Lumpur, Malaysia",Restaurant,2.31E+18,Kuala Lumpur,MyTOWN Shopping Centre,3.1341707,101.7228674,"Lot No. B1-03 & B1-E-03, MyTOWN Shopping Centre, 6, Jalan Cochrane",+60 3-2732 2566,55100,43,"https://www.google.com/maps/search/McDonald's+in+kl/@3.1409351,101.6235505,12z/data=!3m1!4b1?hl=en",Federal Territory of Kuala Lumpur,"Lot No. B1-03 & B1-E-03, MyTOWN Shopping Centre, 6, Jalan Cochrane",McDonald's MyTOWN Mall,3.7,"https://www.google.com/maps/place/McDonald's+MyTOWN+Mall/@3.1341707,101.7206787,17z/data=!3m1!4b1!4m5!3m4!1s0x31cc363c2be87359:0x1fff32b8c30fcb44!8m2!3d3.1341707!4d101.7228674?hl=en",https://www.mcdonalds.com.my/
"Lot PT 7430, HSD 111856, KM 5, 5, Jln Cheras, 56000 Cheras, Federal Territory of Kuala Lumpur, Malaysia",Fast food restaurant,2.17E+18,Cheras,Shell,3.1047118,101.7328821,"Lot PT 7430, HSD 111856, KM 5, 5, Jln Cheras",+60 3-9133 1724,56000,31,"https://www.google.com/maps/search/McDonald's+in+kl/@3.1409351,101.6235505,12z?hl=en",Federal Territory of Kuala Lumpur,"Lot PT 7430, HSD 111856, KM 5, 5, Jln Cheras",McDonald's Shell Jalan Cheras DT,4,"https://www.google.com/maps/place/McDonald's+Shell+Jalan+Cheras+DT/@3.1047118,101.7306934,17z/data=!3m1!4b1!4m5!3m4!1s0x31cc35e6330a0a3b:0x1e168517dcc2b45a!8m2!3d3.1047067!4d101.7328774?hl=en",https://www.mcdonalds.com.my/
"Lot 5946, Jalan Lingkaran Tengah II, off, Karak Expy, 53300, Selangor, Malaysia",Fast food restaurant,8.07E+18,,Shell,3.2410402,101.7161655,"Lot 5946, Jalan Lingkaran Tengah II, off, Karak Expy",+60 3-6187 6904,53300,42,"https://www.google.com/maps/search/McDonald's+in+kl/@3.1409351,101.6235505,12z/data=!3m1!4b1?hl=en",Selangor,"Lot 5946, Jalan Lingkaran Tengah II, off, Karak Expy",McDonald's Shell Karak,4,"https://www.google.com/maps/place/McDonald's+Shell+Karak/@3.2410402,101.7139768,17z/data=!3m1!4b1!4m5!3m4!1s0x31cc389ae74c4573:0x6ff08ce4fe4bc22d!8m2!3d3.2409623!4d101.7161618?hl=en",https://www.mcdonalds.com.my/
"PT 8938, Jalan Sentul/Batu Caves, Mukim Setapak, Sentul, 51100 Kuala Lumpur, Malaysia",Restaurant,1.66E+18,Kuala Lumpur,Shell,3.2062302,101.6890066,"PT 8938, Jalan Sentul/Batu Caves, Mukim Setapak",+60 16-212 7692,51100,30,"https://www.google.com/maps/search/McDonald's+in+kl/@3.1409351,101.6235505,12z?hl=en",Federal Territory of Kuala Lumpur,"PT 8938, Jalan Sentul/Batu Caves, Mukim Setapak",McDonald’s @ Shell Jalan Sentul,4.2,"https://www.google.com/maps/place/McDonald%E2%80%99s+@+Shell+Jalan+Sentul/@3.2062302,101.6868179,17z/data=!3m1!4b1!4m5!3m4!1s0x31cc47d45d74da91:0x1701cc4e64bfcc30!8m2!3d3.2062273!4d101.6890351?hl=en",https://www.mcdonalds.com.my/
"Lot G-13, Ground Floor, Alpha Angle Complex, Jalan R1, Wangsa Maju, 53000, Federal Territory of Kuala Lumpur, Malaysia",Restaurant,1.47E+19,Kuala Lumpur,AEON Mall Alpha Angle,3.2021198,101.7341702,"Lot G-13, Ground Floor, Alpha Angle Complex, Jalan R1",+60 3-4131 1340,53000,41,"https://www.google.com/maps/search/McDonald's+in+kl/@3.1409351,101.6235505,12z/data=!3m1!4b1?hl=en",Federal Territory of Kuala Lumpur,"Lot G-13, Ground Floor, Alpha Angle Complex, Jalan R1",McDonald's Alpha Angle,3.4,"https://www.google.com/maps/place/McDonald's+Alpha+Angle/@3.2021198,101.7319815,17z/data=!3m1!4b1!4m5!3m4!1s0x31cc383c8df81aa5:0xcba233823c4d3ac5!8m2!3d3.2021198!4d101.7341702?hl=en",https://www.mcdonalds.com.my/
"8KM, Kuala Lumpur-Seremban Expy, 57000 Seri Kembangan, Federal Territory of Kuala Lumpur, Malaysia             8KM, Lebuhraya Kuala Lumpur - Seremban, 57000 Seri Kembangan, Wilayah Persekutuan Kuala Lumpur",Restaurant,4.48E+18,Seri Kembangan,Petron Sg Besi Toll Southbound,3.047043,101.7057989,"8KM, Kuala Lumpur-Seremban Expy",+60 3-8942 3932,57000,29,"https://www.google.com/maps/search/McDonald's+in+kl/@3.1409351,101.6235505,12z?hl=en",Federal Territory of Kuala Lumpur,"8KM, Kuala Lumpur-Seremban Expy",McDonald's Petron Seremban-KL Highway DT,3.9,"https://www.google.com/maps/place/McDonald's+Petron+Seremban-KL+Highway+DT/@3.047043,101.7036102,17z/data=!3m1!4b1!4m5!3m4!1s0x31cc4bc33c42af5f:0x3e3d021e58bb8860!8m2!3d3.047043!4d101.7057989?hl=en",https://www.mcdonalds.com.my/
"Lot No. G-08, Ground Floor, Pearl Point Shopping Complex, 5th Mile, Old Klang Road, 58000, Federal Territory of Kuala Lumpur, Malaysia",Restaurant,1.99E+18,Kuala Lumpur,Floor G · Pearl Point Shopping Mall,3.085057,101.673586,"Lot No. G-08, Ground Floor, Pearl Point Shopping Complex, 5th Mile, Old Klang Road, 58000",+60 3-7971 0196,,28,"https://www.google.com/maps/search/McDonald's+in+kl/@3.1409351,101.6235505,12z?hl=en",Federal Territory of Kuala Lumpur,"Lot No. G-08, Ground Floor, Pearl Point Shopping Complex, 5th Mile, Old Klang Road, 58000",McDonald's Pearl Point DT,3.7,"https://www.google.com/maps/place/McDonald's+Pearl+Point+DT/@3.085057,101.6713973,17z/data=!3m1!4b1!4m5!3m4!1s0x31cc4bfa03163619:0x1b8e6a86e3958135!8m2!3d3.085057!4d101.673586?hl=en",https://www.mcdonalds.com.my/
"Lot PT 10098, Jalan Sentul Pasar, Mukim Setapak Dalam, 51000 Kuala Lumpur, Malaysia",Restaurant,9.71E+18,Kuala Lumpur,,3.2020383,101.6900092,"Lot PT 10098, Jalan Sentul Pasar",+60 3-2702 9214,51000,27,"https://www.google.com/maps/search/McDonald's+in+kl/@3.1409351,101.6235505,12z?hl=en",Federal Territory of Kuala Lumpur,"Lot PT 10098, Jalan Sentul Pasar",McDonald's Sentul Point DT,3.7,"https://www.google.com/maps/place/McDonald's+Sentul+Point+DT/@3.2020383,101.6878205,17z/data=!3m1!4b1!4m5!3m4!1s0x31cc4756e6b636e5:0x86b68de128c6277a!8m2!3d3.2020268!4d101.6899704?hl=en",https://www.mcdonalds.com.my/
"Lot 1, Level 1, BUSANA, Menara MARA, 232, Jalan Tuanku Abdul Rahman, 50100 Kuala Lumpur, Malaysia",Restaurant,1.35E+19,Kuala Lumpur,Floor 1 · MARA Digital Kuala Lumpur,3.1579504,101.695637,"Lot 1, Level 1, BUSANA, Menara MARA, 232, Jalan Tuanku Abdul Rahman",+60 3-2202 8034,50100,26,"https://www.google.com/maps/search/McDonald's+in+kl/@3.1409351,101.6235505,12z?hl=en",Federal Territory of Kuala Lumpur,"Lot 1, Level 1, BUSANA, Menara MARA, 232, Jalan Tuanku Abdul Rahman",McDonald's M2 Mall,4.1,"https://www.google.com/maps/place/McDonald's+M2+Mall/@3.1579504,101.6934483,17z/data=!3m1!4b1!4m5!3m4!1s0x31cc498b96bc25c1:0xbc04f7c0a184a033!8m2!3d3.1579504!4d101.695637?hl=en",https://www.mcdonalds.com.my/
"No. 1, Block D, Plaza Mont Kiara, Jalan Bukit Kiara, Malaysia, 50480 Kuala Lumpur, Federal Territory of Kuala Lumpur, Malaysia",Restaurant,1.57E+19,Kuala Lumpur,Plaza Mont Kiara,3.1657202,101.6522016,"No. 1, Block D, Plaza Mont Kiara, Jalan Bukit Kiara",+60 3-6203 3759,50480,25,"https://www.google.com/maps/search/McDonald's+in+kl/@3.1409351,101.6235505,12z?hl=en",Federal Territory of Kuala Lumpur,"No. 1, Block D, Plaza Mont Kiara, Jalan Bukit Kiara",McDonald's Mont Kiara,3.8,"https://www.google.com/maps/place/McDonald's+Mont+Kiara/@3.1657202,101.6500129,17z/data=!3m1!4b1!4m5!3m4!1s0x31cc49d17879b125:0xd94a555c95779a6f!8m2!3d3.1657202!4d101.6522016?hl=en",http://www.mcdonalds.com.my/
"No 63 & 63, 1, Jalan Radin Tengah, Bandar Baru Sri Petaling, 57000 Kuala Lumpur, Federal Territory of Kuala Lumpur, Malaysia",Fast food restaurant,1.51E+19,Kuala Lumpur,,3.0688147,101.691739,"No 63 & 63, 1, Jalan Radin Tengah",+60 3-9054 5927,57000,24,"https://www.google.com/maps/search/McDonald's+in+kl/@3.1409351,101.6235505,12z?hl=en",Federal Territory of Kuala Lumpur,"No 63 & 63, 1, Jalan Radin Tengah",McDonald's Sri Petaling,3.8,"https://www.google.com/maps/place/McDonald's+Sri+Petaling/@3.0688147,101.6895503,17z/data=!3m1!4b1!4m5!3m4!1s0x31cc4a893ba562eb:0xd15bd8506639e3df!8m2!3d3.0688147!4d101.691739?hl=en",http://www.mcdonalds.com.my/
"No. 2, 2A & B, Jalan Tun Mohd Fuad 2, Taman Tun Dr Ismail, 60000 Kuala Lumpur, Malaysia",Restaurant,6.71E+18,Kuala Lumpur,,3.1404965,101.6292082,"No. 2, 2A & B, Jalan Tun Mohd Fuad 2",+60 3-7722 1767,60000,23,"https://www.google.com/maps/search/McDonald's+in+kl/@3.1409351,101.6235505,12z?hl=en",Federal Territory of Kuala Lumpur,"No. 2, 2A & B, Jalan Tun Mohd Fuad 2",McDonald's TTDI (Taman Tun Dr Ismail),4,"https://www.google.com/maps/place/McDonald's+TTDI+(Taman+Tun+Dr+Ismail)/@3.1404965,101.6270195,17z/data=!3m1!4b1!4m5!3m4!1s0x31cc493af77c7bd7:0x5d2621d698e37a6e!8m2!3d3.1405194!4d101.6292002?hl=en",https://www.mcdonalds.com.my/
"Part of Lot 201138, Jalan Langkawi, Mukim, Danau Kota, 53300 Kuala Lumpur, Malaysia",Restaurant,1.45E+19,Kuala Lumpur,,3.2060279,101.7169048,"Part of Lot 201138, Jalan Langkawi, Mukim",+60 3-4131 0897,53300,22,"https://www.google.com/maps/search/McDonald's+in+kl/@3.1409351,101.6235505,12z?hl=en",Federal Territory of Kuala Lumpur,"Part of Lot 201138, Jalan Langkawi, Mukim",McDonald's Danau Kota DT,3.9,"https://www.google.com/maps/place/McDonald's+Danau+Kota+DT/@3.2060279,101.7147161,17z/data=!3m1!4b1!4m5!3m4!1s0x31cc39926088980d:0xc9338fe783640e92!8m2!3d3.2060459!4d101.7169308?hl=en",https://www.mcdonalds.com.my/
"1/116B, off, Jalan Kuchai Lama, Kuchai Entrepreneurs Park, 58200 Kuala Lumpur, Malaysia",Fast food restaurant,6.34E+18,Kuala Lumpur,,3.0872023,101.6901265,"1/116B, off, Jalan Kuchai Lama",+60 3-7982 2180,58200,21,"https://www.google.com/maps/search/McDonald's+in+kl/@3.1409351,101.6235505,12z?hl=en",Federal Territory of Kuala Lumpur,"1/116B, off, Jalan Kuchai Lama",McDonald's Kuchai Lama DT,3.8,"https://www.google.com/maps/place/McDonald's+Kuchai+Lama+DT/@3.0872023,101.6879378,17z/data=!3m1!4b1!4m5!3m4!1s0x31cc4bdde5efa839:0x57ede7d565dedf7a!8m2!3d3.0872023!4d101.6901265?hl=en",https://www.mcdonalds.com.my/
"Lot G-W-1, Ground Floor, West Wing, Rohas Pure Circle, 9, Jalan P. Ramlee, 50450 Kuala Lumpur, Malaysia",Restaurant,1.13E+19,Kuala Lumpur,,3.1546658,101.7084895,"Lot G-W-1, Ground Floor, West Wing, Rohas Pure Circle, 9, Jalan P. Ramlee",+60 3-2181 5851,50450,19,"https://www.google.com/maps/search/McDonald's+in+kl/@3.1409398,101.6235506,12z?hl=en",Federal Territory of Kuala Lumpur,"Lot G-W-1, Ground Floor, West Wing, Rohas Pure Circle, 9, Jalan P. Ramlee",McDonald's Jalan P. Ramlee,4.1,"https://www.google.com/maps/place/McDonald's+Jalan+P.+Ramlee/@3.1546658,101.7063008,17z/data=!3m1!4b1!4m5!3m4!1s0x31cc37318600eb99:0x9c6dc521ef5f7fcb!8m2!3d3.1546658!4d101.7084895?hl=en",https://www.mcdonalds.com.my/
"Suria Klcc, Shopping Centre, Lot C35 - 38, Concourse Floor, Jln Ampang, 50088 Kuala Lumpur, Malaysia",Restaurant,1.63E+19,Kuala Lumpur,Suria KLCC,3.1568208,101.7112868,"Suria Klcc, Shopping Centre, Lot C35 - 38, Concourse Floor, Jln Ampang",+60 3-2715 1512,50088,18,"https://www.google.com/maps/search/McDonald's+in+kl/@3.1409398,101.6235506,12z?hl=en",Federal Territory of Kuala Lumpur,"Suria Klcc, Shopping Centre, Lot C35 - 38, Concourse Floor, Jln Ampang",McDonald's Suria KLCC,4.2,"https://www.google.com/maps/place/McDonald's+Suria+KLCC/@3.1568208,101.7090981,17z/data=!3m1!4b1!4m5!3m4!1s0x31cc37d6bbc31979:0xe26d6c8c9122997f!8m2!3d3.1568208!4d101.7112868?hl=en",https://www.mcdonalds.com.my/
"Lot 16794 & 16795, Jalan 37/56, Setiawangsa, 54200 Kuala Lumpur, Malaysia",Restaurant,8.91E+18,Kuala Lumpur,Petronas Taman Setiawangsa,3.1779301,101.7436366,"Lot 16794 & 16795, Jalan 37/56",+60 3-4265 1384,54200,17,"https://www.google.com/maps/search/McDonald's+in+kl/@3.1409398,101.6235506,12z?hl=en",Federal Territory of Kuala Lumpur,"Lot 16794 & 16795, Jalan 37/56",McDonald's Setiawangsa DT,3.8,"https://www.google.com/maps/place/McDonald's+Setiawangsa+DT/@3.1779301,101.7414479,17z/data=!3m1!4b1!4m5!3m4!1s0x31cc379a53f1ee25:0x7b9b9ce511faed32!8m2!3d3.1779295!4d101.7436671?hl=en",https://www.mcdonalds.com.my/
"Lot 2 & 2-1, Jalan 1/76d, Desa Pandan, 55100 Kuala Lumpur, Wilayah Persekutuan Kuala Lumpur, Malaysia",Fast food restaurant,6.16E+17,Kuala Lumpur,,3.1471054,101.7368612,"Lot 2 & 2-1, Jalan 1/76d",+60 3-9285 2636,55100,16,"https://www.google.com/maps/search/McDonald's+in+kl/@3.1409398,101.6235506,12z?hl=en",Federal Territory of Kuala Lumpur,"Lot 2 & 2-1, Jalan 1/76d",McDonald's Desa Pandan,4,"https://www.google.com/maps/place/McDonald's+Desa+Pandan/@3.1471054,101.7346725,17z/data=!3m1!4b1!4m5!3m4!1s0x31cc364c3ef9ef09:0x88ccdeeedd4c20d!8m2!3d3.1471054!4d101.7368612?hl=en",https://www.mcdonalds.com.my/
"LG, Sunway Velocity Mall, Jalan Peel, 55100 Kuala Lumpur, Malaysia",Restaurant,1.32E+18,Kuala Lumpur,Floor 1 · Sunway Velocity Mall,3.1273393,101.7244202,"LG, Sunway Velocity Mall, Jalan Peel",+60 3-2732 0717,55100,15,"https://www.google.com/maps/search/McDonald's+in+kl/@3.1409398,101.6235506,12z?hl=en",Federal Territory of Kuala Lumpur,"LG, Sunway Velocity Mall, Jalan Peel",McDonald's Sunway Velocity Mall,4,"https://www.google.com/maps/place/McDonald's+Sunway+Velocity+Mall/@3.1273393,101.7222315,17z/data=!3m1!4b1!4m5!3m4!1s0x31cc36141afe9e8d:0x12423a0aab810f80!8m2!3d3.1273393!4d101.7244202?hl=en",https://www.mcdonalds.com.my/
"Tingkat 3, Mid Valley Megamall, Lingkaran Syed Putra, 59200 Kuala Lumpur, Federal Territory of Kuala Lumpur, Malaysia",Fast food restaurant,1.28E+19,Kuala Lumpur,Mid Valley Megamall,3.1182012,101.6784425,"Tingkat 3, Mid Valley Megamall, Lingkaran Syed Putra",+60 3-2201 0506,59200,14,"https://www.google.com/maps/search/McDonald's+in+kl/@3.1409398,101.6235506,12z?hl=en",Federal Territory of Kuala Lumpur,"Tingkat 3, Mid Valley Megamall, Lingkaran Syed Putra",McDonald's Mid Valley 3,3.8,"https://www.google.com/maps/place/McDonald's+Mid+Valley+3/@3.1182012,101.6762538,17z/data=!3m1!4b1!4m5!3m4!1s0x31cc49108cb62be1:0xb16623d58e2a0a83!8m2!3d3.1182012!4d101.6784425?hl=en",https://www.mcdonalds.com.my/
"Lot 18113, Jalan Cendikiawan, 55100 Mukim, Federal Territory of Kuala Lumpur, Malaysia",Restaurant,7.36E+18,Kuala Lumpur,,3.0813549,101.7320106,"Lot 18113, Jalan Cendikiawan, 55100 Mukim",+60 3-9101 6190,,13,"https://www.google.com/maps/search/McDonald's+in+kl/@3.1409398,101.6235506,12z?hl=en",Federal Territory of Kuala Lumpur,"Lot 18113, Jalan Cendikiawan, 55100 Mukim",McDonald's Taman Connaught DT,4,"https://www.google.com/maps/place/McDonald's+Taman+Connaught+DT/@3.0813549,101.7298219,17z/data=!3m1!4b1!4m5!3m4!1s0x31cc35a2db091b6f:0x663133f0f9b8b8b8!8m2!3d3.0813543!4d101.7320385?hl=en",http://www.mcdonalds.com.my/
"Plaza OUG, Part of G03 to G06, Ground Floor, Jln Klang Lama, 58000 Kuala Lumpur, Malaysia",Restaurant,5.23E+18,Kuala Lumpur,Plaza OUG,3.0819669,101.6713343,"Plaza OUG, Part of G03 to G06, Ground Floor, Jln Klang Lama",+60 3-7982 0933,58000,12,"https://www.google.com/maps/search/McDonald's+in+kl/@3.1409398,101.6235506,12z?hl=en",Federal Territory of Kuala Lumpur,"Plaza OUG, Part of G03 to G06, Ground Floor, Jln Klang Lama",McDonald's OUG,3.5,"https://www.google.com/maps/place/McDonald's+OUG/@3.0819669,101.6691456,17z/data=!3m1!4b1!4m5!3m4!1s0x31cc4a502320a6cf:0x48a5a7fc788cf019!8m2!3d3.0819669!4d101.6713343?hl=en",https://www.mcdonalds.com.my/
"Lot No. LG-033 & LG-034, Lower Ground Floor, Jalan Kelang Lama, Malaysia, Kuala Lumpur, 58000 Kuala Lumpur, Federal Territory of Kuala Lumpur, Malaysia",Fast food restaurant,1.79E+19,Kuala Lumpur,Floor G · Mid Valley Megamall,3.117472,101.677383,"Lot No. LG-033 & LG-034, Lower Ground Floor, Jalan Kelang Lama, Malaysia",+60 3-2284 8870,58000,11,"https://www.google.com/maps/search/McDonald's+in+kl/@3.1409398,101.6235506,12z?hl=en",Federal Territory of Kuala Lumpur,"Lot No. LG-033 & LG-034, Lower Ground Floor, Jalan Kelang Lama, Malaysia",McDonald's Mid Valley 1,3.5,"https://www.google.com/maps/place/McDonald's+Mid+Valley+1/@3.117472,101.6751943,17z/data=!3m1!4b1!4m5!3m4!1s0x31cc49df0a244ccf:0xf86c523fe3ea0788!8m2!3d3.117472!4d101.677383?hl=en",http://www.mcdonalds.com.my/
"Lot 8, Section, 85, Jalan Pahang, Setapak, 53000 Kuala Lumpur, Malaysia",Fast food restaurant,5.02E+18,Kuala Lumpur,,3.1795571,101.7004393,"Lot 8, Section, 85, Jalan Pahang",+60 3-4023 2602,53000,10,"https://www.google.com/maps/search/McDonald's+in+kl/@3.1409398,101.6235506,12z?hl=en",Federal Territory of Kuala Lumpur,"Lot 8, Section, 85, Jalan Pahang",McDonald's Titiwangsa DT,4,"https://www.google.com/maps/place/McDonald's+Titiwangsa+DT/@3.1795571,101.6982506,17z/data=!3m1!4b1!4m5!3m4!1s0x31cc481b686b3b3d:0x45aa8e6b5adf582f!8m2!3d3.1795539!4d101.7004473?hl=en",http://www.mcdonalds.com.my/
"Wisma Lim Foo Yong, Lot No. 62, Seksyen, 57, Jalan Raja Chulan, 50250 Kuala Lumpur, Malaysia",Restaurant,1.60E+19,Kuala Lumpur,Selections Groceries - Wisma Lim Foo Yong,3.1504609,101.7092659,"Wisma Lim Foo Yong, Lot No. 62, Seksyen, 57, Jalan Raja Chulan",+60 3-2110 2479,50250,9,"https://www.google.com/maps/search/McDonald's+in+kl/@3.1409398,101.6235506,12z?hl=en",Federal Territory of Kuala Lumpur,"Wisma Lim Foo Yong, Lot No. 62, Seksyen, 57, Jalan Raja Chulan",McDonald's Wisma Lim Foo Yong,4.3,"https://www.google.com/maps/place/McDonald's+Wisma+Lim+Foo+Yong/@3.1504609,101.7070772,17z/data=!3m1!4b1!4m5!3m4!1s0x31cc37e9596c78c3:0xddb8d66266468db6!8m2!3d3.1504609!4d101.7092659?hl=en",https://www.mcdonalds.com.my/
"Unit No. L4. 02 & 03, Level 4, 1 Sentral, Jalan Travers, Malaysia, Kuala Lumpur, 50470 Kuala Lumpur, Federal Territory of Kuala Lumpur, Malaysia",Fast food restaurant,1.47E+19,Kuala Lumpur,,3.133,101.687,"Unit No. L4. 02 & 03, Level 4, 1 Sentral, Jalan Travers, Malaysia",+60 3-2272 2054,50470,8,"https://www.google.com/maps/search/McDonald's+in+kl/@3.1409398,101.6235506,12z?hl=en",Federal Territory of Kuala Lumpur,"Unit No. L4. 02 & 03, Level 4, 1 Sentral, Jalan Travers, Malaysia",McDonald's NU Sentral,3.8,"https://www.google.com/maps/place/McDonald's+NU+Sentral/@3.133,101.6848113,17z/data=!3m1!4b1!4m5!3m4!1s0x31cc49c1b13fd18b:0xcb69c285638bc883!8m2!3d3.133!4d101.687?hl=en",http://www.mcdonalds.com.my/
"S/B, Lot 6, LGF, SOGO Pernas Department Stores, 190, Jalan Tuanku Abdul Rahman, 50100 Kuala Lumpur, Malaysia",Fast food restaurant,1.38E+19,Kuala Lumpur,SOGO Kuala Lumpur,3.1560193,101.6952973,"S/B, Lot 6, LGF, SOGO Pernas Department Stores, 190, Jalan Tuanku Abdul Rahman",+60 3-2202 8063,50100,5,"https://www.google.com/maps/search/McDonald's+in+kl/@3.1409398,101.6235506,12z?hl=en",Federal Territory of Kuala Lumpur,"S/B, Lot 6, LGF, SOGO Pernas Department Stores, 190, Jalan Tuanku Abdul Rahman",McDonald's SOGO,4.1,"https://www.google.com/maps/place/McDonald's+SOGO/@3.1560193,101.6931086,17z/data=!3m1!4b1!4m5!3m4!1s0x31cc4832007cff69:0xc0147c367c8c666e!8m2!3d3.1560193!4d101.6952973?hl=en",https://www.mcdonalds.com.my/
"Lot 05-93, 93A, 1, Jalan Imbi, Imbi, 55100 Kuala Lumpur, Federal Territory of Kuala Lumpur, Malaysia",Fast food restaurant,6.27E+18,Kuala Lumpur,Berjaya Times Square KL Shopping Mall,3.1420818,101.7110315,"Lot 05-93, 93A, 1, Jalan Imbi",+60 3-2110 0154,55100,4,"https://www.google.com/maps/search/McDonald's+in+kl/@3.1409398,101.6235506,12z?hl=en",Federal Territory of Kuala Lumpur,"Lot 05-93, 93A, 1, Jalan Imbi",McDonald's Berjaya Times Square,4,"https://www.google.com/maps/place/McDonald's+Berjaya+Times+Square/@3.1420818,101.7088428,17z/data=!3m1!4b1!4m5!3m4!1s0x31cc362899e3e63b:0x570c637b0c373341!8m2!3d3.1420818!4d101.7110315?hl=en",https://www.mcdonalds.com.my/
"Lot No. G17, G17A & G17B, Ground Floor, Intermark Mall, 348, Jln Tun Razak, 50400 Kuala Lumpur, Malaysia",Restaurant,1.08E+19,Kuala Lumpur,Intermark Mall,3.161203,101.7199958,"Lot No. G17, G17A & G17B, Ground Floor, Intermark Mall, 348, Jln Tun Razak",+60 3-2715 5667,50400,3,"https://www.google.com/maps/search/McDonald's+in+kl/@3.1409398,101.6235506,12z?hl=en",Federal Territory of Kuala Lumpur,"Lot No. G17, G17A & G17B, Ground Floor, Intermark Mall, 348, Jln Tun Razak",McDonald's Intermark Mall,4.2,"https://www.google.com/maps/place/McDonald's+Intermark+Mall/@3.161203,101.7178071,17z/data=!3m1!4b1!4m5!3m4!1s0x31cc37c563e3af41:0x9577e570d539644d!8m2!3d3.161203!4d101.7199958?hl=en",https://www.mcdonalds.com.my/
"Kuala Lumpur Sentral Station, Lot 14, 15, & 16, First Floor, 50470 Kuala Lumpur, Malaysia",Fast food restaurant,1.64E+19,Kuala Lumpur,Floor 1 · KL Sentral - Main Entrance | Grand Lobby,3.134487,101.6865082,"Kuala Lumpur Sentral Station, Lot 14, 15, & 16, First Floor",+60 3-2271 1431,50470,2,"https://www.google.com/maps/search/McDonald's+in+kl/@3.1409398,101.6235506,12z?hl=en",Federal Territory of Kuala Lumpur,"Kuala Lumpur Sentral Station, Lot 14, 15, & 16, First Floor",McDonald's KL Sentral,3.9,"https://www.google.com/maps/place/McDonald's+KL+Sentral/@3.134487,101.6843195,17z/data=!3m1!4b1!4m5!3m4!1s0x31cc49c0f811b241:0xe43e7c5952daa240!8m2!3d3.134487!4d101.6865082?hl=en",http://www.mcdonalds.com.my/
"120-120A, Bukit Bintang St, Bukit Bintang, 55100 Kuala Lumpur, Federal Territory of Kuala Lumpur, Malaysia",Fast food restaurant,1.49E+19,Kuala Lumpur,,3.1468673,101.7108831,"120-120A, Bukit Bintang St",+60 3-2142 7843,55100,1,"https://www.google.com/maps/search/McDonald's+in+kl/@3.1409398,101.6235506,12z?hl=en",Federal Territory of Kuala Lumpur,"120-120A, Bukit Bintang St",McDonald's Bukit Bintang,4.2,"https://www.google.com/maps/place/McDonald's+Bukit+Bintang/@3.1468673,101.7086944,17z/data=!3m1!4b1!4m5!3m4!1s0x31cc362bddc85e4d:0xce9397f80d5533f5!8m2!3d3.1468673!4d101.7108831?hl=en",https://www.mcdonalds.com.my/
