address,categories/0,cid,city,locatedIn,latitude,longitude,neighborhood,orderBy/0/name,orderBy/0/url,phone,postalCode,rank,searchPageUrl,state,street,store_name,totalScore,url,website
"Section 2, No, Jalan Metro Wangsa, Wangsa Maju, 53300 Kuala Lumpur, Malaysia",Pizza restaurant,1.73E+19,Kuala Lumpur,,3.2047503,101.7363733,"Section 2, No, Jalan Metro Wangsa",pizzahut.com.my,https://www.pizzahut.com.my/?utm_source=google&utm_medium=organic&utm_campaign=googlemybusiness&utm_content=orderlinkphd,+60 1-300-88-2525,53300,20,"https://www.google.com/maps/search/Pizza+Hut+in+Kuala+Lumpur,+Federal+Territory+of+Kuala+Lumpur/@3.141278,101.6235504,12z?hl=en",Federal Territory of Kuala Lumpur,"Section 2, No, Jalan Metro Wangsa",Pizza Hut Delivery (PHD) WANGSA MAJU,4.1,"https://www.google.com/maps/place/Pizza+Hut+Delivery+(PHD)+WANGSA+MAJU/@3.2047503,101.7341846,17z/data=!3m1!4b1!4m5!3m4!1s0x31cc383be3f7febd:0xefb4aaf01cd6b572!8m2!3d3.2047503!4d101.7363733?hl=en",https://www.pizzahut.com.my/?utm_source=googlemybusiness&utm_medium=organic&utm_campaign=phd&utm_content=websitelink
"No. 48, Jalan Medan Putra 3, Wilayah Persekutuan, 52200 Kuala Lumpur, Wilayah Persekutuan Kuala Lumpur, Malaysia",Cafe,1.84E+19,Kuala Lumpur,,3.1919148,101.6252434,"No. 48, Jalan Medan Putra 3",,,+60 3-6272 0239,52200,98,"https://www.google.com/maps/search/Pizza+Hut+in+Kuala+Lumpur,+Federal+Territory+of+Kuala+Lumpur/@3.1412733,101.6235503,12z?hl=en",Federal Territory of Kuala Lumpur,"No. 48, Jalan Medan Putra 3",Pizza Hut Delivery,4.1,"https://www.google.com/maps/place/Pizza+Hut+Delivery/@3.1919148,101.6230547,17z/data=!3m1!4b1!4m5!3m4!1s0x31cc460293494b99:0xff782c551195b6da!8m2!3d3.1919148!4d101.6252434?hl=en",
"2, Jalan Equine 9b, Taman Equine, 43300 Seri Kembangan, Selangor, Malaysia",Pizza restaurant,1.35E+18,Seri Kembangan,AEON MALL Taman Equine,2.9952855,101.6750188,"2, Jalan Equine 9b",,,+60 1-300-88-2525,43300,97,"https://www.google.com/maps/search/Pizza+Hut+in+Kuala+Lumpur,+Federal+Territory+of+Kuala+Lumpur/@3.1412733,101.6235503,12z?hl=en",Selangor,"2, Jalan Equine 9b",Pizza Hut Equine Park,3.5,"https://www.google.com/maps/place/Pizza+Hut+Equine+Park/@2.9952855,101.6728301,17z/data=!3m1!4b1!4m5!3m4!1s0x31cdb50823f89ac9:0x12c8e38b7d23dd7b!8m2!3d2.9952855!4d101.6750188?hl=en",http://www.pizzahut.com.my/
"55, Jln Sungai Burung Z 32/Z, Bukit Rimau, 40460 Shah Alam, Selangor, Malaysia",Pizza restaurant,1.73E+19,Shah Alam,,2.9984174,101.5275141,"55, Jln Sungai Burung Z 32/Z",,,+60 1-300-88-2525,40460,96,"https://www.google.com/maps/search/Pizza+Hut+in+Kuala+Lumpur,+Federal+Territory+of+Kuala+Lumpur/@3.1412733,101.6235503,12z?hl=en",Selangor,"55, Jln Sungai Burung Z 32/Z",Pizza Hut Delivery (PHD) BUKIT RIMAU,3.8,"https://www.google.com/maps/place/Pizza+Hut+Delivery+(PHD)+BUKIT+RIMAU/@2.9984174,101.5253254,17z/data=!3m1!4b1!4m5!3m4!1s0x31cc53ce0f62ed31:0xefcdde75201d62d2!8m2!3d2.9984174!4d101.5275141?hl=en",https://www.pizzahut.com.my/?utm_source=googlemybusiness&utm_medium=organic&utm_campaign=phd&utm_content=websitelink
"8, Jalan Pandan Prima 2, Dataran Pandan Prima, 68000 Kuala Lumpur, Selangor, Malaysia",Restaurant,4.97E+18,Kuala Lumpur,,3.1420183,101.7416616,"8, Jalan Pandan Prima 2",,,,68000,95,"https://www.google.com/maps/search/Pizza+Hut+in+Kuala+Lumpur,+Federal+Territory+of+Kuala+Lumpur/@3.1412733,101.6235503,12z?hl=en",Selangor,"8, Jalan Pandan Prima 2",Pizza Hut Tesco Ampang,4,"https://www.google.com/maps/place/Pizza+Hut+Tesco+Ampang/@3.1420183,101.7394729,17z/data=!3m1!4b1!4m5!3m4!1s0x31cc36501a6f486d:0x44fab3bad71680e9!8m2!3d3.1420141!4d101.7416608?hl=en",
"Lot GF - 09 & GF-10 Ground Floor Shah Alam City (SACC) Jalan Perbadanan 14/9, Sh, 40000 Shah Alam, Selangor, Malaysia",Pizza restaurant,9.47E+18,Shah Alam,Floor G · SACC Mall,3.0698891,101.5185631,"Lot GF - 09 & GF-10 Ground Floor Shah Alam City (SACC) Jalan Perbadanan 14/9, Sh",,,+60 1-300-88-2525,40000,94,"https://www.google.com/maps/search/Pizza+Hut+in+Kuala+Lumpur,+Federal+Territory+of+Kuala+Lumpur/@3.1412733,101.6235503,12z?hl=en",Selangor,"Lot GF - 09 & GF-10 Ground Floor Shah Alam City (SACC) Jalan Perbadanan 14/9, Sh",Pizza Hut SHAH ALAM CC,3.1,"https://www.google.com/maps/place/Pizza+Hut+SHAH+ALAM+CC/@3.0698891,101.5163744,17z/data=!3m1!4b1!4m5!3m4!1s0x31cc53ea0f8a27e5:0x8373e0f5cebb003a!8m2!3d3.0698891!4d101.5185631?hl=en",https://www.pizzahut.com.my/
"4, Jalan Elektron F U16/F, Denai Alam, 40160 Shah Alam, Selangor, Malaysia",Pizza restaurant,1.45E+19,Shah Alam,,3.1608232,101.5123127,"4, Jalan Elektron F U16/F",,,+60 1-300-88-2525,40160,93,"https://www.google.com/maps/search/Pizza+Hut+in+Kuala+Lumpur,+Federal+Territory+of+Kuala+Lumpur/@3.1412733,101.6235503,12z?hl=en",Selangor,"4, Jalan Elektron F U16/F",Pizza Hut Delivery (PHD) DENAI ALAM,3.7,"https://www.google.com/maps/place/Pizza+Hut+Delivery+(PHD)+DENAI+ALAM/@3.1608232,101.510124,17z/data=!3m1!4b1!4m5!3m4!1s0x31cc511addd7c965:0xc9663087ae3bc128!8m2!3d3.1608232!4d101.5123127?hl=en",https://www.pizzahut.com.my/?utm_source=googlemybusiness&utm_medium=organic&utm_campaign=phd&utm_content=websitelink
"Lot 81 & 82, Lower Ground, IOI Resort City, 62502 Purtajaya, Putrajaya, Malaysia",Pizza restaurant,1.41E+18,Purtajaya,IOI Mall Puchong,3.0455227,101.618215,"Lot 81 & 82, Lower Ground, IOI Resort City",,,+60 1-300-88-2525,62502,92,"https://www.google.com/maps/search/Pizza+Hut+in+Kuala+Lumpur,+Federal+Territory+of+Kuala+Lumpur/@3.1412733,101.6235503,12z?hl=en",Putrajaya,"Lot 81 & 82, Lower Ground, IOI Resort City",Pizza Hut IOI CITY MALL PUTRAJAYA,,"https://www.google.com/maps/place/Pizza+Hut+IOI+CITY+MALL+PUTRAJAYA/@3.0455227,101.6160263,17z/data=!3m1!4b1!4m5!3m4!1s0x31cc4be61ea547df:0x13935281c28392b4!8m2!3d3.0455227!4d101.618215?hl=en",https://www.pizzahut.com.my/
"Lot G49 Ground Floor, Jusco Cheras Selatan Shopping Centre, 43200 Cheras, Selangor, Malaysia",Pizza restaurant,1.40E+19,Cheras,Floor G · AEON Mall Cheras Selatan,3.0327012,101.7644835,"Lot G49 Ground Floor, Jusco Cheras Selatan Shopping Centre",,,+60 1-300-88-2525,43200,91,"https://www.google.com/maps/search/Pizza+Hut+in+Kuala+Lumpur,+Federal+Territory+of+Kuala+Lumpur/@3.1412733,101.6235503,12z?hl=en",Selangor,"Lot G49 Ground Floor, Jusco Cheras Selatan Shopping Centre",Pizza Hut,3.1,"https://www.google.com/maps/place/Pizza+Hut/@3.0327012,101.7622948,17z/data=!3m1!4b1!4m5!3m4!1s0x31cdad8756606e21:0xc2bcc6f02eb86e5c!8m2!3d3.0327012!4d101.7644835?hl=en",https://www.pizzahut.com.my/
"PT 31081, Jalan Apollo Ch U5/Ch, Seksyen U5, 40150 Shah Alam, Selangor, Malaysia",Pizza restaurant,1.36E+19,Shah Alam,,3.1553084,101.5457205,"PT 31081, Jalan Apollo Ch U5/Ch",,,+60 1-300-88-2525,40150,90,"https://www.google.com/maps/search/Pizza+Hut+in+Kuala+Lumpur,+Federal+Territory+of+Kuala+Lumpur/@3.1412733,101.6235503,12z?hl=en",Selangor,"PT 31081, Jalan Apollo Ch U5/Ch",Pizza Hut SUBANG 2 (Curbside Pickup Available),3.7,"https://www.google.com/maps/place/Pizza+Hut+SUBANG+2+(Curbside+Pickup+Available)/@3.1553084,101.5435318,17z/data=!3m1!4b1!4m5!3m4!1s0x31cc4fbeeb871af5:0xbc7397e360110850!8m2!3d3.1553084!4d101.5457205?hl=en",https://www.pizzahut.com.my/
"Section 9, 40100 Shah Alam, Selangor, Malaysia",Pizza restaurant,1.57E+19,Shah Alam,,3.0854446,101.5227361,,,,+60 1-300-88-2525,40100,89,"https://www.google.com/maps/search/Pizza+Hut+in+Kuala+Lumpur,+Federal+Territory+of+Kuala+Lumpur/@3.1412733,101.6235503,12z?hl=en",Selangor,,Pizza Hut,4,"https://www.google.com/maps/place/Pizza+Hut/@3.0854446,101.5205474,17z/data=!3m1!4b1!4m5!3m4!1s0x31cc532a3c95817d:0xda517300bc43e3ad!8m2!3d3.0854446!4d101.5227361?hl=en",http://www.pizzahut.com.my/
"Lot No. 3, Ground Floor Tesco Shah Alam.3 Jalan Aerobik 13/43 Seksyen 13, Sha, 40100 Shah Alam, Selangor, Malaysia",Pizza restaurant,7.08E+18,Shah Alam,,3.0713431,101.5384553,"Lot No. 3, Ground Floor Tesco Shah Alam.3 Jalan Aerobik 13/43 Seksyen 13, Sha",,,+60 1-300-88-2525,40100,88,"https://www.google.com/maps/search/Pizza+Hut+in+Kuala+Lumpur,+Federal+Territory+of+Kuala+Lumpur/@3.1412733,101.6235503,12z?hl=en",Selangor,"Lot No. 3, Ground Floor Tesco Shah Alam.3 Jalan Aerobik 13/43 Seksyen 13, Sha",PIZZA HUT TESCO SHAH ALAM,3.1,"https://www.google.com/maps/place/PIZZA+HUT+TESCO+SHAH+ALAM/@3.0713431,101.5362666,17z/data=!3m1!4b1!4m5!3m4!1s0x31cc4dc576ae3d3d:0x62314c3ad0d53e64!8m2!3d3.0713431!4d101.5384553?hl=en",https://www.pizzahut.com.my/
"Lot G18, G19,G24 & G25 Ground Floor Giant Hypermarket Bandar Kinrara, Lot 449, J, 47100 Puchong, Selangor, Malaysia",Pizza restaurant,2.19E+18,Puchong,Floor G · Giant Hypermarket Bandar Kinrara,3.0490896,101.6469287,"Lot G18, G19,G24 & G25 Ground Floor Giant Hypermarket Bandar Kinrara, Lot 449, J",,,+60 1-300-88-2525,47100,60,"https://www.google.com/maps/search/Pizza+Hut+in+Kuala+Lumpur,+Federal+Territory+of+Kuala+Lumpur/@3.1412733,101.6235503,12z?hl=en",Selangor,"Lot G18, G19,G24 & G25 Ground Floor Giant Hypermarket Bandar Kinrara, Lot 449, J",Pizza Hut GIANT KINRARA,2.9,"https://www.google.com/maps/place/Pizza+Hut+GIANT+KINRARA/@3.0490896,101.64474,17z/data=!3m1!4b1!4m5!3m4!1s0x31cc4b3c68bd0b9f:0x1e63c31a484578ff!8m2!3d3.0490896!4d101.6469287?hl=en",https://www.pizzahut.com.my/
"Unit C, Da Men, 03-27, Persiaran Kewajipan, Usj 1, 47600 Subang Jaya, Selangor, Malaysia",Pizza restaurant,7.78E+18,Subang Jaya,Da Men Mall,3.0583627,101.5938069,"Unit C, Da Men, 03-27, Persiaran Kewajipan",,,+60 16-696 0521,47600,87,"https://www.google.com/maps/search/Pizza+Hut+in+Kuala+Lumpur,+Federal+Territory+of+Kuala+Lumpur/@3.1412733,101.6235503,12z?hl=en",Selangor,"Unit C, Da Men, 03-27, Persiaran Kewajipan",Pizza Hut @ Da Men Mall USJ,3.1,"https://www.google.com/maps/place/Pizza+Hut+@+Da+Men+Mall+USJ/@3.0583627,101.5916182,17z/data=!3m1!4b1!4m5!3m4!1s0x31cc4d898e43b4f1:0x6bea2ea0dccc7929!8m2!3d3.0583627!4d101.5938069?hl=en",
"1 Utama Shopping Centre, No. 223 Promenade LG, Lebuh Bandar City, 1, Lebuh Bandar Utama, 47800 Petaling Jaya, Selangor, Malaysia",Pizza restaurant,4.85E+18,Petaling Jaya,1 Utama Shopping Centre,3.1486604,101.6167555,"1 Utama Shopping Centre, No. 223 Promenade LG, Lebuh Bandar City, 1, Lebuh Bandar Utama",,,+60 1-300-88-2525,47800,59,"https://www.google.com/maps/search/Pizza+Hut+in+Kuala+Lumpur,+Federal+Territory+of+Kuala+Lumpur/@3.1412733,101.6235503,12z?hl=en",Selangor,"1 Utama Shopping Centre, No. 223 Promenade LG, Lebuh Bandar City, 1, Lebuh Bandar Utama",Pizza Hut 1 UTAMA,3,"https://www.google.com/maps/place/Pizza+Hut+1+UTAMA/@3.1486604,101.6145668,17z/data=!3m1!4b1!4m5!3m4!1s0x31cc4fbd4dbc1cfd:0x4340892954221871!8m2!3d3.1486604!4d101.6167555?hl=en",https://www.pizzahut.com.my/
"Ground Floor, The Curve, Lot No G C39, No 6, Jalan PJU 7/3, Mutiara Damansara, 47810 Petaling Jaya, Selangor, Malaysia",Pizza restaurant,7.98E+18,Petaling Jaya,Floor G · The Curve,3.1568428,101.6104983,"Ground Floor, The Curve, Lot No G C39, No 6, Jalan PJU 7/3",,,+60 1-300-88-2525,47810,58,"https://www.google.com/maps/search/Pizza+Hut+in+Kuala+Lumpur,+Federal+Territory+of+Kuala+Lumpur/@3.1412733,101.6235503,12z?hl=en",Selangor,"Ground Floor, The Curve, Lot No G C39, No 6, Jalan PJU 7/3",Pizza Hut THE CURVE,3.4,"https://www.google.com/maps/place/Pizza+Hut+THE+CURVE/@3.1568428,101.6083096,17z/data=!3m1!4b1!4m5!3m4!1s0x31cc4f2be354ea51:0x6eadf5a321603aef!8m2!3d3.1568428!4d101.6104983?hl=en",https://www.pizzahut.com.my/
"Lot 2, Jalan 20/1, Seksyen 20, 40300 Shah Alam, Selangor, Malaysia",Pizza restaurant,7.74E+18,Shah Alam,,3.056414,101.5418645,"Lot 2, Jalan 20/1",,,+60 3-5542 5130,40300,86,"https://www.google.com/maps/search/Pizza+Hut+in+Kuala+Lumpur,+Federal+Territory+of+Kuala+Lumpur/@3.1412733,101.6235503,12z?hl=en",Selangor,"Lot 2, Jalan 20/1",Pizza Hut Seksyen 20,3.8,"https://www.google.com/maps/place/Pizza+Hut+Seksyen+20/@3.056414,101.5396758,17z/data=!3m1!4b1!4m5!3m4!1s0x31cc4d6989b6702f:0x6b5e67cae9d957db!8m2!3d3.056414!4d101.5418645?hl=en",https://www.pizzahut.com.my/en/home
"Level 7, Tower 1, Vsquare @ PJ City Centre, Jalan Utara PJS 52 46200 Petaling Jaya Selangor MY, Jln Utara, Petaling Jaya, Selangor, Malaysia",Pizza restaurant,1.36E+17,Petaling Jaya,Floor 7 · Hisniaga Sdn Bhd,3.1073402,101.640184,"Level 7, Tower 1, Vsquare @ PJ City Centre, Jalan Utara PJS 52 46200 Petaling Jaya Selangor MY, Jln Utara",,,+60 1-300-88-2525,,57,"https://www.google.com/maps/search/Pizza+Hut+in+Kuala+Lumpur,+Federal+Territory+of+Kuala+Lumpur/@3.1412733,101.6235503,12z?hl=en",Selangor,"Level 7, Tower 1, Vsquare @ PJ City Centre, Jalan Utara PJS 52 46200 Petaling Jaya Selangor MY, Jln Utara",Pizza Hut Restaurants Sdn Bhd,2.9,"https://www.google.com/maps/place/Pizza+Hut+Restaurants+Sdn+Bhd/@3.1073402,101.6379953,17z/data=!3m1!4b1!4m5!3m4!1s0x31cc4bbce381c6e7:0x1e3fd8375237e82!8m2!3d3.1073402!4d101.640184?hl=en",https://www.pizzahut.com.my/
"Paradigm Mall, Level 2, Lot 2F-15, No.1, Jalan SS 7/26a, Ss 3, 47301 Petaling Jaya, Selangor, Malaysia",Pizza restaurant,6.62E+18,Petaling Jaya,Floor 2 · Paradigm Mall,3.1054798,101.5962289,"Paradigm Mall, Level 2, Lot 2F-15, No.1, Jalan SS 7/26a",,,+60 1-300-88-2525,47301,85,"https://www.google.com/maps/search/Pizza+Hut+in+Kuala+Lumpur,+Federal+Territory+of+Kuala+Lumpur/@3.1412733,101.6235503,12z?hl=en",Selangor,"Paradigm Mall, Level 2, Lot 2F-15, No.1, Jalan SS 7/26a",Pizza Hut PARADIGM MALL,2.9,"https://www.google.com/maps/place/Pizza+Hut+PARADIGM+MALL/@3.1054798,101.5940402,17z/data=!3m1!4b1!4m5!3m4!1s0x31cc4c19b397f8c5:0x5bd69d8ed4f6d615!8m2!3d3.1054798!4d101.5962289?hl=en",https://www.pizzahut.com.my/
"No. 33, Jalan Sb Indah 1/2a, Taman Sungai Besi Indah, 43300 Seri Kembangan, Selangor, Malaysia",Pizza restaurant,1.33E+18,Seri Kembangan,,3.027103,101.7246523,"No. 33, Jalan Sb Indah 1/2a",,,+60 1-300-88-2525,43300,56,"https://www.google.com/maps/search/Pizza+Hut+in+Kuala+Lumpur,+Federal+Territory+of+Kuala+Lumpur/@3.1412733,101.6235503,12z?hl=en",Selangor,"No. 33, Jalan Sb Indah 1/2a",Pizza Hut Delivery (PHD) BALAKONG,3.9,"https://www.google.com/maps/place/Pizza+Hut+Delivery+(PHD)+BALAKONG/@3.027103,101.7224636,17z/data=!3m1!4b1!4m5!3m4!1s0x31cdcab6b84bbfff:0x1278185e12483744!8m2!3d3.0271084!4d101.7246527?hl=en",https://www.pizzahut.com.my/?utm_source=googlemybusiness&utm_medium=organic&utm_campaign=phd&utm_content=websitelink
"No 21 & 23, Jalan Anggerik Vanilla, Kota Kemuning, 40000 Shah Alam, Selangor, Malaysia",Pizza restaurant,1.80E+19,Shah Alam,,3.0048861,101.5347753,"No 21 & 23, Jalan Anggerik Vanilla",,,+60 1-300-88-2525,40000,84,"https://www.google.com/maps/search/Pizza+Hut+in+Kuala+Lumpur,+Federal+Territory+of+Kuala+Lumpur/@3.1412733,101.6235503,12z?hl=en",Selangor,"No 21 & 23, Jalan Anggerik Vanilla",Pizza Hut KOTA KEMUNING (Curbside Pickup Available),3.7,"https://www.google.com/maps/place/Pizza+Hut+KOTA+KEMUNING+(Curbside+Pickup+Available)/@3.0048861,101.5325866,17z/data=!3m1!4b1!4m5!3m4!1s0x31cdb32e9b4c4bdd:0xfa48b82711a0185e!8m2!3d3.004879!4d101.5347779?hl=en",https://www.pizzahut.com.my/
"Ground Floor, No.10, 2/12, Jalan Wawasan Ampang, Bandar Baru Ampang, 68000 Ampang, Selangor, Malaysia",Pizza restaurant,1.79E+19,Ampang Jaya,,3.146499,101.7661,"Ground Floor, No.10, 2/12, Jalan Wawasan Ampang",,,+60 1-300-88-2525,68000,83,"https://www.google.com/maps/search/Pizza+Hut+in+Kuala+Lumpur,+Federal+Territory+of+Kuala+Lumpur/@3.1412733,101.6235503,12z?hl=en",Selangor,"Ground Floor, No.10, 2/12, Jalan Wawasan Ampang",Pizza Hut Delivery (PHD) BANDAR BARU AMPANG,4,"https://www.google.com/maps/place/Pizza+Hut+Delivery+(PHD)+BANDAR+BARU+AMPANG/@3.146499,101.7639113,17z/data=!3m1!4b1!4m5!3m4!1s0x31cc37a759988265:0xf8e28aa8c386bdd4!8m2!3d3.146499!4d101.7661?hl=en",https://www.pizzahut.com.my/?utm_source=googlemybusiness&utm_medium=organic&utm_campaign=phd&utm_content=websitelink
"20, Jalan 2/12, Baru Selayang, 68100 Batu Caves, Selangor, Malaysia",Pizza restaurant,9.74E+18,Batu Caves,,3.2568408,101.6577171,"20, Jalan 2/12",,,+60 1-300-88-2525,68100,55,"https://www.google.com/maps/search/Pizza+Hut+in+Kuala+Lumpur,+Federal+Territory+of+Kuala+Lumpur/@3.1412733,101.6235503,12z?hl=en",Selangor,"20, Jalan 2/12",Pizza Hut Delivery (PHD) SELAYANG,4.4,"https://www.google.com/maps/place/Pizza+Hut+Delivery+(PHD)+SELAYANG/@3.2568408,101.6555284,17z/data=!3m1!4b1!4m5!3m4!1s0x31cc46d93ca4015f:0x872a441ea8fbf68c!8m2!3d3.2568515!4d101.6577345?hl=en",https://www.pizzahut.com.my/?utm_source=googlemybusiness&utm_medium=organic&utm_campaign=phd&utm_content=websitelink
"Jalan Prima 10, Taman Kepong, 52100 Kuala Lumpur, Wilayah Persekutuan Kuala Lumpur, Malaysia",Pizza restaurant,2.77E+18,Kuala Lumpur,,3.213105,101.6438673,Jalan Prima 10,,,+60 12-233 0333,52100,54,"https://www.google.com/maps/search/Pizza+Hut+in+Kuala+Lumpur,+Federal+Territory+of+Kuala+Lumpur/@3.1412733,101.6235503,12z?hl=en",Federal Territory of Kuala Lumpur,Jalan Prima 10,Pizza Hut Kepong,3.6,"https://www.google.com/maps/place/Pizza+Hut+Kepong/@3.213105,101.6416786,17z/data=!3m1!4b1!4m5!3m4!1s0x31cc4640cfede153:0x2678be1693506a14!8m2!3d3.2130909!4d101.6439026?hl=en",http://www.pizzahut.com.my/
"Ground Floor, Vista Shop, No. Q – 006, Jalan PJU 10/2b, Damansara Damai, 47830 Petaling Jaya, Selangor, Malaysia",Pizza restaurant,1.54E+18,Petaling Jaya,,3.1951201,101.5932401,"Ground Floor, Vista Shop, No. Q – 006, Jalan PJU 10/2b",,,+60 1-300-88-2525,47830,53,"https://www.google.com/maps/search/Pizza+Hut+in+Kuala+Lumpur,+Federal+Territory+of+Kuala+Lumpur/@3.1412733,101.6235503,12z?hl=en",Selangor,"Ground Floor, Vista Shop, No. Q – 006, Jalan PJU 10/2b",Pizza Hut Delivery (PHD) DAMANSARA DAMAI,3.8,"https://www.google.com/maps/place/Pizza+Hut+Delivery+(PHD)+DAMANSARA+DAMAI/@3.1951201,101.5910514,17z/data=!3m1!4b1!4m5!3m4!1s0x31cc45f4d27f8c87:0x1554ed287c0bd780!8m2!3d3.1951201!4d101.5932401?hl=en",https://www.pizzahut.com.my/?utm_source=googlemybusiness&utm_medium=organic&utm_campaign=phd&utm_content=websitelink
"Lot G 39 Ground Floor IOI Mall, Off, Jalan Puchong, Bandar Puchong Jaya, 47100 Puchong, Selangor, Malaysia",Pizza restaurant,1.27E+19,Puchong,Floor G · IOI Mall Puchong,3.0446064,101.6185013,"Lot G 39 Ground Floor IOI Mall, Off, Jalan Puchong",,,+60 1-300-88-2525,47100,82,"https://www.google.com/maps/search/Pizza+Hut+in+Kuala+Lumpur,+Federal+Territory+of+Kuala+Lumpur/@3.1412733,101.6235503,12z?hl=en",Selangor,"Lot G 39 Ground Floor IOI Mall, Off, Jalan Puchong",Pizza Hut IOI MALL,5,"https://www.google.com/maps/place/Pizza+Hut+IOI+MALL/@3.0446064,101.6163126,17z/data=!3m1!4b1!4m5!3m4!1s0x31cc4bdc9dd45ecd:0xb0376e4932d4b621!8m2!3d3.0446064!4d101.6185013?hl=en",https://www.pizzahut.com.my/
"Tesco, Lot 8, Dataran Pandan Prima, 68100 Ampang Jaya, Selangor, Malaysia",Pizza restaurant,3.21E+17,Ampang Jaya,Lotus's Ampang,3.1439713,101.742291,"Tesco, Lot 8",,,+60 1-300-88-2525,68100,52,"https://www.google.com/maps/search/Pizza+Hut+in+Kuala+Lumpur,+Federal+Territory+of+Kuala+Lumpur/@3.1412733,101.6235503,12z?hl=en",Selangor,"Tesco, Lot 8",Pizza Hut Lotus's Ampang,3.5,"https://www.google.com/maps/place/Pizza+Hut+Lotus's+Ampang/@3.1439713,101.7401023,17z/data=!3m1!4b1!4m5!3m4!1s0x31cc37822860745d:0x47323b97e46877e!8m2!3d3.1439713!4d101.742291?hl=en",https://www.pizzahut.com.my/
"Lot 1, Shah Alam Extreme Park, Jalan Lompar 13/37, Section 13, 40100 Shah Alam, Selangor, Malaysia",Pizza restaurant,9.67E+18,Shah Alam,,3.0867471,101.5420741,"Lot 1, Shah Alam Extreme Park, Jalan Lompar 13/37, Section 13",,,+60 1-300-88-2525,40100,81,"https://www.google.com/maps/search/Pizza+Hut+in+Kuala+Lumpur,+Federal+Territory+of+Kuala+Lumpur/@3.1412733,101.6235503,12z?hl=en",Selangor,"Lot 1, Shah Alam Extreme Park, Jalan Lompar 13/37, Section 13",Pizza Hut Delivery (PHD) EXTREME PARK,3.9,"https://www.google.com/maps/place/Pizza+Hut+Delivery+(PHD)+EXTREME+PARK/@3.0867471,101.5398854,17z/data=!3m1!4b1!4m5!3m4!1s0x31cc4dc928434f8d:0x86386c1bebda685a!8m2!3d3.0867471!4d101.5420741?hl=en",https://www.pizzahut.com.my/?utm_source=googlemybusiness&utm_medium=organic&utm_campaign=phd&utm_content=websitelink
"22, Jalan Damai Utama 2, Taman Damai Utama, 47180 Puchong, Selangor, Malaysia",Pizza restaurant,1.13E+19,Puchong,,3.0337513,101.6651052,"22, Jalan Damai Utama 2",,,+60 1-300-88-2525,47180,51,"https://www.google.com/maps/search/Pizza+Hut+in+Kuala+Lumpur,+Federal+Territory+of+Kuala+Lumpur/@3.1412733,101.6235503,12z?hl=en",Selangor,"22, Jalan Damai Utama 2",Pizza Hut Delivery (PHD) BANDAR KINRARA (Curbside Pickup Available),3.7,"https://www.google.com/maps/place/Pizza+Hut+Delivery+(PHD)+BANDAR+KINRARA+(Curbside+Pickup+Available)/@3.0337513,101.6629165,17z/data=!3m1!4b1!4m5!3m4!1s0x31cc4bf5a69cd181:0x9d41d9f284fb0b49!8m2!3d3.0337506!4d101.665074?hl=en",https://www.pizzahut.com.my/?utm_source=googlemybusiness&utm_medium=organic&utm_campaign=phd&utm_content=websitelink
"1, Jalan USJ 9/3, Usj 9, 47620 Subang Jaya, Selangor, Malaysia",Pizza restaurant,7.42E+18,Subang Jaya,,3.0438229,101.5832511,"1, Jalan USJ 9/3",,,+60 1-300-88-2525,47620,80,"https://www.google.com/maps/search/Pizza+Hut+in+Kuala+Lumpur,+Federal+Territory+of+Kuala+Lumpur/@3.1412733,101.6235503,12z?hl=en",Selangor,"1, Jalan USJ 9/3",Pizza Hut Delivery (PHD) USJ 9 (Curbside Pickup Available),3.6,"https://www.google.com/maps/place/Pizza+Hut+Delivery+(PHD)+USJ+9+(Curbside+Pickup+Available)/@3.0438229,101.5810624,17z/data=!3m1!4b1!4m5!3m4!1s0x31cc4dff03dd2897:0x6701b4cacaab0af3!8m2!3d3.0438229!4d101.5832511?hl=en",https://www.pizzahut.com.my/?utm_source=googlemybusiness&utm_medium=organic&utm_campaign=phd&utm_content=websitelink
"Lot G-32 & G-33, Radia, Persiaran Tebar Layar, Bukit Jelutong, 40150 Shah Alam, Selangor, Malaysia",Pizza restaurant,8.21E+18,Shah Alam,"Radia Bukit Jelutong, Bukit Jelutong Corner Unit with Pool and Mosque View",3.1020186,101.5360858,"Lot G-32 & G-33, Radia, Persiaran Tebar Layar",,,+60 1-300-88-2525,40150,79,"https://www.google.com/maps/search/Pizza+Hut+in+Kuala+Lumpur,+Federal+Territory+of+Kuala+Lumpur/@3.1412733,101.6235503,12z?hl=en",Selangor,"Lot G-32 & G-33, Radia, Persiaran Tebar Layar",Pizza Hut FCD Bukit Jelutong,3.1,"https://www.google.com/maps/place/Pizza+Hut+FCD+Bukit+Jelutong/@3.1020186,101.5338971,17z/data=!3m1!4b1!4m5!3m4!1s0x31cc4db5613b57bf:0x71f39d7c0c149be4!8m2!3d3.1020186!4d101.5360858?hl=en",https://www.pizzahut.com.my/
"20, Jalan Dwitasik 2, Dataran Dwitasik, 56000 Kuala Lumpur, Wilayah Persekutuan Kuala Lumpur, Malaysia",Restaurant,1.23E+19,Kuala Lumpur,,3.1016546,101.7137628,"20, Jalan Dwitasik 2",,,,56000,78,"https://www.google.com/maps/search/Pizza+Hut+in+Kuala+Lumpur,+Federal+Territory+of+Kuala+Lumpur/@3.1412733,101.6235503,12z?hl=en",Federal Territory of Kuala Lumpur,"20, Jalan Dwitasik 2",Pizzahut Bandar Sri Permaisuri,1,"https://www.google.com/maps/place/Pizzahut+Bandar+Sri+Permaisuri/@3.1016546,101.7115741,17z/data=!3m1!4b1!4m5!3m4!1s0x31cc358f79616f2f:0xaa55c7f03aad124a!8m2!3d3.1016369!4d101.7137519?hl=en",
"Ground Floor, No. 11, Jalan Kenari 22, Bandar Puchong Jaya, 47100 Puchong, Selangor, Malaysia",Pizza restaurant,1.32E+19,Puchong,,3.0431305,101.6218123,"Ground Floor, No. 11, Jalan Kenari 22",,,+60 1-300-88-2525,47100,77,"https://www.google.com/maps/search/Pizza+Hut+in+Kuala+Lumpur,+Federal+Territory+of+Kuala+Lumpur/@3.1412733,101.6235503,12z?hl=en",Selangor,"Ground Floor, No. 11, Jalan Kenari 22",Pizza Hut Delivery (PHD) PUCHONG JAYA,3.6,"https://www.google.com/maps/place/Pizza+Hut+Delivery+(PHD)+PUCHONG+JAYA/@3.0431305,101.6196236,17z/data=!3m1!4b1!4m5!3m4!1s0x31cc4b50b402ce39:0xb741b9280bacfb15!8m2!3d3.0431305!4d101.6218123?hl=en",https://www.pizzahut.com.my/?utm_source=googlemybusiness&utm_medium=organic&utm_campaign=phd&utm_content=websitelink
"12, Jalan PJS 8/2, Mentari Business Park, Bandar Sunway, Petaling Jaya, 46150 Bandar, Selangor, Malaysia",Pizza restaurant,2.07E+18,Bandar,,3.0747975,101.6110441,"12, Jalan PJS 8/2, Mentari Business Park, Bandar Sunway, Petaling Jaya",,,+60 1-300-88-2525,46150,76,"https://www.google.com/maps/search/Pizza+Hut+in+Kuala+Lumpur,+Federal+Territory+of+Kuala+Lumpur/@3.1412733,101.6235503,12z?hl=en",Selangor,"12, Jalan PJS 8/2, Mentari Business Park, Bandar Sunway, Petaling Jaya",Pizza Hut Delivery (PHD) SUNWAY MENTARI (Curbside Pickup Available),3.5,"https://www.google.com/maps/place/Pizza+Hut+Delivery+(PHD)+SUNWAY+MENTARI+(Curbside+Pickup+Available)/@3.0747975,101.6088554,17z/data=!3m1!4b1!4m5!3m4!1s0x31cc4ddabf4aa4a7:0x1cc579297caa8faa!8m2!3d3.0747599!4d101.6110515?hl=en",https://www.pizzahut.com.my/?utm_source=googlemybusiness&utm_medium=organic&utm_campaign=phd&utm_content=websitelink
"Section 6, Jalan Cecawi 6/18, Kota Damansara, 47830 Petaling Jaya, Selangor, Malaysia",Pizza restaurant,1.83E+19,Petaling Jaya,,3.1599943,101.5748291,"Section 6, Jalan Cecawi 6/18",,,+60 1-300-88-2525,47830,75,"https://www.google.com/maps/search/Pizza+Hut+in+Kuala+Lumpur,+Federal+Territory+of+Kuala+Lumpur/@3.1412733,101.6235503,12z?hl=en",Selangor,"Section 6, Jalan Cecawi 6/18",Pizza Hut Kota Damansara (Curbside Pickup Available),4,"https://www.google.com/maps/place/Pizza+Hut+Kota+Damansara+(Curbside+Pickup+Available)/@3.1599943,101.5726404,17z/data=!3m1!4b1!4m5!3m4!1s0x31cc4f8879ba58b1:0xfd5410c0563329cc!8m2!3d3.159986!4d101.5748331?hl=en",https://www.pizzahut.com.my/
"43, Ground & 1st Floor, Jalan SS 15/8a, 47500 Subang Jaya, Selangor, Malaysia",Pizza restaurant,1.71E+19,Subang Jaya,,3.0743088,101.5893936,"43, Ground & 1st Floor, Jalan SS 15/8a",,,+60 1-300-88-2525,47500,74,"https://www.google.com/maps/search/Pizza+Hut+in+Kuala+Lumpur,+Federal+Territory+of+Kuala+Lumpur/@3.1412733,101.6235503,12z?hl=en",Selangor,"43, Ground & 1st Floor, Jalan SS 15/8a",Pizza Hut SS15 SUBANG,3.6,"https://www.google.com/maps/place/Pizza+Hut+SS15+SUBANG/@3.0743088,101.5872049,17z/data=!3m1!4b1!4m5!3m4!1s0x31cc4c5c156d9157:0xed4b99f0aa38a0ef!8m2!3d3.0743088!4d101.5893936?hl=en",https://www.pizzahut.com.my/?utm_source=googlemybusiness&utm_medium=organic&utm_campaign=rbd&utm_content=websitelink
"C-GF 13 & C-GF 14, Le Pavilion, Jalan Puteri 7/13, Bandar Puteri Puchong, 47100 Puchong, Selangor, Malaysia",Pizza restaurant,5.34E+18,Puchong,,3.0220765,101.6241238,"C-GF 13 & C-GF 14, Le Pavilion, Jalan Puteri 7/13",,,,47100,73,"https://www.google.com/maps/search/Pizza+Hut+in+Kuala+Lumpur,+Federal+Territory+of+Kuala+Lumpur/@3.1412733,101.6235503,12z?hl=en",Selangor,"C-GF 13 & C-GF 14, Le Pavilion, Jalan Puteri 7/13",Pizza Hut,3.1,"https://www.google.com/maps/place/Pizza+Hut/@3.0220765,101.6219351,17z/data=!3m1!4b1!4m5!3m4!1s0x31cdb5f6cbee8261:0x4a123f3bc2ab3f86!8m2!3d3.0220765!4d101.6241238?hl=en",https://www.pizzahut.com.my/
"Lot 1, Persiaran Kemuning Prima, Kemuning Utama, 40460 Shah Alam, Selangor, Malaysia",Pizza restaurant,9.25E+18,Shah Alam,,3.0211857,101.5384702,"Lot 1, Persiaran Kemuning Prima",,,+60 1-300-88-2525,40460,72,"https://www.google.com/maps/search/Pizza+Hut+in+Kuala+Lumpur,+Federal+Territory+of+Kuala+Lumpur/@3.1412733,101.6235503,12z?hl=en",Selangor,"Lot 1, Persiaran Kemuning Prima",Pizza Hut BUKIT KEMUNING UTAMA (Curbside Pickup Available),3.9,"https://www.google.com/maps/place/Pizza+Hut+BUKIT+KEMUNING+UTAMA+(Curbside+Pickup+Available)/@3.0211857,101.5362815,17z/data=!3m1!4b1!4m5!3m4!1s0x31cdb2bb70769d77:0x805ca40b5184beca!8m2!3d3.0210915!4d101.538515?hl=en",https://www.pizzahut.com.my/
"5-1, Jalan PJU 8/5c, Damansara Perdana, 47820 Petaling Jaya, Selangor, Malaysia",Pizza restaurant,1.51E+19,Petaling Jaya,,3.1660486,101.6074242,"5-1, Jalan PJU 8/5c",,,+60 1-300-88-2525,47820,71,"https://www.google.com/maps/search/Pizza+Hut+in+Kuala+Lumpur,+Federal+Territory+of+Kuala+Lumpur/@3.1412733,101.6235503,12z?hl=en",Selangor,"5-1, Jalan PJU 8/5c",Pizza Hut Delivery (PHD) DAMANSARA PERDANA,3.5,"https://www.google.com/maps/place/Pizza+Hut+Delivery+(PHD)+DAMANSARA+PERDANA/@3.1660486,101.6052355,17z/data=!3m1!4b1!4m5!3m4!1s0x31cc4fa42accb485:0xd2163001ea40cc1d!8m2!3d3.1660486!4d101.6074242?hl=en",https://www.pizzahut.com.my/?utm_source=googlemybusiness&utm_medium=organic&utm_campaign=phd&utm_content=websitelink
"No. L3 - 60 (A2) Second Floor, The Mines Shopping Fair, Jalan Dulang Mines Resor 43000 Seri Kembangan Selangor MY, Jalan Dulang, Mines Wellness City, 43300 Seri Kembangan, Selangor, Malaysia",Pizza restaurant,9.08E+18,Seri Kembangan,Floor 2 · The Mines Shopping Mall,3.0284807,101.71865,"No. L3 - 60 (A2) Second Floor, The Mines Shopping Fair, Jalan Dulang Mines Resor 43000 Seri Kembangan Selangor MY, Jalan Dulang",,,+60 1-300-88-2525,43300,70,"https://www.google.com/maps/search/Pizza+Hut+in+Kuala+Lumpur,+Federal+Territory+of+Kuala+Lumpur/@3.1412733,101.6235503,12z?hl=en",Selangor,"No. L3 - 60 (A2) Second Floor, The Mines Shopping Fair, Jalan Dulang Mines Resor 43000 Seri Kembangan Selangor MY, Jalan Dulang",Pizza Hut THE MINES,2.6,"https://www.google.com/maps/place/Pizza+Hut+THE+MINES/@3.0284807,101.7164613,17z/data=!3m1!4b1!4m5!3m4!1s0x31cdcbf792f2e96b:0x7e03ef8e81afebf8!8m2!3d3.0284807!4d101.71865?hl=en",https://www.pizzahut.com.my/
"A-G-17, Jalan PJU 1a/20a, Dataran Ara Damansara, 47301 Petaling Jaya, Selangor, Malaysia",Pizza restaurant,1.30E+19,Petaling Jaya,Floor G · Dataran Ara Damansara,3.1199514,101.5798457,"A-G-17, Jalan PJU 1a/20a",,,+60 1-300-88-2525,47301,69,"https://www.google.com/maps/search/Pizza+Hut+in+Kuala+Lumpur,+Federal+Territory+of+Kuala+Lumpur/@3.1412733,101.6235503,12z?hl=en",Selangor,"A-G-17, Jalan PJU 1a/20a",Pizza Hut Delivery (PHD) ARA DAMANSARA,3.8,"https://www.google.com/maps/place/Pizza+Hut+Delivery+(PHD)+ARA+DAMANSARA/@3.1199514,101.577657,17z/data=!3m1!4b1!4m5!3m4!1s0x31cc4e84e935c6d7:0xb4d1c73b67b1e2ed!8m2!3d3.1199514!4d101.5798457?hl=en",https://www.pizzahut.com.my/?utm_source=googlemybusiness&utm_medium=organic&utm_campaign=phd&utm_content=websitelink
"No. F-G, 06, Jalan SS 6/5b, Dataran Glomac, 47301 Kelana Jaya, Selangor, Malaysia",Pizza restaurant,5.31E+18,Kelana Jaya,,3.1038959,101.6000179,"No. F-G, 06, Jalan SS 6/5b",,,+60 1-300-88-2525,47301,68,"https://www.google.com/maps/search/Pizza+Hut+in+Kuala+Lumpur,+Federal+Territory+of+Kuala+Lumpur/@3.1412733,101.6235503,12z?hl=en",Selangor,"No. F-G, 06, Jalan SS 6/5b",Pizza Hut Delivery (PHD) GLOMAC KELANA JAYA,4.1,"https://www.google.com/maps/place/Pizza+Hut+Delivery+(PHD)+GLOMAC+KELANA+JAYA/@3.1038959,101.5978292,17z/data=!3m1!4b1!4m5!3m4!1s0x31cc4c11f5afffff:0x49a0fd717a0a7350!8m2!3d3.1039037!4d101.6001168?hl=en",https://www.pizzahut.com.my/?utm_source=googlemybusiness&utm_medium=organic&utm_campaign=phd&utm_content=websitelink
"Lot G - 03 & Concourse Area Ground Floor No.2, Bandar Baru Sungai Buloh, 47000 Sungai Buloh, Selangor, Malaysia",Pizza restaurant,8.17E+18,Sungai Buloh,Floor G · Kompleks Sungai Buloh,3.2093133,101.5641889,Lot G - 03 & Concourse Area Ground Floor No.2,,,+60 1-300-88-2525,47000,67,"https://www.google.com/maps/search/Pizza+Hut+in+Kuala+Lumpur,+Federal+Territory+of+Kuala+Lumpur/@3.1412733,101.6235503,12z?hl=en",Selangor,Lot G - 03 & Concourse Area Ground Floor No.2,Pizza Hut SG BULOH,3,"https://www.google.com/maps/place/Pizza+Hut+SG+BULOH/@3.2093133,101.5620002,17z/data=!3m1!4b1!4m5!3m4!1s0x31cc45ad62ce31f3:0x715ee93a4c408ddf!8m2!3d3.2093133!4d101.5641889?hl=en",https://www.pizzahut.com.my/
"Unit Nos. LL2.40 Lower level 2, Sunway Pyramid Shopping Mall, Bandar Sunway, 47500 Petaling Jaya, Selangor, Malaysia",Pizza restaurant,1.10E+19,Petaling Jaya,Floor LG2 · Sunway Pyramid,3.0718546,101.6076907,"Unit Nos. LL2.40 Lower level 2, Sunway Pyramid Shopping Mall",,,+60 1-300-88-2525,47500,66,"https://www.google.com/maps/search/Pizza+Hut+in+Kuala+Lumpur,+Federal+Territory+of+Kuala+Lumpur/@3.1412733,101.6235503,12z?hl=en",Selangor,"Unit Nos. LL2.40 Lower level 2, Sunway Pyramid Shopping Mall",Pizza Hut SUNWAY PYRAMID,3.5,"https://www.google.com/maps/place/Pizza+Hut+SUNWAY+PYRAMID/@3.0718546,101.605502,17z/data=!3m1!4b1!4m5!3m4!1s0x31cc4db75bb21389:0x986ab10a9a30c9a9!8m2!3d3.0718546!4d101.6076907?hl=en",https://www.pizzahut.com.my/
"Jalan 52/4, Bandar Baru Petaling Jaya, 46200 Petaling Jaya, Selangor, Malaysia",Pizza restaurant,2.94E+18,Petaling Jaya,,3.0990682,101.6463541,Jalan 52/4,,,+60 1-300-88-2525,46200,65,"https://www.google.com/maps/search/Pizza+Hut+in+Kuala+Lumpur,+Federal+Territory+of+Kuala+Lumpur/@3.1412733,101.6235503,12z?hl=en",Selangor,Jalan 52/4,Pizza Hut @ PJ New Town,3.9,"https://www.google.com/maps/place/Pizza+Hut+@+PJ+New+Town/@3.0990682,101.6441654,17z/data=!3m1!4b1!4m5!3m4!1s0x31cc4bc437c882cf:0x28cf211e8a622d34!8m2!3d3.0990682!4d101.6463541?hl=en",https://www.pizzahut.com.my/
"Ground Floor, 5, Jalan SS 22/19, Damansara Jaya, 47400 Petaling Jaya, Selangor, Malaysia",Pizza restaurant,1.73E+19,Petaling Jaya,,3.128653,101.616555,"Ground Floor, 5, Jalan SS 22/19",,,+60 1-300-88-2525,47400,64,"https://www.google.com/maps/search/Pizza+Hut+in+Kuala+Lumpur,+Federal+Territory+of+Kuala+Lumpur/@3.1412733,101.6235503,12z?hl=en",Selangor,"Ground Floor, 5, Jalan SS 22/19",Pizza Hut Delivery (PHD) DAMANSARA JAYA,3.7,"https://www.google.com/maps/place/Pizza+Hut+Delivery+(PHD)+DAMANSARA+JAYA/@3.128653,101.6143663,17z/data=!3m1!4b1!4m5!3m4!1s0x31cc49fb6c98a625:0xefe512fc63e84bad!8m2!3d3.1286768!4d101.6165142?hl=en",https://www.pizzahut.com.my/?utm_source=googlemybusiness&utm_medium=organic&utm_campaign=phd&utm_content=websitelink
"No.7-1, Ground & First Floors, Jalan PJU 5/6, Dataran Sunway, Kota Damansara, Pe, 47810 Kota Damansara, Selangor, Malaysia",Pizza restaurant,1.81E+19,Kota Damansara,,3.1532435,101.5945904,"No.7-1, Ground & First Floors, Jalan PJU 5/6, Dataran Sunway, Kota Damansara, Pe",,,+60 1-300-88-2525,47810,63,"https://www.google.com/maps/search/Pizza+Hut+in+Kuala+Lumpur,+Federal+Territory+of+Kuala+Lumpur/@3.1412733,101.6235503,12z?hl=en",Selangor,"No.7-1, Ground & First Floors, Jalan PJU 5/6, Dataran Sunway, Kota Damansara, Pe",Pizza Hut Delivery (PHD) DATARAN SUNWAY (Curbside Pickup Available),3.8,"https://www.google.com/maps/place/Pizza+Hut+Delivery+(PHD)+DATARAN+SUNWAY+(Curbside+Pickup+Available)/@3.1532435,101.5924017,17z/data=!3m1!4b1!4m5!3m4!1s0x31cc4f4d2bfc577d:0xfb771cb393f25872!8m2!3d3.1532435!4d101.5945904?hl=en",https://www.pizzahut.com.my/?utm_source=googlemybusiness&utm_medium=organic&utm_campaign=phd&utm_content=websitelink
"No. 3542, Jalan 18/45, Taman Sri Serdang, 43300 Seri Kembangan, Selangor, Malaysia",Pizza restaurant,1.45E+19,Seri Kembangan,,3.0121605,101.7174698,"No. 3542, Jalan 18/45",,,+60 1-300-88-2525,43300,62,"https://www.google.com/maps/search/Pizza+Hut+in+Kuala+Lumpur,+Federal+Territory+of+Kuala+Lumpur/@3.1412733,101.6235503,12z?hl=en",Selangor,"No. 3542, Jalan 18/45",Pizza Hut Delivery (PHD) @ Sri Serdang,4,"https://www.google.com/maps/place/Pizza+Hut+Delivery+(PHD)+@+Sri+Serdang/@3.0121605,101.7152811,17z/data=!3m1!4b1!4m5!3m4!1s0x31cdca983d897915:0xc918651411d94e57!8m2!3d3.0121605!4d101.7174698?hl=en",
"Ground & 1st Floor, No, 4, Jalan 14/14, Seksyen 14, 46100 Petaling Jaya, Selangor, Malaysia",Pizza restaurant,1.46E+17,Petaling Jaya,,3.1096948,101.6368942,"Ground & 1st Floor, No, 4, Jalan 14/14",,,+60 1-300-88-2525,46100,61,"https://www.google.com/maps/search/Pizza+Hut+in+Kuala+Lumpur,+Federal+Territory+of+Kuala+Lumpur/@3.1412733,101.6235503,12z?hl=en",Selangor,"Ground & 1st Floor, No, 4, Jalan 14/14",Pizza Hut SECTION 14 (Curbside Pickup Available),3.4,"https://www.google.com/maps/place/Pizza+Hut+SECTION+14+(Curbside+Pickup+Available)/@3.1096948,101.6347055,17z/data=!3m1!4b1!4m5!3m4!1s0x31cc4bdb53cd141d:0x206a2b44d834b6b!8m2!3d3.1096948!4d101.6368942?hl=en",https://www.pizzahut.com.my/?utm_source=googlemybusiness&utm_medium=organic&utm_campaign=rbd&utm_content=websitelink
"No. 84, Jalan 1/14, Pj Old Town, 46000 Petaling Jaya, Selangor, Malaysia",Pizza restaurant,9.49E+18,Petaling Jaya,,3.0866327,101.6478839,"No. 84, Jalan 1/14",,,+60 1-300-88-2525,46000,50,"https://www.google.com/maps/search/Pizza+Hut+in+Kuala+Lumpur,+Federal+Territory+of+Kuala+Lumpur/@3.1412733,101.6235503,12z?hl=en",Selangor,"No. 84, Jalan 1/14",Pizza Hut Delivery (PHD) PJ OLD TOWN (Curbside Pickup Available),4,"https://www.google.com/maps/place/Pizza+Hut+Delivery+(PHD)+PJ+OLD+TOWN+(Curbside+Pickup+Available)/@3.0866327,101.6456952,17z/data=!3m1!4b1!4m5!3m4!1s0x31cc4bdd7bb38309:0x83a36bb1cb8be8b3!8m2!3d3.0866327!4d101.6478839?hl=en",https://www.pizzahut.com.my/?utm_source=googlemybusiness&utm_medium=organic&utm_campaign=phd&utm_content=websitelink
"Ampang Point Shopping Centre, 52, Jalan Mamanda 3, Taman Dato Ahmad Razali, 68000 Ampang Jaya, Selangor, Malaysia",Pizza restaurant,6.02E+18,Ampang Jaya,,3.1577504,101.7511614,"Ampang Point Shopping Centre, 52, Jalan Mamanda 3",,,+60 1-300-88-2525,68000,49,"https://www.google.com/maps/search/Pizza+Hut+in+Kuala+Lumpur,+Federal+Territory+of+Kuala+Lumpur/@3.1412733,101.6235503,12z?hl=en",Selangor,"Ampang Point Shopping Centre, 52, Jalan Mamanda 3",Pizza Hut Ampang Point,3.7,"https://www.google.com/maps/place/Pizza+Hut+Ampang+Point/@3.1577504,101.7489727,17z/data=!3m1!4b1!4m5!3m4!1s0x31cc37a9d42f0f41:0x5387895734300855!8m2!3d3.1577504!4d101.7511614?hl=en",http://www.pizzahut.com.my/
"No.5, Jalan SU 10, Taman Selayang Utama, 68000 Batu Caves, Selangor, Malaysia",Pizza restaurant,5.23E+18,Batu Caves,,3.237311,101.6436291,"No.5, Jalan SU 10",pizzahut.com.my,https://www.pizzahut.com.my/?utm_source=googlemybusiness&utm_medium=organic&utm_campaign=rr&utm_content=orderlink,+60 1-300-88-2525,68000,48,"https://www.google.com/maps/search/Pizza+Hut+in+Kuala+Lumpur,+Federal+Territory+of+Kuala+Lumpur/@3.1412733,101.6235503,12z?hl=en",Selangor,"No.5, Jalan SU 10",Pizza Hut SELAYANG,3.8,"https://www.google.com/maps/place/Pizza+Hut+SELAYANG/@3.237311,101.6414404,17z/data=!3m1!4b1!4m5!3m4!1s0x31cc4744a6ab2f0d:0x489f0070a7e53f01!8m2!3d3.2372911!4d101.6436512?hl=en",https://www.pizzahut.com.my/
"No 6G, Jalan Suarasa 8/4, Town Park 1 Bandar Tun Hussein Onn, 43200 Cheras, Selangor, Malaysia",Pizza restaurant,3.93E+18,Cheras,,3.0460596,101.7598091,"No 6G, Jalan Suarasa 8/4",,,+60 11-2914 4940,43200,47,"https://www.google.com/maps/search/Pizza+Hut+in+Kuala+Lumpur,+Federal+Territory+of+Kuala+Lumpur/@3.1412733,101.6235503,12z?hl=en",Selangor,"No 6G, Jalan Suarasa 8/4",Pizza Hut Delivery,3.8,"https://www.google.com/maps/place/Pizza+Hut+Delivery/@3.0460596,101.7576204,17z/data=!3m1!4b1!4m5!3m4!1s0x31cc34dbbe55737f:0x3695b0ad21f81577!8m2!3d3.0461085!4d101.759793?hl=en",http://www.pizzahut.com.my/
"Ground Floor, No.73, Jln Memanda 1, Ampang Point, 68000 Selangor, Federal Territory of Kuala Lumpur, Malaysia",Pizza restaurant,1.20E+19,Selangor,,3.1993986,101.7161577,"Ground Floor, No.73, Jln Memanda 1",,,+60 1-300-88-2525,68000,40,"https://www.google.com/maps/search/Pizza+Hut+in+Kuala+Lumpur,+Federal+Territory+of+Kuala+Lumpur/@3.1412733,101.6235503,12z?hl=en",Federal Territory of Kuala Lumpur,"Ground Floor, No.73, Jln Memanda 1",Pizza Hut AMPANG JAYA,,"https://www.google.com/maps/place/Pizza+Hut+AMPANG+JAYA/@3.1993986,101.713969,17z/data=!3m1!4b1!4m5!3m4!1s0x31cc399ea15e25a1:0xa720c73d44856f28!8m2!3d3.1993986!4d101.7161577?hl=en",https://www.pizzahut.com.my/
"Ground & First Floors, No, 51, Jalan Bunga Tanjung 6a, Taman Putra, 68000 Ampang, Selangor, Malaysia",Pizza restaurant,7.33E+18,Ampang Jaya,,3.1210829,101.7607136,"Ground & First Floors, No, 51, Jalan Bunga Tanjung 6a",pizzahut.com.my,https://www.pizzahut.com.my/?utm_source=googlemybusiness&utm_medium=organic&utm_campaign=rr&utm_content=orderlink,+60 1-300-88-2525,68000,46,"https://www.google.com/maps/search/Pizza+Hut+in+Kuala+Lumpur,+Federal+Territory+of+Kuala+Lumpur/@3.1412733,101.6235503,12z?hl=en",Selangor,"Ground & First Floors, No, 51, Jalan Bunga Tanjung 6a",Pizza Hut TAMAN PUTRA (Curbside Pickup Available),3.8,"https://www.google.com/maps/place/Pizza+Hut+TAMAN+PUTRA+(Curbside+Pickup+Available)/@3.1210829,101.7585249,17z/data=!3m1!4b1!4m5!3m4!1s0x31cc3685802f4bc3:0x65bdcb5048d18d6b!8m2!3d3.1210829!4d101.7607136?hl=en",https://www.pizzahut.com.my/
"D.0G.02A , Block D, Plaza, Jalan Kiara, Mont Kiara, 50480 Kuala Lumpur, Federal Territory of Kuala Lumpur, Malaysia",Pizza restaurant,7.16E+18,Kuala Lumpur,Plaza Mont Kiara,3.1658567,101.6522107,"D.0G.02A , Block D, Plaza, Jalan Kiara",,,+60 11-5925 2521,50480,39,"https://www.google.com/maps/search/Pizza+Hut+in+Kuala+Lumpur,+Federal+Territory+of+Kuala+Lumpur/@3.1412733,101.6235503,12z?hl=en",Federal Territory of Kuala Lumpur,"D.0G.02A , Block D, Plaza, Jalan Kiara",Pizza Hut SB PLAZA MONT KIARA,1,"https://www.google.com/maps/place/Pizza+Hut+SB+PLAZA+MONT+KIARA/@3.1658567,101.650022,17z/data=!3m1!4b1!4m5!3m4!1s0x31cc49b1723a6445:0x6356f05f2a7eb3dc!8m2!3d3.1658567!4d101.6522107?hl=en",https://www.pizzahut.com.my/
"Lot L3-29, Melawati Mall, Taman Melawati, 53100 Kuala Lumpur, Malaysia",Pizza restaurant,8.22E+18,Kuala Lumpur,,3.2114241,101.7488651,"Lot L3-29, Melawati Mall",pizzahut.com.my,https://www.pizzahut.com.my/?utm_source=googlemybusiness&utm_medium=organic&utm_campaign=rr&utm_content=orderlink,+60 1-300-88-2525,53100,45,"https://www.google.com/maps/search/Pizza+Hut+in+Kuala+Lumpur,+Federal+Territory+of+Kuala+Lumpur/@3.1412733,101.6235503,12z?hl=en",Kuala Lumpur,"Lot L3-29, Melawati Mall",Pizza Hut MELAWATI MALL,1,"https://www.google.com/maps/place/Pizza+Hut+MELAWATI+MALL/@3.2114241,101.7466764,17z/data=!3m1!4b1!4m5!3m4!1s0x31cc3995d9cb282b:0x720f29ada4d48e5d!8m2!3d3.2114241!4d101.7488651?hl=en",https://www.pizzahut.com.my/?utm_source=googlemybusiness&utm_medium=organic&utm_campaign=rr&utm_content=websitelink
"5, Jalan Tanjung SD 13/1, Bandar Sri Damansara, 52200 Kuala Lumpur, Selangor, Malaysia",Pizza restaurant,1.35E+19,Kuala Lumpur,,3.1889132,101.6052789,"5, Jalan Tanjung SD 13/1",pizzahut.com.my,https://www.pizzahut.com.my/?utm_source=googlemybusiness&utm_medium=organic&utm_campaign=rr&utm_content=orderlink,+60 1-300-88-2525,52200,38,"https://www.google.com/maps/search/Pizza+Hut+in+Kuala+Lumpur,+Federal+Territory+of+Kuala+Lumpur/@3.1412733,101.6235503,12z?hl=en",Selangor,"5, Jalan Tanjung SD 13/1",Pizza Hut - Bandar Sri Damansara,3.7,"https://www.google.com/maps/place/Pizza+Hut+-+Bandar+Sri+Damansara/@3.1889132,101.6030902,17z/data=!3m1!4b1!4m5!3m4!1s0x31cc4f246873d241:0xbac3a849473c6cd9!8m2!3d3.1889136!4d101.6052813?hl=en",https://www.pizzahut.com.my/
"1001, Jln Sultan Ismail, Chow Kit, 50250 Kuala Lumpur, Wilayah Persekutuan Kuala Lumpur, Malaysia",Restaurant,5.28E+18,Kuala Lumpur,,3.1595641,101.6964152,"1001, Jln Sultan Ismail",,,+60 3-2772 8500,50250,37,"https://www.google.com/maps/search/Pizza+Hut+in+Kuala+Lumpur,+Federal+Territory+of+Kuala+Lumpur/@3.1412733,101.6235503,12z?hl=en",Federal Territory of Kuala Lumpur,"1001, Jln Sultan Ismail",Pizza Hut,3.2,"https://www.google.com/maps/place/Pizza+Hut/@3.1595641,101.6942265,17z/data=!3m1!4b1!4m5!3m4!1s0x31cc37d56d07498b:0x493a5e97e32171f2!8m2!3d3.1595641!4d101.6964152?hl=en",http://www.pizzahut.com.my/
"48, Jalan Medan Putra 3, Medan Putra Bussiness Centre, Bandar Menjalara, 52200 Kuala Lumpur, Malaysia",Pizza restaurant,8.48E+17,Kuala Lumpur,,3.191951,101.6252575,"48, Jalan Medan Putra 3, Medan Putra Bussiness Centre",pizzahut.com.my,https://www.pizzahut.com.my/?utm_source=google&utm_medium=organic&utm_campaign=googlemybusiness&utm_content=orderlinkphd,+60 1-300-88-2525,52200,36,"https://www.google.com/maps/search/Pizza+Hut+in+Kuala+Lumpur,+Federal+Territory+of+Kuala+Lumpur/@3.1412733,101.6235503,12z?hl=en",Federal Territory of Kuala Lumpur,"48, Jalan Medan Putra 3, Medan Putra Bussiness Centre",Pizza Hut Delivery (PHD) MANJALARA (Curbside Pickup Available),3.3,"https://www.google.com/maps/place/Pizza+Hut+Delivery+(PHD)+MANJALARA+(Curbside+Pickup+Available)/@3.191951,101.6230688,17z/data=!3m1!4b1!4m5!3m4!1s0x31cc476f416fd835:0xbc39666a250d229!8m2!3d3.191951!4d101.6252575?hl=en",https://www.pizzahut.com.my/?utm_source=googlemybusiness&utm_medium=organic&utm_campaign=phd&utm_content=websitelink
"53a, Jalan Prima SG 3/1, Prima Seri Gombak, 68100 Batu Caves, Selangor, Malaysia",Pizza restaurant,3.26E+18,Batu Caves,,3.2387913,101.7006946,"53a, Jalan Prima SG 3/1",pizzahut.com.my,https://www.pizzahut.com.my/?utm_source=googlemybusiness&utm_medium=organic&utm_campaign=fcd&utm_content=orderlink,+60 1-300-88-2525,68100,44,"https://www.google.com/maps/search/Pizza+Hut+in+Kuala+Lumpur,+Federal+Territory+of+Kuala+Lumpur/@3.1412733,101.6235503,12z?hl=en",Selangor,"53a, Jalan Prima SG 3/1",Pizza Hut Sri Gombak,3.8,"https://www.google.com/maps/place/Pizza+Hut+Sri+Gombak/@3.2387913,101.6985059,17z/data=!3m1!4b1!4m5!3m4!1s0x31cc477b46db8515:0x2d47f7951bacd7e1!8m2!3d3.2387913!4d101.7006946?hl=en",https://www.pizzahut.com.my/?utm_source=googlemybusiness&utm_medium=organic&utm_campaign=fcd&utm_content=websitelink
"No. 9, Ampang Putra Residency, Taman, Jalan Sulaiman 3, Taman Putra Sulaiman, 68000, Selangor, Malaysia",Pizza restaurant,1.17E+19,Ampang Jaya,,3.1504258,101.7510536,"No. 9, Ampang Putra Residency, Taman, Jalan Sulaiman 3",pizzahut.com.my,https://www.pizzahut.com.my/?utm_source=google&utm_medium=organic&utm_campaign=googlemybusiness&utm_content=orderlinkphd,+60 1-300-88-2525,68000,43,"https://www.google.com/maps/search/Pizza+Hut+in+Kuala+Lumpur,+Federal+Territory+of+Kuala+Lumpur/@3.1412733,101.6235503,12z?hl=en",Selangor,"No. 9, Ampang Putra Residency, Taman, Jalan Sulaiman 3",Pizza Hut Delivery (PHD) TAMAN PUTRA SULAIMAN (Curbside Pickup Available),3.9,"https://www.google.com/maps/place/Pizza+Hut+Delivery+(PHD)+TAMAN+PUTRA+SULAIMAN+(Curbside+Pickup+Available)/@3.1504258,101.7488649,17z/data=!3m1!4b1!4m5!3m4!1s0x31cc365531c5106d:0xa1b9c604040ad172!8m2!3d3.1504258!4d101.7510536?hl=en",https://www.pizzahut.com.my/?utm_source=googlemybusiness&utm_medium=organic&utm_campaign=phd&utm_content=websitelink
"Lot 33G, Jalan Medan Setia 1, Bukit Damansara, 50490 Kuala Lumpur, Wilayah Persekutuan Kuala Lumpur, Malaysia",Pizza restaurant,9.75E+18,Kuala Lumpur,Plaza Damansara,3.1499572,101.6524443,"Lot 33G, Jalan Medan Setia 1",pizzahut.com.my,https://www.pizzahut.com.my/?utm_source=google&utm_medium=organic&utm_campaign=googlemybusiness&utm_content=orderlinkphd,+60 1-300-88-2525,50490,35,"https://www.google.com/maps/search/Pizza+Hut+in+Kuala+Lumpur,+Federal+Territory+of+Kuala+Lumpur/@3.1412733,101.6235503,12z?hl=en",Federal Territory of Kuala Lumpur,"Lot 33G, Jalan Medan Setia 1",Pizza Hut Delivery (PHD) DAMANSARA HEIGHT (Curbside Pickup Available),4,"https://www.google.com/maps/place/Pizza+Hut+Delivery+(PHD)+DAMANSARA+HEIGHT+(Curbside+Pickup+Available)/@3.1499572,101.6502556,17z/data=!3m1!4b1!4m5!3m4!1s0x31cc498acbe17657:0x8759ade9c7a08fda!8m2!3d3.1499567!4d101.6524447?hl=en",https://www.pizzahut.com.my/?utm_source=googlemybusiness&utm_medium=organic&utm_campaign=phd&utm_content=websitelink
"Lot 1 . 100 . 00 , 1 . 101 . 00 & S1 . 101 . 00, 168, Bukit Bintang St, Bukit Bintang, 55100 Kuala Lumpur, Federal Territory of Kuala Lumpur, Malaysia",Pizza restaurant,8.29E+18,Kuala Lumpur,Floor 1 · Pavilion Kuala Lumpur,3.1487664,101.7125935,"Lot 1 . 100 . 00 , 1 . 101 . 00 & S1 . 101 . 00, 168, Bukit Bintang St",,,+60 3-2141 6715,55100,42,"https://www.google.com/maps/search/Pizza+Hut+in+Kuala+Lumpur,+Federal+Territory+of+Kuala+Lumpur/@3.1412733,101.6235503,12z?hl=en",Federal Territory of Kuala Lumpur,"Lot 1 . 100 . 00 , 1 . 101 . 00 & S1 . 101 . 00, 168, Bukit Bintang St",Pizza Hut Pavilion,3.6,"https://www.google.com/maps/place/Pizza+Hut+Pavilion/@3.1487664,101.7104048,17z/data=!3m1!4b1!4m5!3m4!1s0x31cc362c7af28b6d:0x7316c163e4d52678!8m2!3d3.1487664!4d101.7125935?hl=en",http://www.pizzahut.com.my/
"No. 34, Ground Floor, 2, Jalan Pandan 3, Pandan Jaya, 55100 Kuala Lumpur, Selangor, Malaysia",Pizza restaurant,1.32E+19,Kuala Lumpur,,3.1352097,101.7411161,"No. 34, Ground Floor, 2, Jalan Pandan 3",pizzahut.com.my,https://www.pizzahut.com.my/?utm_source=google&utm_medium=organic&utm_campaign=googlemybusiness&utm_content=orderlinkphd,+60 1-300-88-2525,55100,34,"https://www.google.com/maps/search/Pizza+Hut+in+Kuala+Lumpur,+Federal+Territory+of+Kuala+Lumpur/@3.1412733,101.6235503,12z?hl=en",Selangor,"No. 34, Ground Floor, 2, Jalan Pandan 3",Pizza Hut Delivery (PHD) PANDAN JAYA,4,"https://www.google.com/maps/place/Pizza+Hut+Delivery+(PHD)+PANDAN+JAYA/@3.1352097,101.7389274,17z/data=!3m1!4b1!4m5!3m4!1s0x31cc378463525ecd:0xb7c9f285e8cf7d1a!8m2!3d3.1351975!4d101.7410864?hl=en",https://www.pizzahut.com.my/?utm_source=googlemybusiness&utm_medium=organic&utm_campaign=phd&utm_content=websitelink
"Lot No 22, Basement 1, 90, Jalan Cochrane, Maluri, 55100 Cheras, Wilayah Persekutuan Kuala Lumpur, Malaysia",Pizza restaurant,1.48E+19,Cheras,MyTOWN Shopping Centre,3.1331131,101.7243683,"Lot No 22, Basement 1, 90, Jalan Cochrane",pizzahut.com.my,https://www.pizzahut.com.my/?utm_source=googlemybusiness&utm_medium=organic&utm_campaign=rr&utm_content=orderlink,+60 3-9201 3518,55100,33,"https://www.google.com/maps/search/Pizza+Hut+in+Kuala+Lumpur,+Federal+Territory+of+Kuala+Lumpur/@3.1412733,101.6235503,12z?hl=en",Federal Territory of Kuala Lumpur,"Lot No 22, Basement 1, 90, Jalan Cochrane",Pizza Hut MYTOWN,2.9,"https://www.google.com/maps/place/Pizza+Hut+MYTOWN/@3.1331131,101.7221796,17z/data=!3m1!4b1!4m5!3m4!1s0x31cc370e414f9c51:0xcdd3983800d1cacb!8m2!3d3.1331131!4d101.7243683?hl=en",https://www.pizzahut.com.my/?utm_source=googlemybusiness&utm_medium=organic&utm_campaign=rr&utm_content=websitelink
"Ground Floor, Aeon Au2 Shopping Centre, Lot No G55, No: 6, Jalan Taman Setiawan, Wilayah Persekutuan, 54200 Kuala Lumpur, Wilayah Persekutuan Kuala Lumpur, Malaysia",Pizza restaurant,5.54E+18,Kuala Lumpur,Floor G · AEON AU2 Setiawangsa,3.177103,101.7507567,"Ground Floor, Aeon Au2 Shopping Centre, Lot No G55, No: 6, Jalan Taman Setiawan",pizzahut.com.my,https://www.pizzahut.com.my/?utm_source=googlemybusiness&utm_medium=organic&utm_campaign=rr&utm_content=orderlink,+60 1-300-88-2525,54200,41,"https://www.google.com/maps/search/Pizza+Hut+in+Kuala+Lumpur,+Federal+Territory+of+Kuala+Lumpur/@3.1412733,101.6235503,12z?hl=en",Federal Territory of Kuala Lumpur,"Ground Floor, Aeon Au2 Shopping Centre, Lot No G55, No: 6, Jalan Taman Setiawan",Pizza Hut AEON AU2,3.4,"https://www.google.com/maps/place/Pizza+Hut+AEON+AU2/@3.177103,101.748568,17z/data=!3m1!4b1!4m5!3m4!1s0x31cc37307b3b0191:0x4cecd0f10af02d4c!8m2!3d3.177103!4d101.7507567?hl=en",https://www.pizzahut.com.my/
"Lot : PT 15144 Jalan Kepong Batu 6 1/2, 52100, 52100, Federal Territory of Kuala Lumpur, Malaysia",Pizza restaurant,4.27E+18,Kuala Lumpur,,3.2130712,101.6436621,"Lot : PT 15144 Jalan Kepong Batu 6 1/2, 52100",pizzahut.com.my,https://www.pizzahut.com.my/?utm_source=googlemybusiness&utm_medium=organic&utm_campaign=rr&utm_content=orderlink,+60 1-300-88-2525,52100,32,"https://www.google.com/maps/search/Pizza+Hut+in+Kuala+Lumpur,+Federal+Territory+of+Kuala+Lumpur/@3.1412733,101.6235503,12z?hl=en",Federal Territory of Kuala Lumpur,"Lot : PT 15144 Jalan Kepong Batu 6 1/2, 52100",Pizza Hut Kepong Drive Thru (Curbside Pickup Available),2.3,"https://www.google.com/maps/place/Pizza+Hut+Kepong+Drive+Thru+(Curbside+Pickup+Available)/@3.2130712,101.6414734,17z/data=!3m1!4b1!4m5!3m4!1s0x31cc47c76a64fb7d:0x3b3592dc45c7bdde!8m2!3d3.2131049!4d101.6435776?hl=en",https://www.pizzahut.com.my/
"52, Jalan Jujur, Bandar Tun Razak, 56000 Kuala Lumpur, Wilayah Persekutuan Kuala Lumpur, Malaysia",Pizza restaurant,1.63E+19,Kuala Lumpur,,3.087617,101.7213466,"52, Jalan Jujur",,,+60 1-300-88-2525,56000,31,"https://www.google.com/maps/search/Pizza+Hut+in+Kuala+Lumpur,+Federal+Territory+of+Kuala+Lumpur/@3.1412733,101.6235503,12z?hl=en",Federal Territory of Kuala Lumpur,"52, Jalan Jujur",Pizza Hut,4.1,"https://www.google.com/maps/place/Pizza+Hut/@3.087617,101.7191579,17z/data=!3m1!4b1!4m5!3m4!1s0x31cc35a249f677f1:0xe1fd2c727591cc92!8m2!3d3.0876301!4d101.7213474?hl=en",
"OUG Parklane, parklane, A2 0-15, Ground, Jalan 1/152, Taman OUG, 58200 Kuala Lumpur, Malaysia",Pizza restaurant,1.44E+18,Kuala Lumpur,,3.068922,101.6574083,"OUG Parklane, parklane, A2 0-15, Ground, Jalan 1/152",,,+60 11-6521 2525,58200,30,"https://www.google.com/maps/search/Pizza+Hut+in+Kuala+Lumpur,+Federal+Territory+of+Kuala+Lumpur/@3.1412733,101.6235503,12z?hl=en",Federal Territory of Kuala Lumpur,"OUG Parklane, parklane, A2 0-15, Ground, Jalan 1/152",Pizza Hut OUG PARKLANE,3.5,"https://www.google.com/maps/place/Pizza+Hut+OUG+PARKLANE/@3.068922,101.6552196,17z/data=!3m1!4b1!4m5!3m4!1s0x31cc4bd95e3f1efd:0x140cb4b96f686604!8m2!3d3.068922!4d101.6574083?hl=en",https://www.pizzahut.com.my/?utm_source=googlemybusiness&utm_medium=organic&utm_campaign=fcd&utm_content=websitelink
"G-07 SKY AWANI BUSINESS COMMERCIAL JALAN SENTUL PERDANA ,5100, Federal Territory of Kuala Lumpur, Malaysia",Pizza restaurant,8.71E+18,Kuala Lumpur,,3.2091402,101.6902379,"G-07 SKY AWANI BUSINESS COMMERCIAL JALAN SENTUL PERDANA ,5100",,,+60 3-4031 7839,,29,"https://www.google.com/maps/search/Pizza+Hut+in+Kuala+Lumpur,+Federal+Territory+of+Kuala+Lumpur/@3.1412733,101.6235503,12z?hl=en",Federal Territory of Kuala Lumpur,"G-07 SKY AWANI BUSINESS COMMERCIAL JALAN SENTUL PERDANA ,5100",PIZZA HUT SENTUL PERDANA (SKY AWANI ),4,"https://www.google.com/maps/place/PIZZA+HUT+SENTUL+PERDANA+(SKY+AWANI+)/@3.2091402,101.6880492,17z/data=!3m1!4b1!4m5!3m4!1s0x31cc47c7f679efb5:0x78da35a82e8683cf!8m2!3d3.2091402!4d101.6902379?hl=en",http://www.pizzahut.com.my/
"Lot 14083, Jalan Kuchai Lama, 58200 Kuala Lumpur, Wilayah Persekutuan Kuala Lumpur, Malaysia",Restaurant,1.04E+19,Kuala Lumpur,,3.0923409,101.6859817,"Lot 14083, Jalan Kuchai Lama",,,+60 1-300-88-2525,58200,28,"https://www.google.com/maps/search/Pizza+Hut+in+Kuala+Lumpur,+Federal+Territory+of+Kuala+Lumpur/@3.1412733,101.6235503,12z?hl=en",Federal Territory of Kuala Lumpur,"Lot 14083, Jalan Kuchai Lama",Pizza Hut Kuchai Lama (Curbside Pickup Available),3.5,"https://www.google.com/maps/place/Pizza+Hut+Kuchai+Lama+(Curbside+Pickup+Available)/@3.0923409,101.683793,17z/data=!3m1!4b1!4m5!3m4!1s0x31cc4b8acf032f89:0x8fe9654e598388e3!8m2!3d3.0923409!4d101.6859817?hl=en",https://www.pizzahut.com.my/
"Lot 2-20, Level 2 Quill Mall, Jln Sultan Ismail, 55100 Kuala Lumpur, Wilayah Persekutuan Kuala Lumpur, Malaysia",Pizza restaurant,3.45E+18,Kuala Lumpur,,3.1042922,101.5473335,"Lot 2-20, Level 2 Quill Mall, Jln Sultan Ismail",pizzahut.com.my,https://www.pizzahut.com.my/?utm_source=googlemybusiness&utm_medium=organic&utm_campaign=rr&utm_content=orderlink,+60 1-300-88-2525,55100,27,"https://www.google.com/maps/search/Pizza+Hut+in+Kuala+Lumpur,+Federal+Territory+of+Kuala+Lumpur/@3.1412733,101.6235503,12z?hl=en",Federal Territory of Kuala Lumpur,"Lot 2-20, Level 2 Quill Mall, Jln Sultan Ismail",Pizza Hut QUILL CITY MALL,3.5,"https://www.google.com/maps/place/Pizza+Hut+QUILL+CITY+MALL/@3.1042922,101.5451448,17z/data=!3m1!4b1!4m5!3m4!1s0x31cc4dfddaed7a25:0x2fd1ecd384d6db09!8m2!3d3.1042922!4d101.5473335?hl=en",https://www.pizzahut.com.my/
"The Boulevard Shop Office, No 8, Jalan 14/48a, Sentul Selatan, 51000 Kuala Lumpur, Federal Territory of Kuala Lumpur, Malaysia",Pizza restaurant,1.53E+18,Kuala Lumpur,,3.1854088,101.692077,"The Boulevard Shop Office, No 8, Jalan 14/48a",pizzahut.com.my,https://www.pizzahut.com.my/?utm_source=googlemybusiness&utm_medium=organic&utm_campaign=rbd&utm_content=orderlink,+60 1-300-88-2525,51000,26,"https://www.google.com/maps/search/Pizza+Hut+in+Kuala+Lumpur,+Federal+Territory+of+Kuala+Lumpur/@3.1412733,101.6235503,12z?hl=en",Federal Territory of Kuala Lumpur,"The Boulevard Shop Office, No 8, Jalan 14/48a",Pizza Hut SENTUL RAYA,3.7,"https://www.google.com/maps/place/Pizza+Hut+SENTUL+RAYA/@3.1854088,101.6898883,17z/data=!3m1!4b1!4m5!3m4!1s0x31cc496051d186af:0x153a07bc8e284869!8m2!3d3.1854088!4d101.692077?hl=en",https://www.pizzahut.com.my/?utm_source=googlemybusiness&utm_medium=organic&utm_campaign=rbd&utm_content=websitelink
"20, Jalan Melati Utama 4, Melati Utama, 53100 Kuala Lumpur, Wilayah Persekutuan Kuala Lumpur, Malaysia",Pizza restaurant,1.59E+19,Kuala Lumpur,,3.2242102,101.7298442,"20, Jalan Melati Utama 4",,,+60 1-300-88-2525,53100,25,"https://www.google.com/maps/search/Pizza+Hut+in+Kuala+Lumpur,+Federal+Territory+of+Kuala+Lumpur/@3.1412733,101.6235503,12z?hl=en",Federal Territory of Kuala Lumpur,"20, Jalan Melati Utama 4",Pizza Hut Melati Utama,3.5,"https://www.google.com/maps/place/Pizza+Hut+Melati+Utama/@3.2242102,101.7276555,17z/data=!3m1!4b1!4m5!3m4!1s0x31cc39d0e4f3c395:0xdcfac7fc0b567fae!8m2!3d3.2242102!4d101.7298442?hl=en",http://www.pizzahut.com.my/
"Subway, Avenue K, UC-1 level , infront of, 156, Jln Ampang, Kampung Baru, 50450 Kuala Lumpur, Federal Territory of Kuala Lumpur, Malaysia",Pizza restaurant,1.98E+18,Kuala Lumpur,,3.1591412,101.7138377,"Subway, Avenue K, UC-1 level , infront of, 156, Jln Ampang",,,,50450,24,"https://www.google.com/maps/search/Pizza+Hut+in+Kuala+Lumpur,+Federal+Territory+of+Kuala+Lumpur/@3.1412733,101.6235503,12z?hl=en",Federal Territory of Kuala Lumpur,"Subway, Avenue K, UC-1 level , infront of, 156, Jln Ampang",Pizza Hut,2.2,"https://www.google.com/maps/place/Pizza+Hut/@3.1591412,101.711649,17z/data=!3m1!4b1!4m5!3m4!1s0x31cc37e38b9775a3:0x1b836b4ea3518d6d!8m2!3d3.1591412!4d101.7138377?hl=en",
"Lot 4-91&4-92, 4th Floor Sunway Velocity Mall, Jln Cheras, 56100 Kuala Lumpur, Wilayah Persekutuan Kuala Lumpur, Malaysia",Pizza restaurant,1.26E+19,Kuala Lumpur,Floor 4 · Sunway Velocity Mall,3.1275509,101.7243249,"Lot 4-91&4-92, 4th Floor Sunway Velocity Mall, Jln Cheras",pizzahut.com.my,https://www.pizzahut.com.my/?utm_source=googlemybusiness&utm_medium=organic&utm_campaign=rr&utm_content=orderlink,+60 1-300-88-2525,56100,23,"https://www.google.com/maps/search/Pizza+Hut+in+Kuala+Lumpur,+Federal+Territory+of+Kuala+Lumpur/@3.1412733,101.6235503,12z?hl=en",Federal Territory of Kuala Lumpur,"Lot 4-91&4-92, 4th Floor Sunway Velocity Mall, Jln Cheras",Pizza Hut SUNWAY VELOCITY,4,"https://www.google.com/maps/place/Pizza+Hut+SUNWAY+VELOCITY/@3.1275509,101.7221362,17z/data=!3m1!4b1!4m5!3m4!1s0x31cc3614113ca74b:0xaefd2512307d395e!8m2!3d3.1275509!4d101.7243249?hl=en",https://www.pizzahut.com.my/
"No. 2776, Jalan Changkat Permata, Taman Permata, 53300 Wilayah Persekutuan, Wilayah Persekutuan Kuala Lumpur, Malaysia",Pizza restaurant,1.19E+19,Wilayah Persekutuan,,3.2078621,101.7509448,"No. 2776, Jalan Changkat Permata",,,+60 1-300-88-2525,53300,22,"https://www.google.com/maps/search/Pizza+Hut+in+Kuala+Lumpur,+Federal+Territory+of+Kuala+Lumpur/@3.1412733,101.6235503,12z?hl=en",Federal Territory of Kuala Lumpur,"No. 2776, Jalan Changkat Permata",Pizza Hut - TAMAN PERMATA (Curbside Pickup Available),3.7,"https://www.google.com/maps/place/Pizza+Hut+-+TAMAN+PERMATA+(Curbside+Pickup+Available)/@3.2078621,101.7487561,17z/data=!3m1!4b1!4m5!3m4!1s0x31cc39ccd9baf423:0xa49e29e736eea185!8m2!3d3.2078621!4d101.7509448?hl=en",https://www.pizzahut.com.my/
"No. 18, Jalan Radin Anum, Bandar Baru Sri Petaling, 57000 Kuala Lumpur, Wilayah Persekutuan Kuala Lumpur, Malaysia",Pizza restaurant,1.42E+19,Kuala Lumpur,,3.067298,101.6901529,"No. 18, Jalan Radin Anum",pizzahut.com.my,https://www.pizzahut.com.my/?utm_source=google&utm_medium=organic&utm_campaign=googlemybusiness&utm_content=orderlinkphd,+60 1-300-88-2525,57000,21,"https://www.google.com/maps/search/Pizza+Hut+in+Kuala+Lumpur,+Federal+Territory+of+Kuala+Lumpur/@3.1412733,101.6235503,12z?hl=en",Federal Territory of Kuala Lumpur,"No. 18, Jalan Radin Anum",Pizza Hut Delivery (PHD) SRI PETALING,3.7,"https://www.google.com/maps/place/Pizza+Hut+Delivery+(PHD)+SRI+PETALING/@3.067298,101.6879642,17z/data=!3m1!4b1!4m5!3m4!1s0x31cc4b435a7240e1:0xc4d0a41ee21ba0b9!8m2!3d3.067298!4d101.6901529?hl=en",https://www.pizzahut.com.my/?utm_source=googlemybusiness&utm_medium=organic&utm_campaign=phd&utm_content=websitelink
"T-041 & T-041A, Third Floor Mezzanine Mid Valley Megamall, Lingkaran Syed Putra, Mid Valley City, 59200 Kuala Lumpur, Federal Territory of Kuala Lumpur, Malaysia",Pizza restaurant,6.84E+18,Kuala Lumpur,Floor 31 · Mid Valley Megamall,3.1182461,101.6786285,"T-041 & T-041A, Third Floor Mezzanine Mid Valley Megamall, Lingkaran Syed Putra",pizzahut.com.my,https://www.pizzahut.com.my/?utm_source=googlemybusiness&utm_medium=organic&utm_campaign=rr&utm_content=orderlink,+60 1-300-88-2525,59200,19,"https://www.google.com/maps/search/Pizza+Hut+in+Kuala+Lumpur,+Federal+Territory+of+Kuala+Lumpur/@3.141278,101.6235504,12z?hl=en",Federal Territory of Kuala Lumpur,"T-041 & T-041A, Third Floor Mezzanine Mid Valley Megamall, Lingkaran Syed Putra",Pizza Hut MID VALLEY MEGAMALL,3,"https://www.google.com/maps/place/Pizza+Hut+MID+VALLEY+MEGAMALL/@3.1182461,101.6764398,17z/data=!3m1!4b1!4m5!3m4!1s0x31cc498eb3feafa7:0x5ee04aaaa05c2b0f!8m2!3d3.1182461!4d101.6786285?hl=en",https://www.pizzahut.com.my/?utm_source=googlemybusiness&utm_medium=organic&utm_campaign=rr&utm_content=websitelink
"No 1.100, 1.101 & S1.101, Level 1, Pavilion KL, Bukit Bintang St, 55100 Kuala Lumpur, Federal Territory of Kuala Lumpur, Malaysia",Pizza restaurant,1.60E+18,Kuala Lumpur,Floor 1 · Pavilion Kuala Lumpur,3.1483397,101.7135152,"No 1.100, 1.101 & S1.101, Level 1, Pavilion KL, Bukit Bintang St",pizzahut.com.my,https://www.pizzahut.com.my/?utm_source=googlemybusiness&utm_medium=organic&utm_campaign=rr&utm_content=orderlink,+60 1-300-88-2525,55100,18,"https://www.google.com/maps/search/Pizza+Hut+in+Kuala+Lumpur,+Federal+Territory+of+Kuala+Lumpur/@3.141278,101.6235504,12z?hl=en",Federal Territory of Kuala Lumpur,"No 1.100, 1.101 & S1.101, Level 1, Pavilion KL, Bukit Bintang St",Pizza Hut PAVILION 2,1,"https://www.google.com/maps/place/Pizza+Hut+PAVILION+2/@3.1483397,101.7113265,17z/data=!3m1!4b1!4m5!3m4!1s0x31cc376ee0f35d8b:0x163e48c5a021f576!8m2!3d3.1483397!4d101.7135152?hl=en",https://www.pizzahut.com.my/
"62, Jalan Danau Niaga 1, Taman Danau Kota, 53100 Kuala Lumpur, Wilayah Persekutuan Kuala Lumpur, Malaysia",Pizza restaurant,1.76E+19,Kuala Lumpur,,3.2019648,101.7180005,"62, Jalan Danau Niaga 1",pizzahut.com.my,https://www.pizzahut.com.my/?utm_source=google&utm_medium=organic&utm_campaign=googlemybusiness&utm_content=orderlinkphd,+60 1-300-88-2525,53100,17,"https://www.google.com/maps/search/Pizza+Hut+in+Kuala+Lumpur,+Federal+Territory+of+Kuala+Lumpur/@3.141278,101.6235504,12z?hl=en",Federal Territory of Kuala Lumpur,"62, Jalan Danau Niaga 1",Pizza Hut Delivery (PHD) DANAU KOTA,3.9,"https://www.google.com/maps/place/Pizza+Hut+Delivery+(PHD)+DANAU+KOTA/@3.2019648,101.7158118,17z/data=!3m1!4b1!4m5!3m4!1s0x31cc39e9e3692e91:0xf42b9db39a6174f8!8m2!3d3.2019648!4d101.7180005?hl=en",https://www.pizzahut.com.my/?utm_source=googlemybusiness&utm_medium=organic&utm_campaign=phd&utm_content=websitelink
"183, Jalan Sarjana, Taman Connaught, 56000 Kuala Lumpur, Wilayah Persekutuan Kuala Lumpur, Malaysia",Pizza restaurant,7.92E+18,Kuala Lumpur,,3.0823146,101.7349811,"183, Jalan Sarjana",pizzahut.com.my,https://www.pizzahut.com.my/?utm_source=google&utm_medium=organic&utm_campaign=googlemybusiness&utm_content=orderlinkphd,+60 1-300-88-2525,56000,16,"https://www.google.com/maps/search/Pizza+Hut+in+Kuala+Lumpur,+Federal+Territory+of+Kuala+Lumpur/@3.141278,101.6235504,12z?hl=en",Federal Territory of Kuala Lumpur,"183, Jalan Sarjana",Pizza Hut Delivery (PHD) TMN CONNAUGHT (Curbside Pickup Available),3.7,"https://www.google.com/maps/place/Pizza+Hut+Delivery+(PHD)+TMN+CONNAUGHT+(Curbside+Pickup+Available)/@3.0823146,101.7327924,17z/data=!3m1!4b1!4m5!3m4!1s0x31cc3560a1ce49d3:0x6deb5313605b9cdb!8m2!3d3.0823146!4d101.7349811?hl=en",https://www.pizzahut.com.my/?utm_source=googlemybusiness&utm_medium=organic&utm_campaign=phd&utm_content=websitelink
"Lot PT 6878, `Drive-Thru, Jalan Wangsa Delima 1, Wangsa Maju, 53300 Kuala Lumpur, Federal Territory of Kuala Lumpur, Malaysia",Pizza restaurant,5.05E+18,Kuala Lumpur,KFC AEON BIG WANGSA MAJU,3.1973285,101.7439563,"Lot PT 6878, `Drive-Thru, Jalan Wangsa Delima 1",pizzahut.com.my,https://www.pizzahut.com.my/?utm_source=googlemybusiness&utm_medium=organic&utm_campaign=rr&utm_content=orderlink,+60 1-300-88-2525,53300,15,"https://www.google.com/maps/search/Pizza+Hut+in+Kuala+Lumpur,+Federal+Territory+of+Kuala+Lumpur/@3.141278,101.6235504,12z?hl=en",Federal Territory of Kuala Lumpur,"Lot PT 6878, `Drive-Thru, Jalan Wangsa Delima 1",Pizza Hut Wangsa Maju (Curbside Pickup Available),4,"https://www.google.com/maps/place/Pizza+Hut+Wangsa+Maju+(Curbside+Pickup+Available)/@3.1973285,101.7417676,17z/data=!3m1!4b1!4m5!3m4!1s0x31cc39071efc386b:0x46089362c3a0465c!8m2!3d3.1973996!4d101.7440411?hl=en",https://www.pizzahut.com.my/
"Residensi UTMKL, Gurney Mall, Lot 1-09, 1-10 & 1-11, Level 1, Kampung Datuk Keramat, 54100 Kuala Lumpur, Malaysia",Pizza restaurant,1.66E+19,Kuala Lumpur,Gurney Mall,3.1717158,101.7221228,"Residensi UTMKL, Gurney Mall, Lot 1-09, 1-10 & 1-11, Level 1",,,+60 3-2202 8114,54100,14,"https://www.google.com/maps/search/Pizza+Hut+in+Kuala+Lumpur,+Federal+Territory+of+Kuala+Lumpur/@3.141278,101.6235504,12z?hl=en",Federal Territory of Kuala Lumpur,"Residensi UTMKL, Gurney Mall, Lot 1-09, 1-10 & 1-11, Level 1",Pizza Hut GURNEY MALL UTMKL,3.9,"https://www.google.com/maps/place/Pizza+Hut+GURNEY+MALL+UTMKL/@3.1717158,101.7199341,17z/data=!3m1!4b1!4m5!3m4!1s0x31cc37dea50bee09:0xe5ddedcbf5aefff4!8m2!3d3.1717158!4d101.7221228?hl=en",https://www.pizzahut.com.my/?utm_source=googlemybusiness&utm_medium=organic&utm_campaign=fcd&utm_content=websitelink
"No.13, (Ground Floor), Jalan AU 1A/4B, Taman Keramat Permai, 54200 Taman Keramat Permai, Federal Territory of Kuala Lumpur, Malaysia",Pizza restaurant,6.81E+18,Taman Keramat Permai,,3.17741,101.7385241,"No.13, (Ground Floor), Jalan AU 1A/4B, Taman Keramat Permai",pizzahut.com.my,https://www.pizzahut.com.my/?utm_source=google&utm_medium=organic&utm_campaign=googlemybusiness&utm_content=orderlinkphd,+60 1-300-88-2525,54200,13,"https://www.google.com/maps/search/Pizza+Hut+in+Kuala+Lumpur,+Federal+Territory+of+Kuala+Lumpur/@3.141278,101.6235504,12z?hl=en",Federal Territory of Kuala Lumpur,"No.13, (Ground Floor), Jalan AU 1A/4B, Taman Keramat Permai",Pizza Hut Delivery (PHD) SETIAWANGSA,4.1,"https://www.google.com/maps/place/Pizza+Hut+Delivery+(PHD)+SETIAWANGSA/@3.17741,101.7363354,17z/data=!3m1!4b1!4m5!3m4!1s0x31cc3790fb46f901:0x5e781600dbd0d57b!8m2!3d3.17741!4d101.7385241?hl=en",https://www.pizzahut.com.my/?utm_source=googlemybusiness&utm_medium=organic&utm_campaign=phd&utm_content=websitelink
"No. 87, Jalan Dwitasik 1, Dataran Dwitasik, 56000 Kuala Lumpur, Wilayah Persekutuan Kuala Lumpur, Malaysia",Pizza restaurant,1.29E+19,Kuala Lumpur,PPC Glomac Sales & Marketing,3.1018845,101.7128162,"No. 87, Jalan Dwitasik 1",pizzahut.com.my,https://www.pizzahut.com.my/?utm_source=google&utm_medium=organic&utm_campaign=googlemybusiness&utm_content=orderlinkphd,+60 1-300-88-2525,56000,12,"https://www.google.com/maps/search/Pizza+Hut+in+Kuala+Lumpur,+Federal+Territory+of+Kuala+Lumpur/@3.141278,101.6235504,12z?hl=en",Federal Territory of Kuala Lumpur,"No. 87, Jalan Dwitasik 1",Pizza Hut Delivery (PHD) BDR SERI PERMAISURI,3.9,"https://www.google.com/maps/place/Pizza+Hut+Delivery+(PHD)+BDR+SERI+PERMAISURI/@3.1018845,101.7106275,17z/data=!3m1!4b1!4m5!3m4!1s0x31cc350d607291f3:0xb33943bf2d19e814!8m2!3d3.1018845!4d101.7128162?hl=en",https://www.pizzahut.com.my/?utm_source=googlemybusiness&utm_medium=organic&utm_campaign=phd&utm_content=websitelink
"No. 26, Jalan Bangsar, Bangsar, 59100 Kuala Lumpur, Wilayah Persekutuan Kuala Lumpur, Malaysia",Pizza restaurant,1.71E+19,Kuala Lumpur,,3.1288893,101.6798474,"No. 26, Jalan Bangsar",pizzahut.com.my,https://www.pizzahut.com.my/?utm_source=google&utm_medium=organic&utm_campaign=googlemybusiness&utm_content=orderlinkphd,+60 1-300-88-2525,59100,11,"https://www.google.com/maps/search/Pizza+Hut+in+Kuala+Lumpur,+Federal+Territory+of+Kuala+Lumpur/@3.141278,101.6235504,12z?hl=en",Federal Territory of Kuala Lumpur,"No. 26, Jalan Bangsar",PIzza Hut Delivery (PHD) BANGSAR (Curbside Pickup Available),3.9,"https://www.google.com/maps/place/PIzza+Hut+Delivery+(PHD)+BANGSAR+(Curbside+Pickup+Available)/@3.1288893,101.6776587,17z/data=!3m1!4b1!4m5!3m4!1s0x31cc4943d641e76d:0xecc81371af90960d!8m2!3d3.1288922!4d101.6798439?hl=en",https://www.pizzahut.com.my/?utm_source=googlemybusiness&utm_medium=organic&utm_campaign=phd&utm_content=websitelink
"No. 136, Jalan Pahang, 50300 Kuala Lumpur, Wilayah Persekutuan Kuala Lumpur, Malaysia",Pizza restaurant,9.21E+18,Kuala Lumpur,,3.1726587,101.6990662,"No. 136, Jalan Pahang",pizzahut.com.my,https://www.pizzahut.com.my/?utm_source=google&utm_medium=organic&utm_campaign=googlemybusiness&utm_content=orderlinkphd,+60 1-300-88-2525,50300,10,"https://www.google.com/maps/search/Pizza+Hut+in+Kuala+Lumpur,+Federal+Territory+of+Kuala+Lumpur/@3.141278,101.6235504,12z?hl=en",Federal Territory of Kuala Lumpur,"No. 136, Jalan Pahang",Pizza Hut Delivery (PHD) JALAN PAHANG (Curbside Pickup Available),3.7,"https://www.google.com/maps/place/Pizza+Hut+Delivery+(PHD)+JALAN+PAHANG+(Curbside+Pickup+Available)/@3.1726587,101.6968775,17z/data=!3m1!4b1!4m5!3m4!1s0x31cc49b4560f6bd3:0x7fe22c5696ecbe2e!8m2!3d3.1726587!4d101.6990662?hl=en",https://www.pizzahut.com.my/?utm_source=googlemybusiness&utm_medium=organic&utm_campaign=phd&utm_content=websitelink
"Wisma Mutiara Genting, G-11,G-12 & G-13, Jalan Genting Kelang, 53000 Kuala Lumpur, Malaysia",Pizza restaurant,1.59E+19,Kuala Lumpur,,3.1965599,101.7139735,"Wisma Mutiara Genting, G-11,G-12 & G-13, Jalan Genting Kelang",,,,53000,9,"https://www.google.com/maps/search/Pizza+Hut+in+Kuala+Lumpur,+Federal+Territory+of+Kuala+Lumpur/@3.141278,101.6235504,12z?hl=en",Federal Territory of Kuala Lumpur,"Wisma Mutiara Genting, G-11,G-12 & G-13, Jalan Genting Kelang",Pizza Hut Genting Kelang,3.7,"https://www.google.com/maps/place/Pizza+Hut+Genting+Kelang/@3.1965599,101.7117848,17z/data=!3m1!4b1!4m5!3m4!1s0x31cc380469e87e29:0xdc5f9261cf89ebc9!8m2!3d3.1965599!4d101.7139735?hl=en",https://www.pizzahut.com.my/en/home
"No. 22, Ground Floor, Jalan Tasek Utama, 9, Medan Niaga Tasik Damai, Sungai Besi, 57100 Kuala Lumpur, Federal Territory of Kuala Lumpur, Malaysia",Pizza restaurant,1.04E+19,Kuala Lumpur,,3.061321,101.7108078,"No. 22, Ground Floor, Jalan Tasek Utama, 9, Medan Niaga Tasik Damai",pizzahut.com.my,https://www.pizzahut.com.my/?utm_source=googlemybusiness&utm_medium=organic&utm_campaign=rr&utm_content=orderlink,+60 1-300-88-2525,57100,8,"https://www.google.com/maps/search/Pizza+Hut+in+Kuala+Lumpur,+Federal+Territory+of+Kuala+Lumpur/@3.141278,101.6235504,12z?hl=en",Federal Territory of Kuala Lumpur,"No. 22, Ground Floor, Jalan Tasek Utama, 9, Medan Niaga Tasik Damai",Pizza Hut SUNGAI BESI (Curbside Pickup Available),3.8,"https://www.google.com/maps/place/Pizza+Hut+SUNGAI+BESI+(Curbside+Pickup+Available)/@3.061321,101.7086191,17z/data=!3m1!4b1!4m5!3m4!1s0x31cc35fa320b086f:0x905c2c9664bc572a!8m2!3d3.061321!4d101.7108078?hl=en",https://www.pizzahut.com.my/
"Ground 45, Jalan Tun Mohd Fuad, Taman Tun Dr Ismail, 60000 Kuala Lumpur, Wilayah Persekutuan Kuala Lumpur, Malaysia",Pizza restaurant,4.22E+18,Kuala Lumpur,,3.1390246,101.6280913,"Ground 45, Jalan Tun Mohd Fuad",pizzahut.com.my,https://www.pizzahut.com.my/?utm_source=googlemybusiness&utm_medium=organic&utm_campaign=rr&utm_content=orderlink,+60 1-300-88-2525,60000,7,"https://www.google.com/maps/search/Pizza+Hut+in+Kuala+Lumpur,+Federal+Territory+of+Kuala+Lumpur/@3.141278,101.6235504,12z?hl=en",Federal Territory of Kuala Lumpur,"Ground 45, Jalan Tun Mohd Fuad",Pizza Hut TTDI (Curbside Pickup Available),3.8,"https://www.google.com/maps/place/Pizza+Hut+TTDI+(Curbside+Pickup+Available)/@3.1390246,101.6259026,17z/data=!3m1!4b1!4m5!3m4!1s0x31cc493a6ef5c0bf:0x3a89c4d5e70b82e3!8m2!3d3.1391086!4d101.6280587?hl=en",http://www.pizzahut.com.my/
"Lot G103, Ground Floor, 568, Jln Sultan Azlan Shah, Batu Complex Bussiness Centre, 51200 Kuala Lumpur, Federal Territory of Kuala Lumpur, Malaysia",Pizza restaurant,7.10E+18,Kuala Lumpur,Mutiara Complex Jalan Ipoh,3.1887178,101.6806793,"Lot G103, Ground Floor, 568, Jln Sultan Azlan Shah",pizzahut.com.my,https://www.pizzahut.com.my/?utm_source=googlemybusiness&utm_medium=organic&utm_campaign=rbd&utm_content=orderlink,+60 1-300-88-2525,51200,6,"https://www.google.com/maps/search/Pizza+Hut+in+Kuala+Lumpur,+Federal+Territory+of+Kuala+Lumpur/@3.141278,101.6235504,12z?hl=en",Federal Territory of Kuala Lumpur,"Lot G103, Ground Floor, 568, Jln Sultan Azlan Shah",Pizza Hut KOMPLEKS MUTIARA,3.7,"https://www.google.com/maps/place/Pizza+Hut+KOMPLEKS+MUTIARA/@3.1887178,101.6784906,17z/data=!3m1!4b1!4m5!3m4!1s0x31cc4875afcdfa7f:0x629312a4a41f5dbd!8m2!3d3.1887178!4d101.6806793?hl=en",https://www.pizzahut.com.my/?utm_source=googlemybusiness&utm_medium=organic&utm_campaign=rbd&utm_content=websitelink
"Unit G-5, Ground Floor, Suria @ North Kiara, No.10, Jalan Seri Bintang, Bukit Seri Bintang, 52100 Kuala Lumpur, Federal Territory of Kuala Lumpur, Malaysia",Restaurant,1.80E+19,Kuala Lumpur,,3.1847224,101.64608,"Unit G-5, Ground Floor, Suria @ North Kiara, No.10, Jalan Seri Bintang",,,+60 1-300-88-2525,52100,5,"https://www.google.com/maps/search/Pizza+Hut+in+Kuala+Lumpur,+Federal+Territory+of+Kuala+Lumpur/@3.141278,101.6235504,12z?hl=en",Federal Territory of Kuala Lumpur,"Unit G-5, Ground Floor, Suria @ North Kiara, No.10, Jalan Seri Bintang",Pizza Hut Delivery @ North Kiara,3.1,"https://www.google.com/maps/place/Pizza+Hut+Delivery+@+North+Kiara/@3.1847224,101.6438913,17z/data=!3m1!4b1!4m5!3m4!1s0x31cc49b1dd8cfff9:0xf9be791c1f856891!8m2!3d3.1847224!4d101.64608?hl=en",
"No. 52 Ground Floor & 1st Floors, Jalan Jejaka, Maluri, 55100 Kuala Lumpur, Wilayah Persekutuan Kuala Lumpur, Malaysia",Pizza restaurant,1.45E+19,Kuala Lumpur,,3.1261705,101.7295931,"No. 52 Ground Floor & 1st Floors, Jalan Jejaka",pizzahut.com.my,https://www.pizzahut.com.my/?utm_source=googlemybusiness&utm_medium=organic&utm_campaign=rr&utm_content=orderlink,+60 1-300-88-2525,55100,4,"https://www.google.com/maps/search/Pizza+Hut+in+Kuala+Lumpur,+Federal+Territory+of+Kuala+Lumpur/@3.141278,101.6235504,12z?hl=en",Federal Territory of Kuala Lumpur,"No. 52 Ground Floor & 1st Floors, Jalan Jejaka",Pizza Hut TAMAN MALURI (Curbside Pickup Available),3.9,"https://www.google.com/maps/place/Pizza+Hut+TAMAN+MALURI+(Curbside+Pickup+Available)/@3.1261705,101.7274044,17z/data=!3m1!4b1!4m5!3m4!1s0x31cc366caca1120b:0xc9231a0865ae67aa!8m2!3d3.1260877!4d101.7296021?hl=en",https://www.pizzahut.com.my/
"Lg floor, Berjaya Times Square, 1, Jalan Imbi, Imbi, 55100 Kuala Lumpur, Wilayah Persekutuan Kuala Lumpur, Malaysia",Pizza restaurant,2.57E+18,Kuala Lumpur,,3.140701,101.71042,"Lg floor, Berjaya Times Square, 1, Jalan Imbi",pizzahut.com.my,https://www.pizzahut.com.my/?utm_source=googlemybusiness&utm_medium=organic&utm_campaign=rr&utm_content=orderlink,+60 1-300-88-2525,55100,3,"https://www.google.com/maps/search/Pizza+Hut+in+Kuala+Lumpur,+Federal+Territory+of+Kuala+Lumpur/@3.141278,101.6235504,12z?hl=en",Federal Territory of Kuala Lumpur,"Lg floor, Berjaya Times Square, 1, Jalan Imbi",Pizza Hut BERJAYA TIMES SQUARE,3.1,"https://www.google.com/maps/place/Pizza+Hut+BERJAYA+TIMES+SQUARE/@3.140701,101.7082313,17z/data=!3m1!4b1!4m5!3m4!1s0x31cc37fd12f9b08b:0x23b57c29e32c90f3!8m2!3d3.140701!4d101.71042?hl=en",https://www.pizzahut.com.my/
"1018, Jln Sultan Ismail, Bukit Bintang, 50250 Kuala Lumpur, Wilayah Persekutuan Kuala Lumpur, Malaysia",Pizza restaurant,3.18E+18,Kuala Lumpur,Quill City Mall Kuala Lumpur,3.1598664,101.7000562,"1018, Jln Sultan Ismail",,,+60 1-300-88-2525,50250,2,"https://www.google.com/maps/search/Pizza+Hut+in+Kuala+Lumpur,+Federal+Territory+of+Kuala+Lumpur/@3.141278,101.6235504,12z?hl=en",Federal Territory of Kuala Lumpur,"1018, Jln Sultan Ismail",Pizza Hut,3.8,"https://www.google.com/maps/place/Pizza+Hut/@3.1598664,101.6978675,17z/data=!3m1!4b1!4m5!3m4!1s0x31cc482f39775f63:0x2c32d3d74592af43!8m2!3d3.1598664!4d101.7000562?hl=en",https://www.pizzahut.com.my/
"No. 143, Ground & 1st Floor, Jalan Imbi, Kuala Lumpur, 55100 Kuala Lumpur, Federal Territory of Kuala Lumpur, Malaysia",Pizza restaurant,6.02E+17,Kuala Lumpur,,3.1445246,101.7139694,"No. 143, Ground & 1st Floor, Jalan Imbi, Kuala Lumpur",pizzahut.com.my,https://www.pizzahut.com.my/?utm_source=googlemybusiness&utm_medium=organic&utm_campaign=phd&utm_content=orderlink,+60 1-300-88-2525,55100,1,"https://www.google.com/maps/search/Pizza+Hut+in+Kuala+Lumpur,+Federal+Territory+of+Kuala+Lumpur/@3.141278,101.6235504,12z?hl=en",Federal Territory of Kuala Lumpur,"No. 143, Ground & 1st Floor, Jalan Imbi, Kuala Lumpur",Pizza Hut Delivery (PHD) JALAN IMBI (Curbside Pickup Available),3.6,"https://www.google.com/maps/place/Pizza+Hut+Delivery+(PHD)+JALAN+IMBI+(Curbside+Pickup+Available)/@3.1445246,101.7117807,17z/data=!3m1!4b1!4m5!3m4!1s0x31cc362ec2aee2b1:0x85acc9f83cfaabc!8m2!3d3.1444444!4d101.7140332?hl=en",https://www.pizzahut.com.my/?utm_source=googlemybusiness&utm_medium=organic&utm_campaign=phd&utm_content=websitelink
